airport_code,city_code,airport_name_en,airport_name_ar,airport_name_hi,Address in English,Address in Arabic,,Email,Phone,Website
AAA,AAA,Anaa Airport,,,,,,,,
AAB,,,,,,,,,,
AAE,AAE,Annaba Airport,,,,,,,,
AAL,AAL,Aalborg Airport,,,,,,,,
AAN,AAN,Al Ain International Airport,,,,,,,,
AAQ,AAQ,Anapa Airport,,,,,,,,
AAR,AAR,Aarhus Airport,,,,,,,,
AAT,DOY,Altay Air Base,,,,,,,,
AAX,,,,,,,,,,
ABA,ABA,Abakan Airport,,,,,,,,
ABB,AKR,Asaba International Airport,,,,,,,,
ABD,ABD,Abadan Airport,,,,,,,,
ABE,ABE,Lehigh Valley International Airport,,,,,,,,
ABI,ABI,Abilene Regional Airport,,,,,,,,
ABJ,ABJ,Port Bouet Airport,,,,,,,,
ABL,FAI,Ambler Airport,,,,,,,,
ABM,,``````````,,,,,,,,
ABQ,ABQ,Albuquerque International Sunport Airport,,,,,,,,
ABR,ABR,Aberdeen Regional Airport,,,,,,,,
ABS,ABS,Abu Simbel Airport,,,,,,,,
ABT,ABT,Al Baha Airport,,,,,,,,
ABU,,,,,,,,,,
ABV,ABV,Nnamdi Azikiwe International Airport,,,,,,,,
ABX,ABX,Albury Airport,,,,,,,,
ABY,ABY,Southwest Georgia Regional Airport,,,,,,,,
ABZ,ABZ,Aberdeen Airport,,,,,,,,
ACA,ACA,General Juan N Lvarez International Airport,,,,,,,,
ACC,ACC,Kotoka International Airport,,,,,,,,
ACE,ACE,Lanzarote Airport,,,,,,,,
ACH,ACH,St Gallen Altenrhein Airport,,,,,,,,
ACI,ACI,Alderney Airport,,,,,,,,
ACK,ACK,Nantucket Memorial Airport,,,,,,,,
ACT,ACT,Waco Regional Airport,,,,,,,,
ACU,,,,,,,,,,
ACV,ACV,Arcata-eureka Airport,,,,,,,,
ACX,YBP,Xingyi Airport,,,,,,,,
ACY,AIY,Atlantic City International Airport,,,,,,,,
ADA,ADA,Adana Airport,,,,,,,,
ADB,IZM,Adnan Menderes Airport,,,,,,,,
ADD,ADD,Addis Ababa Bole International Airport,,,,,,,,
ADE,ADE,Aden International Airport,,,,,,,,
ADF,,,,,,,,,,
ADH,,,,,,,,,,
ADK,ADK,Adak Airport,,,,,,,,
ADL,ADL,Adelaide Airport,,,,,,,,
ADQ,ADQ,Kodiak Airport,,,,,,,,
ADU,ADU,Ardabil Airport,,,,,,,,
ADZ,ADZ,Gustavo Rojas Pinilla International Airport,,,,,,,,
AEB,JGS,Baise Youjiang Airport,,,,,,,,
AEP,BUE,Aeroparque Jorge Newbery,,,,,,,,
AER,AER,Sochi International Airport,,,,,,,,
AES,AES,Lesund Airport,,,,,,,,
AET,,,,,,,,,,
AEX,AEX,Alexandria International Airport Louisiana,,,,,,,,
AEY,AEY,Akureyri Airport,,,,,,,,
AFA,AFA,Suboficial Ay Santiago Germano Airport,,,,,,,,
AFL,,,,,,,,,,
AGA,AGA,Al Massira Airport,,,,,,,,
AGB,MUC,Augsburg Airport,,,,,,,,
AGF,AGF,Agen-la Garenne Airport,,,,,,,,
AGH,AGH,Ngelholm-helsingborg Airport,,,,,,,,
AGM,JEG,Tasiilaq Heliport,,,,,,,,
AGN,,,,,,,,,,
AGP,AGP,Mlaga Airport,,,,,,,,
AGR,AGR,Agra Airport,,,,,,,,
AGS,AGS,Augusta Regional Airport,,,,,,,,
AGT,AGT,Guarani International Airport,,,,,,,,
AGU,AGU,Lic Jess Tern Peredo International Airport,,,,,,,,
AGX,AGX,Agatti Airport,,,,,,,,
AHB,AHB,Abha Regional Airport,,,,,,,,
AHE,MVT,Ahe Airport,,,,,,,,
AHJ,,,,,,,,,,
AHO,AHO,Alghero - Fertilia Airport,,,,,,,,
AHU,AHU,Cherif Al Idrissi Airport,,,,,,,,
AIA,AIA,Alliance Municipal Airport,,,,,,,,
AIN,,,,,,,,,,
AIT,AIT,Aitutaki Airport,,,,,,,,
AIU,AIU,Enua Airport,,,,,,,,
AJA,AJA,Ajaccio-napolcon Bonaparte Airport,,,,,,,,
AJF,AJF,Al-jawf Domestic Airport,,,,,,,,
AJI,,,,,,,,,,
AJL,AJL,Lengpui Airport,,,,,,,,
AJN,AJN,Ouani Airport,,,,,,,,
AJR,AJR,Arvidsjaur Airport,,,,,,,,
AJU,AJU,Santa Maria Airport,,,,,,,,
AJY,,,,,,,,,,
AKB,OTD,Atka Airport,,,,,,,,
AKF,AKF,Kufra Airport,,,,,,,,
AKI,,,,,,,,,,
AKJ,AKJ,Asahikawa Airport,,,,,,,,
AKK,,,,,,,,,,
AKL,AKL,Auckland Airport,,,,,,,,
AKN,AKN,King Salmon Airport,,,,,,,,
AKP,,,,,,,,,,
AKU,AKU,Aksu Airport,,,,,,,,
AKV,AKV,Akulivik Airport,,,,,,,,
AKX,AKX,Aktobe Airport,,,,,,,,
AKY,AKY,Sittwe Airport,,,,,,,,
ALA,ALA,Almaty International Airport,,,,,,,,
ALB,ALB,Albany International Airport,,,,,,,,
ALC,ALC,Alicante Airport,,,,,,,,
ALF,ALF,Alta Airport,,,,,,,,
ALG,ALG,Houari Boumediene Airport,,,,,,,,
ALH,ALH,Albany Airport,,,,,,,,
ALO,ALO,Waterloo Regional Airport,,,,,,,,
ALS,ALS,San Luis Valley Regional Airport,,,,,,,,
ALW,ALW,Walla Walla Regional Airport,,,,,,,,
ALZ,RBV,Alitak Seaplane Base,,,,,,,,
AMA,AMA,Rick Husband Amarillo International Airport,,,,,,,,
AMD,AMD,Sardar Vallabhbhai Patel International Airport,,,,,,,,
AMH,AMH,Arba Minch Airport,,,,,,,,
AMM,AMM,Queen Alia International Airport,,,,,,,,
AMQ,,,,,,,,,,
AMS,AMS,Amsterdam Airport Schiphol,,,,,,,,
ANC,ANC,Ted Stevens Anchorage International Airport,,,,,,,,
ANE,ANE,Angers-loire Airport,,,,,,,,
ANF,ANF,Cerro Moreno International Airport,,,,,,,,
ANI,ANI,Aniak Airport,,,,,,,,
ANR,ANR,Antwerp International Airport,,,,,,,,
ANS,ANS,Andahuaylas Airport,,,,,,,,
ANU,ANU,V C Bird International Airport,,,,,,,,
ANV,ANV,Anvik Airport,,,,,,,,
ANX,ANX,Andya Airport,,,,,,,,
AOE,,,,,,,,,,
AOG,YIN,Anshan Air Base,,,,,,,,
AOI,AOI,Ancona - Falconara Airport,,,,,,,,
AOJ,AOJ,Aomori Airport,,,,,,,,
AOK,AOK,Karpathos Island National Airport,,,,,,,,
AOO,AOO,Altoona-blair County Airport,,,,,,,,
AOQ,,,,,,,,,,
AOR,AOR,Sultan Abdul Halim Airport,,,,,,,,
AOS,RBV,Amook Bay Seaplane Base,,,,,,,,
AOU,,,,,,,,,,
APF,APF,Naples Municipal Airport,,,,,,,,
APK,APK,Apataki Airport,,,,,,,,
APL,APL,Nampula Airport,,,,,,,,
APN,APN,Alpena County Regional Airport,,,,,,,,
APO,IPI,Antonio Roldan Betancourt Airport,,,,,,,,
APW,APW,Faleolo International Airport,,,,,,,,
AQG,AQG,Anqing Airport,,,,,,,,
AQI,AQI,Hafr Al Batin Airport,,,,,,,,
AQJ,AQJ,Aqaba King Hussein International Airport,,,,,,,,
AQP,AQP,Rodrguez Balln International Airport,,,,,,,,
ARC,,,,,,,,,,
ARD,,,,,,,,,,
ARH,ARH,Talagi Airport,,,,,,,,
ARI,ARI,Chacalluta International Airport,,,,,,,,
ARK,ARK,Arusha Airport,,,,,,,,
ARM,ARM,Armidale Airport,,,,,,,,
ARN,STO,Stockholm Arlanda Airport,,,,,,,,
ART,ART,Watertown International Airport,,,,,,,,
ARU,,,,,,,,,,
ASB,ASB,Ashgabat Airport,,,,,,,,
ASE,ASE,Aspen-pitkin County Airport,,,,,,,,
ASF,ASF,Astrakhan Airport,,,,,,,,
ASJ,ASJ,Amami Airport,,,,,,,,
ASM,ASM,Asmara International Airport,,,,,,,,
ASO,ASO,Asosa Airport,,,,,,,,
ASP,ASP,Alice Springs Airport,,,,,,,,
ASR,ASR,Kayseri Erkilet Airport,,,,,,,,
ASS,,,,,,,,,,
ASU,ASU,Silvio Pettirossi International Airport,,,,,,,,
ASV,ASV,Amboseli Airport,,,,,,,,
ASW,ASW,Aswan International Airport,,,,,,,,
ATA,,,,,,,,,,
ATC,ATC,Arthurs Town Airport,,,,,,,,
ATD,ATD,Uru Harbour Airport,,,,,,,,
ATH,ATH,Athens International Airport,,,,,,,,
ATK,,,,,,,,,,
ATL,ATL,Hartsfield-jackson Atlanta International Airport,,,,,,,,
ATM,,,,,,,,,,
ATQ,ATQ,Sri Guru Ram Dass Jee International Airport,,,,,,,,
ATT,,,,,,,,,,
ATW,ATW,Outagamie County Regional Airport,,,,,,,,
ATZ,ATZ,Assiut International Airport,,,,,,,,
AUA,AUA,Queen Beatrix International Airport,,,,,,,,
AUC,AUC,Santiago Perez Airport,,,,,,,,
AUG,AUG,Augusta State Airport,,,,,,,,
AUH,AUH,Abu Dhabi International Airport,,,,,,,,
AUK,ATK,Alakanuk Airport,,,,,,,,
AUQ,AUQ,Hiva Oa-atuona Airport,,,,,,,,
AUR,AUR,Aurillac Airport,,,,,,,,
AUS,AUS,Austin-bergstrom International Airport,,,,,,,,
AUX,VLV,Aragua-na Airport,,,,,,,,
AUY,AUY,Aneityum Airport,,,,,,,,
AVA,HSN,Anshun Huangguoshu Airport,,,,,,,,
AVL,AVL,Asheville Regional Airport,,,,,,,,
AVN,AVN,Avignon-caumont Airport,,,,,,,,
AVP,AVP,Wilkes-barre-scranton International Airport,,,,,,,,
AVV,MEL,Avalon Airport,,,,,,,,
AWA,,,,,,,,,,
AWD,AWD,Aniwa Airport,,,,,,,,
AWZ,AWZ,Ahwaz Airport,,,,,,,,
AXA,AXA,Clayton J Lloyd International Airport,,,,,,,,
AXD,AXD,Dimokritos Airport,,,,,,,,
AXF,,,,,,,,,,
AXM,AXM,El Edn International Airport,,,,,,,,
AXP,AXP,Spring Point Airport,,,,,,,,
AXR,AXR,Arutua Airport,,,,,,,,
AXT,AXT,Akita Airport,,,,,,,,
AXU,AXU,Axum Airport,,,,,,,,
AYM,,,,,,,,,,
AYP,AYP,Coronel Fap Alfredo Mendivil Duarte Airport,,,,,,,,
AYQ,AYQ,Ayers Rock Connellan Airport,,,,,,,,
AYT,AYT,Antalya Airport,,,,,,,,
AZD,AZD,Shahid Sadooghi Airport,,,,,,,,
AZN,AZN,Andizhan Airport,,,,,,,,
AZO,AZO,Kalamazoo-battle Creek International Airport,,,,,,,,
AZR,AZR,Touat Cheikh Sidi Mohamed Belkebir Airport,,,,,,,,
AZS,AZS,Saman El Catey International Airport,,,,,,,,
BAD,,,,,,,,,,
BAH,BAH,Bahrain International Airport,,,,,,,,
BAL,,,,,,,,,,
BAQ,BAQ,Ernesto Cortissoz International Airport,,,,,,,,
BAS,BAS,Ballalae Airport,,,,,,,,
BAV,BAV,Baotou Airport,,,,,,,,
BAX,BAX,Barnaul Airport,,,,,,,,
BBA,BBA,Balmaceda Airport,,,,,,,,
BBI,BBI,Biju Patnaik Airport,,,,,,,,
BBK,BBK,Kasane Airport,,,,,,,,
BBN,BBN,Bario Airport,,,,,,,,
BBO,,,,,,,,,,
BCA,,,,,,,,,,
BCD,BCD,Bacolod-silay City International Airport,,,,,,,,
BCI,BCI,Barcaldine Airport,,,,,,,,
BCM,BCM,Bacu Airport,,,,,,,,
BCN,BCN,Barcelona-el Prat Airport,,,,,,,,
BDL,BDL,Bradley International Airport,,,,,,,,
BCV,,,,,,,,,,
BDA,BDA,Lf Wade International Airport,,,,,,,,
BDB,BDB,Bundaberg Airport,,,,,,,,
BDH,BDH,Bandar Lengeh Airport,,,,,,,,
BDJ,BDJ,Syamsudin Noor Airport,,,,,,,,
BDO,BDO,Husein Sastranegara International Airport,,,,,,,,
BDP,BWA,Bhadrapur Airport,,,,,,,,
BDQ,BDQ,Vadodara Airport,,,,,,,,
BDS,BDS,Brindisi - Casale Airport,,,,,,,,
BDU,BDU,Bardufoss Airport,,,,,,,,
BEB,BEB,Benbecula Airport,,,,,,,,
BEG,BEG,Belgrade Nikola Tesla Airport,,,,,,,,
BEJ,BEJ,Baraukalimaru Airport,,,,,,,,
BEL,BEL,Val De Ces International Airport,,,,,,,,
BEM,BGF,Bossembclc Airport,,,,,,,,
BEN,BEN,Benina International Airport,,,,,,,,
BES,BES,Brest Bretagne Airport,,,,,,,,
BET,BET,Bethel Airport,,,,,,,,
BEU,,,,,,,,,,
BEW,BEW,Beira Airport,,,,,,,,
BEY,BEY,Beirut-rafic Hariri International Airport,,,,,,,,
BFC,,,,,,,,,,
BFD,BFD,Bradford Regional Airport,,,,,,,,
BFF,BFF,Western Nebraska Regional Airport,,,,,,,,
BFI,SEA,King County International Airport,,,,,,,,
BFJ,ICI,Ba Airport,,,,,,,,
BFL,BFL,Meadows Field Airport,,,,,,,,
BFN,BFN,Bloemfontein Airport,,,,,,,,
BFQ,,,,,,,,,,
BFS,BFS,Belfast International Airport,,,,,,,,
BFV,BFV,Buri Ram Airport,,,,,,,,
BFX,,,,,,,,,,
BGA,BGA,Palonegro International Airport,,,,,,,,
BGF,BGF,Bangui Mpoko International Airport,,,,,,,,
BGG,,,,,,,,,,
BGI,BGI,Grantley Adams International Airport,,,,,,,,
BGM,BGM,Greater Binghamton Airport,,,,,,,,
BGN,,,,,,,,,,
BGO,BGO,Bergen Airport,,,,,,,,
BGR,BGR,Bangor International Airport,,,,,,,,
BGW,BGW,Baghdad International Airport,,,,,,,,
BGY,MIL,Il Caravaggio International Airport,,,,,,,,
BHB,BHB,Hancock County-bar Harbor Airport,,,,,,,,
BHD,BFS,George Best Belfast City Airport,,,,,,,,
BHE,BHE,Woodbourne Airport,,,,,,,,
BHH,BHH,Bisha Airport,,,,,,,,
BHI,BHI,Comandante Espora Airport,,,,,,,,
BHJ,BHJ,Bhuj Airport,,,,,,,,
BHK,BHK,Bukhara Airport,,,,,,,,
BHM,BHM,Birmingham-shuttlesworth International Airport,,,,,,,,
BHO,BHO,Raja Bhoj International Airport,,,,,,,,
BHQ,,,,,,,,,,
BHR,KON,Bharatpur Airport,,,,,,,,
BHS,,,,,,,,,,
BHV,BHV,Bahawalpur Airport,,,,,,,,
BHX,BHX,Birmingham Airport,,,,,,,,
BHY,BHY,Beihai Airport,,,,,,,,
BIA,BIA,Bastia-poretta Airport,,,,,,,,
BIF,BHM,Biggs Army Air Field Fort Bliss,,,,,,,,
BIK,BIK,Frans Kaisiepo Airport,,,,,,,,
BIL,BIL,Billings Logan International Airport,,,,,,,,
BIM,BIM,South Bimini Airport,,,,,,,,
BIN,WAG,Bamiyan Airport,,,,,,,,
BIO,BIO,Bilbao Airport,,,,,,,,
BIQ,BIQ,Biarritz-anglet-bayonne Airport,,,,,,,,
BIR,BIR,Biratnagar Airport,,,,,,,,
BIS,BIS,Bismarck Municipal Airport,,,,,,,,
BJA,BJA,Soummam Airport,,,,,,,,
BJF,BJF,Btsfjord Airport,,,,,,,,
BJI,BJI,Bemidji Regional Airport,,,,,,,,
BJL,BJL,Banjul International Airport,,,,,,,,
BJM,BJM,Bujumbura International Airport,,,,,,,,
BJR,BJR,Bahir Dar Airport,,,,,,,,
BJT,,,,,,,,,,
BJV,BJV,Milas Bodrum International Airport,,,,,,,,
BJW,,,,,,,,,,
BJX,BJX,Del Bajo International Airport,,,,,,,,
BJZ,BJZ,Badajoz Airport,,,,,,,,
BKC,BET,Buckland Airport,,,,,,,,
BKG,WWK,Branson Airport,,,,,,,,
BKI,BKI,Kota Kinabalu International Airport,,,,,,,,
BKK,BKK,Suvarnabhumi Airport,,,,,,,,
BKL,,,,,,,,,,
BKM,BKM,Bakalalan Airport,,,,,,,,
BKN,,,,,,,,,,
BKO,BKO,Bamako Senou International Airport,,,,,,,,
BKQ,BKQ,Blackall Airport,,,,,,,,
BKS,BKS,Padang Kemiling Fatmawati Soekarno Airport,,,,,,,,
BKW,BKW,Raleigh County Memorial Airport,,,,,,,,
BKY,,,,,,,,,,
BKZ,BKZ,Bukoba Airport,,,,,,,,
BLA,BLA,Generl Jos Antonio Anzotegui International Airport,,,,,,,,
BLB,,,,,,,,,,
BLD,LAS,Boulder City Municipal Airport,,,,,,,,
BLE,,,,,,,,,,
BLI,BLI,Bellingham International Airport,,,,,,,,
BLJ,BLJ,Batna Airport,,,,,,,,
BLK,BLK,Blackpool International Airport,,,,,,,,
BLL,BLL,Billund Airport,,,,,,,,
BLQ,BLQ,Bologna Guglielmo Marconi Airport,,,,,,,,
BLR,BLR,Bengaluru International Airport,,,,,,,,
BLZ,BLZ,Chileka International Airport,,,,,,,,
BMA,STO,Stockholm Bromma Airport,,,,,,,,
BMB,,,,,,,,,,
BME,BME,Broome International Airport,,,,,,,,
BMI,BMI,Central Illinois Regional Airport,,,,,,,,
BMO,BMO,Banmaw Airport,,,,,,,,
BMU,BMU,Muhammad Salahuddin Airport,,,,,,,,
BMV,BMV,Buon Ma Thuot Airport,,,,,,,,
BMW,BMW,Bordj Badji Mokhtar Airport,,,,,,,,
BMY,BMY,Le Art - Waala Airport,,,,,,,,
BNA,BNA,Nashville International Airport,,,,,,,,
BNC,,,,,,,,,,
BND,BND,Bandar Abbas International Airport,,,,,,,,
BNE,BNE,Brisbane Airport,,,,,,,,
BNI,BNI,Benin Airport,,,,,,,,
BNK,BNK,Ballina Byron Gateway Airport,,,,,,,,
BNN,BNN,Brnnysund Airport,,,,,,,,
BNS,BNS,Barinas Airport,,,,,,,,
BNX,BNX,Banja Luka International Airport,,,,,,,,
BNY,BNY,Bellona-anua Airport,,,,,,,,
BOB,BOB,Bora Bora Airport,,,,,,,,
BOC,,,,,,,,,,
BOD,BOD,Bordeaux-mrignac Airport,,,,,,,,
BOG,BOG,El Dorado International Airport,,,,,,,,
BOH,BOH,Bournemouth Airport,,,,,,,,
BOI,BOI,Boise Airport,,,,,,,,
BOJ,BOJ,Burgas Airport,,,,,,,,
BOM,BOM,Chhatrapati Shivaji International Airport,,,,,,,,
BON,BON,Flamingo International Airport,,,,,,,,
BOO,BOO,Bod Airport,,,,,,,,
BOS,BOS,Logan International Airport,,,,,,,,
BOY,BOY,Bobo Dioulasso Airport,,,,,,,,
BPE,,,,,,,,,,
BPL,AKU,Alashankou Bole Bortala Airport,,,,,,,,
BPN,BPN,Sultan Aji Muhamad Sulaiman Airport,,,,,,,,
BPS,BPS,Porto Seguro Airport,,,,,,,,
BPT,BPT,Jack Brooks Regional Airport,,,,,,,,
BPX,BPX,Qamdo Bangda Airport,,,,,,,,
BQB,BQB,Busselton Regional Airport,,,,,,,,
BQJ,,,,,,,,,,
BQK,BQK,Brunswick Golden Isles Airport,,,,,,,,
BQL,,,,,,,,,,
BQN,BQN,Rafael Hernndez Airport,,,,,,,,
BQS,BQS,Ignatyevo Airport,,,,,,,,
BQT,BQT,Brest Airport,,,,,,,,
BRA,PBM,Barreiras Airport,,,,,,,,
BRC,BRC,San Carlos De Bariloche Airport,,,,,,,,
BRD,BRD,Brainerd Lakes Regional Airport,,,,,,,,
BRE,BRE,Bremen Airport,,,,,,,,
BRI,BRI,Bari Karol Wojtya Airport,,,,,,,,
BRL,BRL,Southeast Iowa Regional Airport,,,,,,,,
BRM,BRM,Barquisimeto International Airport,,,,,,,,
BRN,BRN,Bern Airport,,,,,,,,
BRO,BRO,Brownsville-south Padre Island International Airport,,,,,,,,
BRQ,BRQ,Brno-tutmany Airport,,,,,,,,
BRR,BRR,Barra Airport,,,,,,,,
BRS,BRS,Bristol Airport,,,,,,,,
BRU,BRU,Brussels Airport,,,,,,,,
BRW,BRW,Wiley Post-will Rogers Memorial Airport,,,,,,,,
BSA,BSA,Bosaso Airport,,,,,,,,
BSB,BSB,Braslia International Airport,,,,,,,,
BSC,,,,,,,,,,
BSD,YNO,Baoshan Yunduan Airport,,,,,,,,
BSG,BSG,Bata Airport,,,,,,,,
BSK,BSK,Biskra Airport,,,,,,,,
BSL,BSL,Euroairport Basel-mulhouse-freiburg Airport,,,,,,,,
BSO,BSO,Basco Airport,,,,,,,,
BSR,BSR,Basrah International Airport,,,,,,,,
BST,WAG,Bost Airport,,,,,,,,
BTC,CMB,Batticaloa Airport,,,,,,,,
BTH,BTH,Hang Nadim Airport,,,,,,,,
BTI,,,,,,,,,,
BTJ,BTJ,Sultan Iskandar Muda International Airport,,,,,,,,
BTK,,,,,,,,,,
BTM,BTM,Bert Mooney Airport,,,,,,,,
BTR,BTR,Baton Rouge Metropolitan Airport,,,,,,,,
BTS,BTS,Bratislava Airport,,,,,,,,
BTT,,,,,,,,,,
BTU,BTU,Bintulu Airport,,,,,,,,
BTV,BTV,Burlington International Airport,,,,,,,,
BUA,BUA,Buka Airport,,,,,,,,
BUC,,,,,,,,,,
BUD,BUD,Budapest Ferenc Liszt International Airport,,,,,,,,
BUF,BUF,Buffalo Niagara International Airport,,,,,,,,
BUN,BUN,Gerardo Tobar Lpez Airport,,,,,,,,
BUQ,BUQ,Joshua Mqabuko Nkomo International Airport,,,,,,,,
BUR,BUR,Bob Hope Airport,,,,,,,,
BUS,BUS,Batumi International Airport,,,,,,,,
BUW,KOE,Betoambari Airport,,,,,,,,
BUX,,,,,,,,,,
BUZ,BUZ,Bushehr Airport,,,,,,,,
BVA,PAR,Beauvais-till Airport,,,,,,,,
BVB,BVB,Boa Vista International Airport,,,,,,,,
BVC,BVC,Rabil Airport,,,,,,,,
BVE,BVE,Brive-la Roche Airport,,,,,,,,
BVG,BVG,Berlevg Airport,,,,,,,,
BVH,,,,,,,,,,
BVI,BVI,Birdsville Airport,,,,,,,,
BWA,BWA,Bhairahawa Airport,,,,,,,,
BWE,,,,,,,,,,
BWI,BWI,Baltimore-washington International Airport,,,,,,,,
BWK,BWK,Bol Airport,,,,,,,,
BWN,BWN,Brunei International Airport,,,,,,,,
BWT,BWT,Wynyard Airport,,,,,,,,
BWX,,,,,,,,,,
BXB,,,,,,,,,,
BXU,BXU,Bancasi Airport,,,,,,,,
BYK,ABJ,Bouakc Airport,,,,,,,,
BYM,,,,,,,,,,
BYO,,,,,,,,,,
BYP,,,,,,,,,,
BZE,BZE,Philip S W Goldson International Airport,,,,,,,,
BZG,BZG,Bydgoszcz Ignacy Jan Paderewski Airport,,,,,,,,
BZL,VTZ,Barisal Airport,,,,,,,,
BZN,BZN,Bozeman Yellowstone International Airport,,,,,,,,
BZR,,,,,,,,,,
BZV,BZV,Maya Maya Airport,,,,,,,,
CAB,,,,,,,,,,
CAC,CAC,Cascavel Airport,,,,,,,,
CAE,CAE,Columbia Metropolitan Airport,,,,,,,,
CAG,CAG,Cagliari Elmas Airport,,,,,,,,
CAH,CAH,C Mau Airport,,,,,,,,
CAI,CAI,Cairo International Airport,,,,,,,,
CAK,CAK,Akron-canton Airport,,,,,,NA,,
CAL,CAL,Campbeltown Airport,,,,,,,,
CAN,CAN,Guangzhou Baiyun International Airport,,,,,,,,
CAP,,,,,,,,,,
CAW,,,,,,,,,,
CAY,CAY,Cayenne - Flix Ebou Airport,,,,,,,,
CAZ,,,,,,,,,,
CBB,CBB,Jorge Wilstermann International Airport,,,,,,,,
CBG,CBG,Cambridge Airport,,,,,,,,
CBH,CBH,Bcchar Boudghene Ben Ali Lotfi Airport,,,,,,,,
CBI,,,,,,,,,,
CBO,CBO,Awang Airport,,,,,,,,
CBQ,CBQ,Margaret Ekpo International Airport,,,,,,,,
CBR,CBR,Canberra International Airport,,,,,,,,
CBT,,,,,,,,,,
CCC,CCC,Jardines Del Rey Airport,,,,,,,,
CCF,,,,,,,,,,
CCJ,CCJ,Calicut International Airport,,,,,,,,
CCK,PBO,Cocos Keeling Islands Airport,,,,,,,,
CCM,,,,,,,,,,
CCN,WAG,Chakcharan Airport,,,,,,,,
CCP,CCP,Carriel Sur International Airport,,,,,,,,
CCS,CCS,Simn Bolvar International Airport,,,,,,,,
CCU,CCU,Netaji Subhash Chandra Bose International Airport,,,,,,,,
CCV,CCV,Craig Cove Airport,,,,,,,,
CDB,CDB,Cold Bay Airport,,,,,,,,
CDC,CDC,Cedar City Regional Airport,,,,,,,,
CDG,PAR,Charles De Gaulle Airport,,,,,,,,
CDR,CDR,Chadron Municipal Airport,,,,,,,,
CDT,,,,,,,,,,
CDV,CDV,Merle K Mudhole Smith Airport,,,,,,,,
CEB,CEB,Mactan-cebu International Airport,,,,,,,,
CEC,CEC,Del Norte County Airport,,,,,,,,
CED,,,,,,,,,,
CEE,,,,,,,,,,
CEG,,,,,,,,,,
CEI,CEI,Chiang Rai International Airport,,,,,,,,
CEK,CEK,Chelyabinsk Balandino Airport,,,,,,,,
CEM,,,,,,,,,,
CEN,CEN,Ciudad Obregn International Airport,,,,,,,,
CEZ,CEZ,Cortez Municipal Airport,,,,,,,,
CFB,,,,,,,,,,
CFE,CFE,Clermont-ferrand Auvergne Airport,,,,,,,,
CFG,,,,,,,,,,
CFK,,,,,,,,,,
CFN,CFN,Donegal Airport,,,,,,,,
CFR,CFR,Caen-carpiquet Airport,,,,,,,,
CFS,CFS,Coffs Harbour Airport,,,,,,,,
CFU,CFU,Corfu International Airport,,,,,,,,
CGA,YCK,Craig Seaplane Base,,,,,,,,
CGB,CGB,Marechal Rondon International Airport,,,,,,,,
CGD,CGD,Changde Airport,,,,,,,,
CGH,SAO,Congonhas-so Paulo Airport,,,,,,,,
CGI,CGI,Cape Girardeau Regional Airport,,,,,,,,
CGK,JKT,Soekarno-hatta International Airport,,,,,,,,
CGM,CGM,Camiguin Airport,,,,,,,,
CGN,CGN,Cologne Bonn Airport,,,,,,,,
CGO,CGO,Xinzheng Airport,,,,,,,,
CGP,CGP,Shah Amanat International Airport,,,,,,,,
CGQ,CGQ,Longjia Airport,,,,,,,,
CGR,CGR,Campo Grande Airport,,,,,,,,
CGY,CGY,Laguindingan International Airport,,,,,,,,
CHA,CHA,Chattanooga Metropolitan Airport,,,,,,,,
CHC,CHC,Christchurch International Airport,,,,,,,,
CHG,CHG,Chaoyang Airport,,,,,,,,
CHO,CHO,Charlottesville-albemarle Airport,,,,,,,,
CHQ,CHQ,Chania International Airport,,,,,,,,
CHR,,,,,,,,,,
CHS,CHS,Charleston International Airport,,,,,,,,
CHT,,,,,,,,,,
CHU,,,,,,,,,,
CHX,,,,,,,,,,
CHY,BNY,Choiseul Bay Airport,,,,,,,,
CIA,ROM,Ciampino-g B Pastine International Airport,,,,,,,,
CID,CID,The Eastern Iowa Airport,,,,,,,,
CIF,CIF,Chifeng Airport,,,,,,,,
CIH,CIH,Changzhi Airport,,,,,,,,
CIJ,CIJ,Capitn An-bal Arab Airport,,,,,,,,
CIK,,,,,,,,,,
CIT,CIT,Shymkent Airport,,,,,,,,
CIU,CIU,Chippewa County International Airport,,,,,,,,
CIX,CIX,Cap Fap Jos A Quiones Gonzles International Airport,,,,,,,,
CIY,SUF,Comiso Airport Vincenzo Magliocco,,,,,,,,
CJA,CJA,Mayor General Fap Armando Revoredo Iglesias Airport,,,,,,,,
CJB,CJB,Coimbatore International Airport,,,,,,,,
CJC,CJC,El Loa International Airport,,,,,,,,
CJF,,,,,,,,,,
CJJ,CJJ,Cheongju International Airport,,,,,,,,
CJL,CJL,Chitral Airport,,,,,,,,
CJM,NAW,Chumphon Airport,,,,,,,,
CJS,CJS,Abraham Gonzlez International Airport,,,,,,,,
CJU,CJU,Jeju International Airport,,,,,,,,
CKB,CKB,North Central West Virginia Airport,,,,,,,,
CKD,,,,,,,,,,
CKG,CKG,Chongqing Jiangbei International Airport,,,,,,,,
CKH,,,,,,,,,,
CKS,CKS,Carajs Airport,,,,,,,,
CKX,,,,,,,,,,
CKY,CKY,Conakry International Airport,,,,,,,,
CKZ,,,,,,,,,,
CLE,CLE,Cleveland Hopkins International Airport,,,,,,,,
CLJ,CLJ,Cluj International Airport,,,,,,,,
CLL,CLL,Easterwood Airport,,,,,,,,
CLO,CLO,Alfonso Bonilla Aragon International Airport,,,,,,,,
CLP,AET,Clarks Point Airport,,,,,,,,
CLQ,CLQ,Lic Miguel De La Madrid Airport,,,,,,,,
CLT,CLT,Charlotte Douglas International Airport,,,,,,,,
CLV,,,,,,,,,,
CLY,CLY,Calvi-sainte-catherine Airport,,,,,,,,
CMA,,,,,,,,,,
CMB,CMB,Bandaranaike International Airport,,,,,,,,
CME,CME,Ciudad Del Carmen International Airport,,,,,,,,
CMF,CMF,Chambry Airport,,,,,,,,
CMG,,,,,,,,,,
CMH,CMH,Port Columbus International Airport,,,,,,,,
CMI,CMI,University Of Illinois Willard Airport,,,,,,,,
CMK,,,,,,,,,,
CMN,CAS,Mohammed V International Airport,,,,,,,,
CMW,CMW,Ignacio Agramonte International Airport,,,,,,,,
CMX,CMX,Houghton County Memorial Airport,,,,,,,,
CND,CND,Mihail Koglniceanu International Airport,,,,,,,,
CNF,BHZ,Tancredo Neves International Airport,,,,,,,,
CNJ,CNJ,Cloncurry Airport,,,,,,,,
CNM,CNM,Cavern City Air Terminal,,,,,,,,
CNP,CNP,Neerlerit Inaat Airport,,,,,,,,
CNQ,CNQ,Corrientes Airport,,,,,,,,
CNS,CNS,Cairns Airport,,,,,,,,
CNX,CNX,Chiang Mai Airport,,,,,,,,
CNY,CNY,Canyonlands Field Airport,,,,,,,,
COD,COD,Yellowstone Regional Airport,,,,,,,,
COK,COK,Cochin International Airport,,,,,,,,
COL,,,,,,,,,,
COO,COO,Cadjehoun Airport,,,,,,,,
COQ,UYN,Choibalsan Airport,,,,,,,,
COR,COR,Ingeniero Aeronutico Ambrosio Lv Taravella International Airport,,,,,,,,
COS,COS,Colorado Springs Airport,,,,,,,,
COU,COU,Columbia Regional Airport,,,,,,,,
CPC,CPC,Aviador C Campos Airport,,,,,,,,
CPD,,,,,,,,,,
CPE,CPE,Ingeniero Alberto Acua Ongay International Airport,,,,,,,,
CPH,CPH,Copenhagen Airport,,,,,,,,
CPO,CPO,Chamonate Airport,,,,,,,,
CPR,CPR,Casper-natrona County International Airport,,,,,,,,
CPS,,,,,,,,,,
CPT,CPT,Cape Town International Airport,,,,,,,,
CPV,CPV,Presidente Joo Suassuna Airport,,,,,,,,
CPX,CPX,Benjamin Rivera Noriega Airport,,,,,,,,
CRA,CRA,Craiova Airport,,,,,,,,
CRD,CRD,General E Mosconi Airport,,,,,,,,
CRI,CRI,Colonel Hill Airport,,,,,,,,
CRK,CRK,Diosdado Macapagal International Airport,,,,,,,,
CRL,BRU,Brussels South Charleroi Airport,,,,,,,,
CRM,CRM,Catarman National Airport,,,,,,,,
CRP,CRP,Corpus Christi International Airport,,,,,,,,
CRW,CRW,Yeager Airport,,,,,,,,
CRZ,,,,,,,,,,
CSA,,,,,,,,,,
CSG,CSG,Columbus Airport,,,,,,,,
CSK,,,,,,,,,,
CSX,CSX,Changsha Huanghua International Airport,,,,,,,,
CSY,CSY,Cheboksary Airport,,,,,,,,
CTA,CTA,Catania Interational Airport,,,,,,,,
CTC,CTC,Catamarca Airport,,,,,,,,
CTG,CTG,Rafael Nez International Airport,,,,,,,,
CTL,CTL,Charleville Airport,,,,,,,,
CTM,CTM,Chetumal International Airport,,,,,,,,
CTN,,,,,,,,,,
CTS,SPK,New Chitose Airport,,,,,,,,
CTU,CTU,Chengdu Shuangliu International Airport,,,,,,,,
CUC,CUC,Camilo Daza International Airport,,,,,,,,
CUE,CUE,Mariscal Lamar International Airport,,,,,,,,
CUF,CUF,Cuneo - Levaldigi Airport,,,,,,,,
CUK,,,,,,,,,,
CUL,CUL,Bachigualato Federal International Airport,,,,,,,,
CUM,CUM,Cuman Antonio Josc De Sucre Airport,,,,,,,,
CUN,CUN,Cancn International Airport,,,,,,,,
CUR,CUR,Curaao Airport,,,,,,,,
CUU,CUU,General Roberto Fierro Villalobos International Airport,,,,,,,,
CUZ,CUZ,Alejandro Velasco Astete International Airport,,,,,,,,
CVG,CVG,Cincinnati-northern Kentucky International Airport,,,,,,,,
CVM,CVM,General Pedro Jose Mendez International Airport,,,,,,,,
CVU,CVU,Corvo Airport,,,,,,,,
CWA,CWA,Central Wisconsin Airport,,,,,,,,
CWB,CWB,Afonso Pena International Airport,,,,,,,,
CWL,CWL,Cardiff Airport,,,,,,,,
CXB,CXB,Coxs Bazar Airport,,,,,,,,
CXF,,,,,,,,,,
CXH,YVR,Vancouver Harbour Water Airport,,,,,,,,
CXI,CXI,Cassidy International Airport,,,,,,,,
CXJ,,,,,,,,,,
CXR,CXR,Cam Ranh Airport,,,,,,,,
CYB,CYB,Charles Kirkconnell International Airport,,,,,,,,
CYD,,,,,,,,,,
CYF,,,,,,,,,,
CYO,CYO,Vilo Acuna International Airport,,,,,,,,
CYP,CYP,Calbayog Airport,,,,,,,,
CYS,CYS,Cheyenne Regional Airport,,,,,,,,
CYX,,,,,,,,,,
CYZ,CYZ,Cauayan Airport,,,,,,,,
CZE,CZE,Josc Leonardo Chirinos Airport,,,,,,,,
CZH,,,,,,,,,,
CZL,CZL,Mohamed Boudiaf International Airport,,,,,,,,
CZM,CZM,Cozumel International Airport,,,,,,,,
CZS,,,,,,,,,,
CZU,CZU,Las Brujas Airport,,,,,,,,
CZX,CZX,Changzhou Airport,,,,,,,,
DAB,DAB,Daytona Beach International Airport,,,,,,,,
DAC,DAC,Shahjalal International Airport,,,,,,,,
DAD,DAD,Da Nang International Airport,,,,,,,,
DAL,DFW,Dallas Love Field,,,,,,,,
DAM,DAM,Damascus International Airport,,,,,,,,
DAR,DAR,Julius Nyerere International Airport,,,,,,,,
DAT,DAT,Datong Airport,,,,,,,,
DAU,CMU,Daru Airport,,,,,,,,
DAV,,,,,,,,,,
DAX,DAX,Dachuan Airport,,,,,,,,
DAY,DAY,Dayton International Airport,,,,,,,,
DBA,DBA,Dalbandin Airport,,,,,,,,
DBO,DBO,Dubbo City Regional Airport,,,,,,,,
DBQ,DBQ,Dubuque Regional Airport,,,,,,,,
DBV,DBV,Dubrovnik Airport,,,,,,,,
DCA,WAS,Ronald Reagan Washington National Airport,,,,,,,,
DCF,,,,,,,,,,
DCG,,,,,,,,,,
DCM,DCM,Castres-mazamet Airport,,,,,,,,
DCN,CED,Raaf Base Curtin,,,,,,,,
DCY,,,,,,,,,,
DDC,DDC,Dodge City Regional Airport,,,,,,,,
DDG,DDG,Dandong Airport,,,,,,,,
DDU,,,,,,,,,,
DEA,DEA,Dera Ghazi Khan Airport,,,,,,,,
DEB,DEB,Debrecen International Airport,,,,,,,,
DEC,DEC,Decatur Airport,,,,,,,,
DED,DED,Dehradun Airport,,,,,,,,
DEE,,,,,,,,,,
DEF,ABD,Dezful Airport,,,,,,,,
DEL,DEL,Indira Gandhi International Airport,,,,,,,,
DEN,DEN,Denver International Airport,,,,,,,,
DFW,DFW,Dallas-fort Worth International Airport,,,,,,,,
DGA,,,,,,,,,,
DGO,DGO,General Guadalupe Victoria International Airport,,,,,,,,
DGT,DGT,Sibulan Airport,,,,,,,,
DHB,,,,,,,,,,
DHI,BWA,Dhangarhi Airport,,,,,,,,
DHM,DHM,Kangra Airport,,,,,,,,
DHN,DHN,Dothan Regional Airport,,,,,,,,
DIB,DIB,Dibrugarh Airport,,,,,,,,
DIE,DIE,Arrachart Airport,,,,,,,,
DIG,DIG,Diqing Airport,,,,,,,,
DIK,DIK,Dickinson Theodore Roosevelt Regional Airport,,,,,,,,
DIL,DIL,Presidente Nicolau Lobato International Airport,,,,,,,,
DIN,DIN,Dien Bien Phu Airport,,,,,,,,
DIQ,,,,,,,,,,
DIR,DIR,Aba Tenna Dejazmach Yilma International Airport,,,,,,,,
DIU,DIU,Diu Airport,,,,,,,,
DIW,,,,,,,,,,
DIY,DIY,Diyarbakir Airport,,,,,,,,
DJB,DJB,Sultan Thaha Airport,,,,,,,,
DJE,DJE,Djerba Zarzis International Airport,,,,,,,,
DJG,DJG,Djanet Inedbirene Airport,,,,,,,,
DJH,,,,,,,,,,
DJJ,DJJ,Sentani Airport,,,,,,,,
DKR,DKR,Lopold Sdar Senghor International Airport,,,,,,,,
DKS,,,,,,,,,,
DLA,DLA,Douala International Airport,,,,,,,,
DLC,DLC,Zhoushuizi Airport,,,,,,,,
DLE,DLE,Dole-tavaux Airport,,,,,,,,
DLG,DLG,Dillingham Airport,,,,,,,,
DLH,DLH,Duluth International Airport,,,,,,,,
DLI,DLI,Lien Khuong Airport,,,,,,,,
DLM,DLM,Dalaman Airport,,,,,,,,
DLU,DLU,Dali Airport,,,,,,,,
DLY,DLY,Dillons Bay Airport,,,,,,,,
DLZ,UYN,Dalanzadgad Airport,,,,,,,,
DMA,,,,,,,,,,
DMB,DMB,Taraz Airport,,,,,,,,
DMD,,,,,,,,,,
DME,MOW,Domodedovo International Airport,,,,,,,,
DMK,BKK,Don Mueang International Airport,,,,,,,,
DMM,DMM,King Fahd International Airport,,,,,,,,
DMU,DMU,Dimapur Airport,,,,,,,,
DND,DND,Dundee Airport,,,,,,,,
DNH,DNH,Dunhuang Airport,,,,,,,,
DNK,DNK,Dnipropetrovsk International Airport,,,,,,,,
DNR,DNR,Dinard-pleurtuit-saint-malo Airport,,,,,,,,
DNZ,,,,,,,,,,
DOB,SMQ,Rar Gwamar Airport,,,,,,,,
DOD,,,,,,,,,,
DOH,DOH,Doha International Airport,,,,,,,,
DOL,DOL,Deauville-saint-gatien Airport,,,,,,,,
DOM,DOM,Melville Hall Airport,,,,,,,,
DOU,CUZ,Dourados Airport,,,,,,,,
DOY,DOY,Dongying Shengli Airport,,,,,,,,
DPL,DPL,Dipolog Airport,,,,,,,,
DPO,DPO,Devonport Airport,,,,,,,,
DPS,DPS,Ngurah Rai Airport,,,,,,,,
DPT,,,,,,,,,,
DQA,STI,Saertu Airport,,,,,,,,
DRG,CDV,Deering Airport,,,,,,,,
DRK,TNO,Drake Bay Airport,,,,,,,,
DRO,DRO,Durango-la Plata County Airport,,,,,,,,
DRS,DRS,Dresden Airport,,,,,,,,
DRV,,,,,,,,,,
DRW,DRW,Darwin International Airport,,,,,,,,
DSA,DSA,Robin Hood Doncaster Sheffield Airport,,,,,,,,
DSE,,,,,,,,,,
DSI,,,,,,,,,,
DSM,DSM,Des Moines International Airport,,,,,,,,
DSN,DSN,Ordos Ejin Horo Airport,,,,,,,,
DTB,,,,,,,,,,
DTM,DTM,Dortmund Airport,,,,,,,,
DTW,DTT,Detroit Metropolitan Wayne County Airport,,,,,,,,
DUB,DUB,Dublin Airport,,,,,,,,
DUD,DUD,Dunedin International Airport,,,,,,,,
DUJ,DUJ,Dubois Regional Airport,,,,,,,,
DUM,,,,,,,,,,
DUR,DUR,King Shaka International Airport,,,,,,,,
DUS,DUS,Dsseldorf Airport,,,,,,,,
DUT,DUT,Unalaska Airport,,,,,,,,
DVL,DUJ,Devils Lake Regional Airport,,,,,,,,
DVO,DVO,Francisco Bangoy International Airport,,,,,,,,
DWC,DXB,Dubai World Central - Al Maktoum International Airport,,,,,,,,
DWD,DWD,Dawadmi Domestic Airport,,,,,,,,
DWO,,,,,,,,,,
DXB,DXB,Dubai International Airport,,,,,,,,
DXE,,,,,,,,,,
DYG,DYG,Dayong Airport,,,,,,,,
DYR,DYR,Ugolny Airport,,,,,,,,
DYU,DYU,Dushanbe Airport,,,,,,,,
DZA,DZA,Dzaoudzi Pamandzi International Airport,,,,,,,,
DZN,DZN,Zhezkazgan Airport,,,,,,,,
EAA,,,,,,,,,,
EAE,EAE,Siwo Airport,,,,,,,,
EAM,EAM,Nejran Airport,,,,,,,,
EAR,EAR,Kearney Regional Airport,,,,,,,,
EAS,EAS,San Sebastin Airport,,,,,,,,
EAT,EAT,Pangborn Memorial Airport,,,,,,,,
EAU,EAU,Chippewa Valley Regional Airport,,,,,,,,
EBA,EBA,Marina Di Campo Airport,,,,,,,,
EBB,EBB,Entebbe International Airport,,,,,,,,
EBH,MUW,El Bayadh Airport,,,,,,,,
EBJ,EBJ,Esbjerg Airport,,,,,,,,
EBL,EBL,Erbil International Airport,,,,,,,,
EBU,EBU,Saint-tienne-bouthcon Airport,,,,,,,,
ECI,,,,,,,,,,
ECN,ECN,Ercan International Airport,,,,,,,,
ECP,PFN,Northwest Florida Beaches International Airport,,,,,,,,
EDA,,,,,,,,,,
EDI,EDI,Edinburgh Airport,,,,,,,,
EDL,EDL,Eldoret International Airport,,,,,,,,
EDO,,,,,,,,,,
EDR,,,,,,,,,,
EEK,DUT,Eek Airport,,,,,,,,
EFL,EFL,Argostolion Airport,,,,,,,,
EGC,EGC,Bergerac-roumanire Airport,,,,,,,,
EGE,EGE,Eagle County Regional Airport,,,,,,,,
EGM,EGM,Sege Airport,,,,,,,,
EGN,EGN,Geneina Airport,,,,,,,,
EGO,EGO,Belgorod International Airport,,,,,,,,
EGS,EGS,Egilsstair Airport,,,,,,,,
EGX,IGG,Egegik Airport,,,,,,,,
EIN,EIN,Eindhoven Airport,,,,,,,,
EIS,EIS,Beef Island Tortola Airport,,,,,,,,
EJA,EJA,Yarigu-es Airport,,,,,,,,
EJH,EJH,Al Wajh Domestic Airport,,,,,,,,
EJN,,,,,,,,,,
EKO,EKO,Elko Regional Airport,,,,,,,,
EKS,,,,,,,,,,
ELC,ELC,Elcho Island Airport,,,,,,,,
ELD,ELD,South Arkansas Regional Airport At Goodwin Field,,,,,,,,
ELF,ELF,El Fasher Airport,,,,,,,,
ELG,ELG,El Golea Airport,,,,,,,,
ELH,ELH,North Eleuthera Airport,,,,,,,,
ELI,AET,Elim Airport,,,,,,,,
ELM,ELM,Elmira Corning Regional Airport,,,,,,,,
ELP,ELP,El Paso International Airport,,,,,,,,
ELQ,ELQ,Gassim Airport,,,,,,,,
ELS,ELS,East London Airport,,,,,,,,
ELU,LOO,Guemar Airport,,,,,,,,
ELV,,,,,,,,,,
EMA,EMA,East Midlands Airport,,,,,,,,
EMD,EMD,Emerald Airport,,,,,,,,
EMK,EHM,Emmonak Airport,,,,,,,,
ENA,ENA,Kenai Municipal Airport,,,,,,,,
ENE,ENE,Ende H Hasan Aroeboesman Airport,,,,,,,,
ENF,,,,,,,,,,
ENH,ENH,Enshi Airport,,,,,,,,
ENI,,,,,,,,,,
ENU,ENU,Akanu Ibiam International Airport,,,,,,,,
ENY,ENY,Yanan Airport,,,,,,,,
EOH,MDE,Enrique Olaya Herrera Airport,,,,,,,,
EOI,,,,,,,,,,
EPL,,,,,,,,,,
EPR,EPR,Esperance Airport,,,,,,,,
EQS,EQS,Brigadier Antonio Parodi Airport,,,,,,,,
ERC,ERC,Erzincan Airport,,,,,,,,
ERF,ERF,Erfurt-weimar Airport,,,,,,,,
ERG,,,,,,,,,,
ERH,ERH,Moulay Ali Cherif Airport,,,,,,,,
ERI,ERI,Erie International Airport Tom Ridge Field,,,,,,,,
ERL,DAT,Erenhot Saiwusu International Airport,,,,,,,,
ERS,WDH,Eros Airport,,,,,,,,
ERZ,ERZ,Erzurum International Airport,,,,,,,,
ESB,ANK,Esenboa International Airport,,,,,,,,
ESC,ESC,Delta County Airport Esc,,,,,,,,
ESD,,,,,,,,,,
ESL,,,,,,,,,,
ESM,,,,,,,,,,
ESU,ESU,Mogador Airport,,,,,,,,
ETH,ETH,Eilat Airport,,,,,,,,
ETR,,,,,,,,,,
ETZ,ETZ,Metz-nancy-lorraine Airport,,,,,,,,
EUA,,,,,,,,,,
EUG,EUG,Eugene Airport,,,,,,,,
EUN,EUN,Hassan I Airport,,,,,,,,
EUX,EUX,Fd Roosevelt Airport,,,,,,,,
EVE,EVE,Harstad-narvik Airport,,,,,,,,
EVG,,,,,,,,,,
EVN,EVN,Zvartnots International Airport,,,,,,,,
EVV,EVV,Evansville Regional Airport,,,,,,,,
EWB,EWB,New Bedford Regional Airport,,,,,,,,
EWN,EWN,Coastal Carolina Regional Airport,,,,,,,,
EWR,NYC,Newark Liberty International Airport,,,,,,,,
EXI,,,,,,,,,,
EXT,EXT,Exeter International Airport,,,,,,,,
EYK,URJ,Beloyarskiy Airport,,,,,,,,
EYP,EYP,El Yopal Airport,,,,,,,,
EYW,EYW,Key West International Airport,,,,,,,,
EZE,BUE,Ministro Pistarini International Airport,,,,,,,,
EZS,EZS,Elaz Airport,,,,,,,,
EZV,SLY,Berezovo Airport,,,,,,,,
FAC,MVT,Faaite Airport,,,,,,,,
FAE,FAE,Vagar Airport,,,,,,,,
FAH,WAG,Farah Airport,,,,,,,,
FAI,FAI,Fairbanks International Airport,,,,,,,,
FAO,FAO,Faro Airport,,,,,,,,
FAR,FAR,Hector International Airport,,,,,,,,
FAT,FAT,Fresno Yosemite International Airport,,,,,,,,
FAV,REA,Fakarava Airport,,,,,,,,
FAY,FAY,Fayetteville Regional Airport,,,,,,,,
FBD,FBD,Faizabad Airport,,,,,,,,
FBM,FBM,Lubumbashi International Airport,,,,,,,,
FBS,,,,,,,,,,
FCA,FCA,Glacier Park International Airport,,,,,,,,
FCO,ROM,Leonardo Da Vinci-fiumicino Airport,,,,,,,,
FDE,FDE,Bringeland Airport,,,,,,,,
FDF,FDF,Martinique Aim Csaire International Airport,,,,,,,,
FDH,FDH,Friedrichshafen Airport,,,,,,,,
FEC,,,,,,,,,,
FEG,FEG,Fergana International Airport,,,,,,,,
FEN,FEN,Fernando De Noronha Airport,,,,,,,,
FEZ,FEZ,Fes-sass Airport,,,,,,,,
FGI,APW,Fagalii Airport,,,,,,,,
FGU,AAA,Fangatau Airport,,,,,,,,
FHZ,MVT,Fakahina Airport,,,,,,,,
FIE,,,,,,,,,,
FIH,FIH,Ndjili Airport,,,,,,,,
FKB,FKB,Baden Airpark Airport,,,,,,,,
FKI,,,,,,,,,,
FKL,FKL,Venango Regional Airport,,,,,,,,
FKQ,,,,,,,,,,
FKS,GAJ,Fukushima Airport,,,,,,,,
FLA,FLA,Gustavo Artunduaga Paredes Airport,,,,,,,,
FLG,GCN,Flagstaff Pulliam Airport,,,,,,,,
FLL,FLL,Fort Lauderdale-hollywood International Airport,,,,,,,,
FLN,FLN,Herclio Luz International Airport,,,,,,,,
FLO,FLO,Florence Regional Airport,,,,,,,,
FLR,FLR,Florence Airport,,,,,,,,
FLS,FLS,Flinders Island Airport,,,,,,,,
FLW,FLW,Flores Airport,,,,,,,,
FLZ,,,,,,,,,,
FMA,FMA,Formosa International Airport,,,,,,,,
FMI,,,,,,,,,,
FMM,FMM,Memmingen Allgau Airport,,,,,,,,
FMN,FMN,Four Corners Regional Airport,,,,,,,,
FMO,FMO,Mnster Osnabrck International Airport,,,,,,,,
FNA,FNA,Lungi International Airport,,,,,,,,
FNC,FNC,Madeira Airport,,,,,,,,
FNJ,FNJ,Sunan International Airport,,,,,,,,
FNT,FNT,Bishop International Airport,,,,,,,,
FOA,,,,,,,,,,
FOC,FOC,Fuzhou Changle International Airport,,,,,,,,
FOD,FOD,Fort Dodge Regional Airport,,,,,,,,
FOG,FOG,Foggia - Gino Lisa Airport,,,,,,,,
FON,FON,Arenal Airport,,,,,,,,
FOR,FOR,Pinto Martins - Fortaleza International Airport,,,,,,,,
FPO,FPO,Grand Bahama International Airport,,,,,,,,
FRA,FRA,Frankfurt Airport,,,,,,,,
FRD,FRD,Friday Harbor Airport,,,,,,,,
FRE,FRE,Fera-maringe Airport,,,,,,,,
FRO,FRO,Flor Airport,,,,,,,,
FRS,FRS,Mundo Maya International Airport,,,,,,,,
FRU,FRU,Manas International Airport,,,,,,,,
FRW,FRW,Francistown Airport,,,,,,,,
FSC,FSC,Figari Sud-corse Airport,,,,,,,,
FSD,FSD,Sioux Falls Regional Airport,,,,,,,,
FSM,FSM,Fort Smith Regional Airport,,,,,,,,
FSP,FSP,St Pierre Airport,,,,,,,,
FSZ,OKI,Mt Fuji Shizuoka Airport,,,,,,,,
FTA,FTA,Futuna Airport,,,,,,,,
FTE,FTE,El Calafate Airport,,,,,,,,
FTU,FTU,Tlanaro Airport,,,,,,,,
FUE,FUE,Fuerteventura Airport,,,,,,,,
FUG,KHN,Fuyang Xiguan Airport,,,,,,,,
FUJ,FUJ,Fukue Airport,,,,,,,,
FUK,FUK,Fukuoka Airport,,,,,,,,
FUN,FUN,Funafuti International Airport,,,,,,,,
FUO,PZI,Foshan Shadi Airport,,,,,,,,
FUT,,,,,,,,,,
FVM,PBH,Fuvahmulah Airport,,,,,,,,
FWA,FWA,Fort Wayne International Airport,,,,,,,,
FXE,,,,,,,,,,
FYJ,,,,,,,,,,
FYU,,,,,,,,,,
GAE,,,,,,,,,,
GAF,,,,,,,,,,
GAJ,GAJ,Yamagata Airport,,,,,,,,
GAL,GAL,Edward G Pitka Sr Airport,,,,,,,,
GAM,GAM,Gambell Airport,,,,,,,,
GAN,PBH,Gan International Airport,,,,,,,,
GAO,GAO,Mariana Grajales Airport,,,,,,,,
GAU,GAU,Lokpriya Gopinath Bordoloi International Airport,,,,,,,,
GAX,,,,,,,,,,
GAY,GAY,Gaya Airport,,,,,,,,
GBB,NAJ,Gabala International Airport,,,,,,,,
GBE,GBE,Sir Seretse Khama International Airport,,,,,,,,
GBT,GBT,Gorgan Airport,,,,,,,,
GCC,GCC,Gillette-campbell County Airport,,,,,,,,
GCI,GCI,Guernsey Airport,,,,,,,,
GCK,GCK,Garden City Regional Airport,,,,,,,,
GCM,GCM,Owen Roberts International Airport,,,,,,,,
GCN,GCN,Grand Canyon National Park Airport,,,,,,,,
GCW,TQR,Grand Canyon West Airport,,,,,,,,
GDE,GDE,Gode Airport,,,,,,,,
GDL,GDL,Miguel Hidalgo Y Costilla International Airport,,,,,,,,
GDN,GDN,Gdask Lech Wasa Airport,,,,,,,,
GDQ,GDQ,Gonder Airport,,,,,,,,
GDT,GDT,Jags Mccartney International Airport,,,,,,,,
GDV,GDV,Dawson Community Airport,,,,,,,,
GDX,GDX,Sokol Airport,,,,,,,,
GDZ,AAQ,Gelendzhik Airport,,,,,,,,
GEA,NOU,Nouma Magenta Airport,,,,,,,,
GEG,GEG,Spokane International Airport,,,,,,,,
GEM,,,,,,,,,,
GEO,GEO,Cheddi Jagan International Airport,,,,,,,,
GER,,,,,,,,,,
GES,GES,Tambler Airport,,,,,,,,
GET,GET,Geraldton Airport,,,,,,,,
GEV,GEV,Gllivare Airport,,,,,,,,
GFF,,,,,,,,,,
GFK,GFK,Grand Forks International Airport,,,,,,,,
GFN,,,,,,,,,,
GGG,GGG,East Texas Regional Airport,,,,,,,,
GGM,NBO,Kakamega Airport,,,,,,,,
GGT,GGT,Exuma International Airport,,,,,,,,
GGW,GGW,Glasgow Airport Us,,,,,,,,
GHA,GHA,Noumcrat - Moufdi Zakaria Airport,,,,,,,,
GHB,GHB,Governors Harbour Airport,,,,,,,,
GHT,,,,,,,,,,
GIB,GIB,Gibraltar International Airport,,,,,,,,
GIG,RIO,Rio De Janeiro-galeo International Airport,,,,,,,,
GIL,GIL,Gilgit Airport,,,,,,,,
GIS,GIS,Gisborne Airport,,,,,,,,
GIU,RML,Sigiriya Air Force Base,,,,,,,,
GIZ,GIZ,Jizan Regional Airport,,,,,,,,
GJA,GJA,La Laguna Airport,,,,,,,,
GJL,,,,,,,,,,
GJT,GJT,Grand Junction Regional Airport,,,,,,,,
GKA,GKA,Goroka Airport,,,,,,,,
GKK,MLE,Kooddoo Airport,,,,,,,,
GLA,GLA,Glasgow Airport,,,,,,,,
GLF,GLF,Golfito Airport,,,,,,,,
GLH,GLH,Mid Delta Regional Airport,,,,,,,,
GLK,GLK,Galcaio Airport,,,,,,,,
GLN,ILZ,Goulimime Airport,,,,,,,,
GLO,GLO,Gloucestershire Airport,,,,,,,,
GLT,GLT,Gladstone Airport,,,,,,,,
GLV,GAL,Golovin Airport,,,,,,,,
GLX,,,,,,,,,,
GMA,,,,,,,,,,
GMB,GMB,Gambella Airport,,,,,,,,
GME,GME,Gomel Airport,,,,,,,,
GMO,VBV,Gombe Lawanti International Airport,,,,,,,,
GMP,SEL,Gimpo International Airport,,,,,,,,
GMR,GMR,Totegegie Airport,,,,,,,,
GMZ,FUE,La Gomera Airport,,,,,,,,
GNA,KGD,Hrodna Airport,,,,,,,,
GNB,LYS,Grenoble-isre Airport,,,,,,,,
GND,GND,Maurice Bishop International Airport,,,,,,,,
GNS,,,,,,,,,,
GNU,,,,,,,,,,
GNV,GNV,Gainesville Regional Airport,,,,,,,,
GNY,SIC,Anlurfa Gap Airport,,,,,,,,
GOA,GOA,Genoa Cristoforo Colombo Airport,,,,,,,,
GOH,GOH,Nuuk Airport,,,,,,,,
GOI,GOI,Goa International Airport,,,,,,,,
GOJ,GOJ,Nizhny Novgorod International Airport,,,,,,,,
GOM,,,,,,,,,,
GOP,GOP,Gorakhpur Airport,,,,,,,,
GOQ,GOQ,Golmud Airport,,,,,,,,
GOT,GOT,Gteborg Landvetter Airport,,,,,,,,
GOU,GOU,Garoua International Airport,,,,,,,,
GOV,GOV,Gove Airport,,,,,,,,
GPA,GPA,Araxos Airport,,,,,,,,
GPI,GPI,Juan Casiano Airport,,,,,,,,
GPS,GPS,Seymour Airport,,,,,,,,
GPT,GPT,Gulfport-biloxi International Airport,,,,,,,,
GRB,GRB,Austin Straubel International Airport,,,,,,,,
GRI,GRI,Central Nebraska Regional Airport,,,,,,,,
GRJ,GRJ,George Airport,,,,,,,,
GRK,ILE,Killeen-fort Hood Regional Airport,,,,,,,,
GRO,GRO,Girona-costa Brava Airport,,,,,,,,
GRQ,GRQ,Groningen Airport Eelde,,,,,,,,
GRR,GRR,Gerald R Ford International Airport,,,,,,,,
GRU,SAO,So Paulo-guarulhos International Airport,,,,,,,,
GRV,GRV,Grozny North Airport,,,,,,,,
GRW,GRW,Graciosa Airport,,,,,,,,
GRX,GRX,Federico Garca Lorca Airport,,,,,,,,
GRZ,GRZ,Graz Airport,,,,,,,,
GSM,GSM,Gheshm Airport,,,,,,,,
GSO,GSO,Piedmont Triad International Airport,,,,,,,,
GSP,GSP,Greenville-spartanburg International Airport,,,,,,,,
GST,GST,Gustavus Airport,,,,,,,,
GTE,GTE,Groote Eylandt Airport,,,,,,,,
GTF,GTF,Great Falls International Airport,,,,,,,,
GTO,GTO,Jalaluddin Airport,,,,,,,,
GTR,GTR,Golden Triangle Regional Airport,,,,,,,,
GUA,GUA,La Aurora International Airport,,,,,,,,
GUC,GUC,Gunnison-crested Butte Regional Airport,,,,,,,,
GUM,GUM,Antonio B Won Pat International Airport,,,,,,,,
GUR,GKA,Gurney Airport,,,,,,,,
GUW,GUW,Atyrau Airport,,,,,,,,
GVA,GVA,Geneva International Airport,,,,,,,,
GVR,,,,,,,,,,
GWD,GWD,Gwadar International Airport,,,,,,,,
GWL,GWL,Gwalior Airport,,,,,,,,
GWT,GWT,Westerland Sylt Airport,,,,,,,,
GXF,GXF,Sayun International Airport,,,,,,,,
GXH,,,,,,,,,,
GYA,SRZ,Capitn De Av Emilio Beltrn Airport,,,,,,,,
GYD,GYD,Heydar Aliyev International Airport,,,,,,,,
GYE,GYE,Jos Joaqun De Olmedo International Airport,,,,,,,,
GYG,,,,,,,,,,
GYL,,,,,,,,,,
GYN,GYN,Santa Genoveva Airport,,,,,,,,
GYS,GYS,Guangyuan Airport,,,,,,,,
GYU,GOQ,Guyuan Liupanshan Airport,,,,,,,,
GZO,GZO,Nusatupe Airport,,,,,,,,
GZP,SAW,Gazipaa Airport,,,,,,,,
GZT,GZT,Gaziantep International Airport,,,,,,,,
HAA,HAA,Hasvik Airport,,,,,,,,
HAC,,,,,,,,,,
HAD,HAD,Halmstad City Airport,,,,,,,,
HAH,HAH,Prince Said Ibrahim International Airport,,,,,,,,
HAJ,HAJ,Hannover Airport,,,,,,,,
HAK,HAK,Haikou Meilan International Airport,,,,,,,,
HAM,HAM,Hamburg Airport,,,,,,,,
HAN,HAN,Noi Bai International Airport,,,,,,,,
HAQ,HAQ,Hanimaadhoo Airport,,,,,,,,
HAS,HAS,Hail Airport,,,,,,,,
HAU,HAU,Haugesund Airport,,,,,,,,
HAV,HAV,Jos Mart International Airport,,,,,,,,
HBA,HBA,Hobart International Airport,,,,,,,,
HBE,ALY,Borg El Arab Airport,,,,,,,,
HCJ,,,,,,,,,,
HCR,HCR,Holy Cross Airport,,,,,,,,
HDF,HDF,Heringsdorf Airport,,,,,,,,
HDG,DAT,Handan Airport,,,,,,,,
HDN,HDN,Yampa Valley Airport,,,,,,,,
HDS,HDS,Hoedspruit Air Force Base Airport,,,,,,,,
HDY,HDY,Hat Yai International Airport,,,,,,,,
HEA,HEA,Herat Airport,,,,,,,,
HEH,HEH,Heho Airport,,,,,,,,
HEK,HEK,Heihe Airport,,,,,,,,
HEL,HEL,Helsinki Airport,,,,,,,,
HER,HER,Heraklion International Airport,,,,,,,,
HET,HET,Hohhot Baita International Airport,,,,,,,,
HFE,HFE,Hefei Luogang International Airport,,,,,,,,
HFS,,,,,,,,,,
HFT,HFT,Hammerfest Airport,,,,,,,,
HGA,HGA,Egal International Airport,,,,,,,,
HGD,,,,,,,,,,
HGH,HGH,Hangzhou Xiaoshan International Airport,,,,,,,,
HGN,HGN,Mae Hong Son Airport,,,,,,,,
HGO,HGO,Korhogo Airport,,,,,,,,
HGR,HGR,Hagerstown Regional Airport,,,,,,,,
HGU,HGU,Mount Hagen Kagamuga Airport,,,,,,,,
HHH,HHH,Hilton Head Airport,,,,,,,,
HHN,FRA,Frankfurt-hahn Airport,,,,,,,,
HHQ,,,,,,,,,,
HHZ,REA,Hikueru Atoll Airport,,,,,,,,
HIA,ASA,Lianshui Airport,,,,,,,,
HIB,HIB,Range Regional Airport,,,,,,,,
HID,HID,Horn Island Airport,,,,,,,,
HIJ,HIJ,Hiroshima Airport,,,,,,,,
HIN,HIN,Sacheon Air Base,,,,,,,,
HIR,HIR,Honiara International Airport,,,,,,,,
HJJ,CGD,Zhijiang Airport,,,,,,,,
HJR,HJR,Khajuraho Airport,,,,,,,,
HKB,,,,,,,,,,
HKD,HKD,Hakodate Airport,,,,,,,,
HKG,HKG,Chek Lap Kok International Airport,,,,,,,,
HKK,HKK,Hokitika Airport,,,,,,,,
HKN,HKN,Hoskins Airport,,,,,,,,
HKT,HKT,Phuket International Airport,,,,,,,,
HLA,JNB,Lanseria International Airport,,,,,,,,
HLD,HLD,Dongshan Airport,,,,,,,,
HLH,HLH,Ulanhot Airport,,,,,,,,
HLN,HLN,Helena Regional Airport,,,,,,,,
HLP,JKT,Halim Perdanakusuma Airport,,,,,,,,
HLZ,HLZ,Hamilton International Airport,,,,,,,,
HMA,HMA,Khanty Mansiysk Airport,,,,,,,,
HMB,RMF,Sohag International Airport,,,,,,,,
HME,HME,Oued Irara Airport,,,,,,,,
HMI,HMI,Hami Airport,,,,,,,,
HMO,HMO,General Ignacio Pesqueira Garca International Airport,,,,,,,,
HMV,HMV,Hemavan Airport,,,,,,,,
HNA,HNA,Hanamaki Airport,,,,,,,,
HND,TYO,Haneda Airport,,,,,,,,
HNH,HNH,Hoonah Airport,,,,,,,,
HNL,HNL,Honolulu International Airport,,,,,,,,
HNM,HNM,Hana Airport,,,,,,,,
HNS,HNS,Haines Airport,,,,,,,,
HNY,,,,,,,,,,
HOB,HOB,Lea County Regional Airport,,,,,,,,
HOD,HOD,Hodeida International Airport,,,,,,,,
HOF,HOF,Al Ahsa Airport,,,,,,,,
HOG,HOG,Frank Pais International Airport,,,,,,,,
HOI,HOI,Hao Airport,,,,,,,,
HOM,HOM,Homer Airport,,,,,,,,
HON,HON,Huron Regional Airport,,,,,,,,
HOR,HOR,Horta Airport,,,,,,,,
HOT,HOT,Memorial Field Airport,,,,,,,,
HOU,HOU,William P Hobby Airport,,,,,,,,
HOV,,,,,,,,,,
HOX,,,,,,,,,,
HPA,,,,,,,,,,
HPB,HPB,Hooper Bay Airport,,,,,,,,
HPG,,,,,,,,,,
HPH,HPH,Cat Bi International Airport,,,,,,,,
HPN,HPN,Westchester County Airport,,,,,,,,
HRB,HRB,Taiping Airport,,,,,,,,
HRE,HRE,Harare International Airport,,,,,,,,
HRG,HRG,Hurghada International Airport,,,,,,,,
HRI,RML,Mattala Rajapaksa International Airport,,,,,,,,
HRK,HRK,Kharkiv International Airport,,,,,,,,
HRL,HRL,Valley International Airport,,,,,,,,
HRO,HRO,Boone County Airport Arkansas,,,,,,,,
HSG,HSG,Saga Airport,,,,,,,,
HSL,,,,,,,,,,
HSN,HSN,Zhoushan Airport,,,,,,,,
HSV,HSV,Huntsville International Airport,,,,,,,,
HTA,HTA,Chita-kadala Airport,,,,,,,,
HTG,,,,,,,,,,
HTI,HTI,Great Barrier Reef Airport,,,,,,,,
HTN,HTN,Hotan Airport,,,,,,,,
HTS,HTS,Tri-state Airport,,,,,,,,
HTY,SIC,Hatay Airport,,,,,,,,
HUE,,,,,,,,,,
HUH,HUH,Huahine-fare Airport,,,,,,,,
HUI,HUI,Phu Bai Airport,,,,,,,,
HUN,HUN,Hualien Airport,,,,,,,,
HUS,,,,,,,,,,
HUU,TBP,Alferez Fap David Figueroa Fernandini Airport,,,,,,,,
HUX,HUX,Bah-as De Huatulco International Airport,,,,,,,,
HUY,HUY,Humberside Airport,,,,,,,,
HUZ,,,,,,,,,,
HVB,HVB,Hervey Bay Airport,,,,,,,,
HVD,UYN,Khovd Airport,,,,,,,,
HVG,HVG,Valan Airport,,,,,,,,
HVN,HVN,Tweed New Haven Regional Airport,,,,,,,,
HVR,HVR,Havre City-county Airport,,,,,,,,
HXD,,,,,,,,,,
HYA,HYA,Barnstable Municipal Airport,,,,,,,,
HYD,HYD,Rajiv Gandhi International Airport,,,,,,,,
HYG,HOM,Hydaburg Seaplane Base,,,,,,,,
HYL,,,,,,,,,,
HYN,HYN,Huangyan Luqiao Airport,,,,,,,,
HYS,HYS,Hays Regional Airport,,,,,,,,
HZG,,,,,,,,,,
HZH,NAO,Liping Airport,,,,,,,,
IAA,,,,,,,,,,
IAD,WAS,Washington Dulles International Airport,,,,,,,,
IAG,IAG,Niagara Falls International Airport,,,,,,,,
IAH,HOU,George Bush Intercontinental Airport,,,,,,,,
IAM,IAM,In Amcnas Airport,,,,,,,,
IAN,IGG,Bob Baker Memorial Airport,,,,,,,,
IAO,ZAM,Siargao Airport,,,,,,,,
IAR,,,,,,,,,,
IAS,IAS,Iai International Airport,,,,,,,,
IBA,ENU,Ibadan Airport,,,,,,,,
IBE,IBE,Perales Airport,,,,,,,,
IBR,,,,,,,,,,
IBZ,IBZ,Ibiza Airport,,,,,,,,
ICI,ICI,Cicia Airport,,,,,,,,
ICN,SEL,Incheon International Airport,,,,,,,,
ICT,ICT,Wichita Mid-continent Airport,,,,,,,,
IDA,IDA,Idaho Falls Regional Airport,,,,,,,,
IDR,IDR,Devi Ahilyabai Holkar Airport,,,,,,,,
IEG,,,,,,,,,,
IEV,IEV,Kyiv International Airport Zhuliany,,,,,,,,
IFJ,IFJ,Safjrur Airport,,,,,,,,
IFN,IFN,Esfahan Shahid Beheshti International Airport,,,,,,,,
IFO,IFO,Ivano-frankivsk International Airport,,,,,,,,
IFU,,,,,,,,,,
IGA,IGA,Inagua Airport,,,,,,,,
IGD,,,,,,,,,,
IGG,IGG,Igiugig Airport,,,,,,,,
IGR,IGR,Cataratas Del Iguaz International Airport,,,,,,,,
IGT,OGZ,Magas Airport,,,,,,,,
IGU,IGU,Foz Do Iguau International Airport,,,,,,,,
IJK,,,,,,,,,,
IKA,THR,Tehran Imam Khomeini International Airport,,,,,,,,
IKE,,,,,,,,,,
IKI,IKI,Iki Airport,,,,,,,,
IKO,AKN,Nikolski Air Station,,,,,,,,
IKS,,,,,,,,,,
IKT,IKT,International Airport Irkutsk,,,,,,,,
ILD,LCG,Lleida-alguaire Airport,,,,,,,,
ILI,ILI,Iliamna Airport,,,,,,,,
ILM,ILM,Wilmington International Airport,,,,,,,,
ILO,ILO,Iloilo International Airport,,,,,,,,
ILP,KNQ,Le Des Pins Airport,,,,,,,,
ILR,ILR,Ilorin International Airport,,,,,,,,
ILY,ILY,Islay Airport,,,,,,,,
IMF,IMF,Imphal Airport,,,,,,,,
IMP,IMP,Imperatriz Airport,,,,,,,,
IMT,IMT,Ford Airport,,,,,,,,
INB,,,,,,,,,,
INC,INC,Yinchuan Airport,,,,,,,,
IND,IND,Indianapolis International Airport,,,,,,,,
INH,INH,Inhambane Airport,,,,,,,,
INI,,,,,,,,,,
INL,INL,Falls International Airport,,,,,,,,
INN,INN,Innsbruck Airport,,,,,,,,
INT,INT,Smith Reynolds Airport,,,,,,,,
INU,INU,Nauru International Airport,,,,,,,,
INV,INV,Inverness Airport,,,,,,,,
INZ,INZ,In Salah Airport,,,,,,,,
IOA,IOA,Ioannina National Airport,,,,,,,,
IOM,IOM,Isle Of Man Airport,,,,,,,,
IOQ,,,,,,,,,,
IOS,IOS,Ilhus Jorge Amado Airport,,,,,,,,
IOT,,,,,,,,,,
IPA,IPA,Ipota Airport,,,,,,,,
IPC,IPC,Mataveri International Airport,,,,,,,,
IPH,IPH,Sultan Azlan Shah Airport,,,,,,,,
IPN,,,,,,,,,,
IPT,IPT,Williamsport Regional Airport,,,,,,,,
IQN,IQN,Qingyang Airport,,,,,,,,
IQQ,IQQ,Diego Aracena International Airport,,,,,,,,
IQT,IQT,Coronel Fap Francisco Secada Vignetta International Airport,,,,,,,,
IRA,IRA,Ngorangora Airport,,,,,,,,
IRC,,,,,,,,,,
IRI,,,,,,,,,,
IRJ,IRJ,Capitan V A Almonacid Airport,,,,,,,,
IRK,IRK,Kirksville Regional Airport,,,,,,,,
IRM,HMA,Igrim Airport,,,,,,,,
IRP,,,,,,,,,,
ISA,ISA,Mount Isa Airport,,,,,,,,
ISB,ISB,Benazir Bhutto International Airport,,,,,,,,
ISC,,,,,,,,,,
ISE,,,,,,,,,,
ISG,ISG,Ishigaki Airport,,,,,,,,
ISN,ISN,Sloulin Field International Airport,,,,,,,,
ISP,ISP,Long Island Macarthur Airport,,,,,,,,
IST,IST,Istanbul Atatrk Airport,,,,,,,,
ISU,BSR,Sulaymaniyah International Airport,,,,,,,,
ITB,ITB,Itaituba Airport,,,,,,,,
ITH,ITH,Ithaca Tompkins Regional Airport,,,,,,,,
ITM,OSA,Osaka International Airport,,,,,,,,
ITO,ITO,Hilo International Airport,,,,,,,,
ITU,,,,,,,,,,
IUE,IUE,Niue International Airport,,,,,,,,
IUI,,,,,,,,,,
IVC,IVC,Invercargill Airport,,,,,,,,
IVL,IVL,Ivalo Airport,,,,,,,,
IWA,,,,,,,,,,
IWD,IWD,Gogebic-iron County Airport,,,,,,,,
IWJ,,,,,,,,,,
IWK,,,,,,,,,,
IXA,IXA,Agartala Airport,,,,,,,,
IXB,IXB,Bagdogra Airport,,,,,,,,
IXC,IXC,Chandigarh Airport,,,,,,,,
IXD,IXD,Allahabad Airport,,,,,,,,
IXE,IXE,Mangalore International Airport,,,,,,,,
IXG,IXG,Belgaum Airport,,,,,,,,
IXI,,,,,,,,,,
IXJ,IXJ,Jammu Airport,,,,,,,,
IXL,IXL,Leh Kushok Bakula Rimpochee Airport,,,,,,,,
IXM,IXM,Madurai Airport,,,,,,,,
IXR,IXR,Birsa Munda Airport,,,,,,,,
IXS,IXS,Silchar Airport,,,,,,,,
IXU,IXU,Aurangabad Airport,,,,,,,,
IXZ,IXZ,Vir Savarkar International Airport,,,,,,,,
IZA,,,,,,,,,,
IZO,IZO,Izumo Airport,,,,,,,,
JAC,JAC,Jackson Hole Airport,,,,,,,,
JAE,,,,,,,,,,
JAI,JAI,Jaipur International Airport,,,,,,,,
JAL,JAL,El Lencero Airport,,,,,,,,
JAN,JAN,Jackson-evers International Airport,,,,,,,,
JAU,,,,,,,,,,
JAV,JAV,Ilulissat Airport,,,,,,,,
JAX,JAX,Jacksonville International Airport,,,,,,,,
JBB,,,,,,,,,,
JBQ,,,,,,,,,,
JBR,,,,,,,,,,
JCH,JCH,Qasigiannguit Heliport,,,,,,,,
JCK,,,,,,,,,,
JDH,JDH,Jodhpur Airport,,,,,,,,
JDO,JDO,Orlando Bezerra De Menezes Airport,,,,,,,,
JDZ,JDZ,Jingdezhen Airport,,,,,,,,
JED,JED,King Abdulaziz International Airport,,,,,,,,
JEG,JEG,Aasiaat Airport,,,,,,,,
JEK,,,,,,,,,,
JER,JER,Jersey Airport,,,,,,,,
JFK,NYC,John F Kennedy International Airport,,,,,,,,
JFR,JFR,Paamiut Airport,,,,,,,,
JGA,JGA,Jamnagar Airport,,,,,,,,
JGD,TQR,Jiagedaqi Airport,,,,,,,,
JGN,JGN,Jiayuguan Airport,,,,,,,,
JGO,JGO,Qeqertarsuaq Heliport,,,,,,,,
JGS,JGS,Jinggangshan Airport,,,,,,,,
JHB,JHB,Senai International Airport,,,,,,,,
JHG,JHG,Xishuangbanna Gasa Airport,,,,,,,,
JHM,JHM,Kapalua Airport,,,,,,,,
JHS,JHS,Sisimiut Airport,,,,,,,,
JHW,JHW,Chautauqua County-jamestown Airport,,,,,,,,
JIB,JIB,Djibouti-ambouli International Airport,,,,,,,,
JIC,TQR,Jinchuan Airport,,,,,,,,
JIJ,,,,,,,,,,
JIK,JIK,Ikaria Island National Airport,,,,,,,,
JIM,JIM,Jimma Airport,,,,,,,,
JIQ,TQR,Qianjiang Wulingshan Airport,,,,,,,,
JJG,,,,,,,,,,
JJN,JJN,Quanzhou Airport,,,,,,,,
JJU,JGO,Qaqortoq Heliport,,,,,,,,
JKG,JKG,Jnkping Airport,,,,,,,,
JKH,JKH,Chios Island National Airport,,,,,,,,
JKL,,,,,,,,,,
JKR,JUM,Janakpur Airport,,,,,,,,
JLN,JLN,Joplin Regional Airport,,,,,,,,
JLR,JLR,Jabalpur Airport,,,,,,,,
JMK,JMK,Mykonos Island National Airport,,,,,,,,
JMS,JMS,Jamestown Regional Airport,,,,,,,,
JMU,JMU,Jiamusi Airport,,,,,,,,
JNB,JNB,O R Tambo International Airport,,,,,,,,
JNG,INC,Jining Qufu Airport,,,,,,,,
JNN,JNN,Nanortalik Heliport,,,,,,,,
JNS,JNS,Narsaq Heliport,,,,,,,,
JNU,JNU,Juneau International Airport,,,,,,,,
JNX,JNX,Naxos Island National Airport,,,,,,,,
JNZ,JNZ,Jinzhou Airport,,,,,,,,
JOE,JOE,Joensuu Airport,,,,,,,,
JOG,JOG,Adi Sutjipto International Airport,,,,,,,,
JOI,JOI,Joinville-lauro Carneiro De Loyola Airport,,,,,,,,
JOK,JOK,Yoshkar-ola Airport,,,,,,,,
JOS,JOS,Yakubu Gowon Airport,,,,,,,,
JPA,JPA,Presidente Castro Pinto International Airport,,,,,,,,
JPR,,,,,,,,,,
JQA,JQA,Qaarsut Airport,,,,,,,,
JQE,,,,,,,,,,
JRF,,,,,,,,,,
JRH,JRH,Jorhat Airport,,,,,,,,
JRO,JRO,Kilimanjaro International Airport,,,,,,,,
JSH,JSH,Sitia Airport,,,,,,,,
JSI,JSI,Skiathos Island National Airport,,,,,,,,
JSR,JSR,Jessore Airport,,,,,,,,
JST,JST,Johnstown-cambria County Airport,,,,,,,,
JSU,JSU,Maniitsoq Airport,,,,,,,,
JSY,JSY,Syros Island National Airport,,,,,,,,
JTC,,,,,,,,,,
JTR,JTR,Santorini Thira National Airport,,,,,,,,
JTY,JTY,Astypalaia Airport,,,,,,,,
JUB,JUB,Juba Airport,,,,,,,,
JUH,TQR,Jiuhuashan Airport,,,,,,,,
JUJ,JUJ,Gobernador Horacio Guzmn International Airport,,,,,,,,
JUK,,,,,,,,,,
JUL,JUL,Inca Manco Cpac International Airport,,,,,,,,
JUU,,,,,,,,,,
JUV,JHS,Upernavik Airport,,,,,,,,
JUZ,JUZ,Quzhou Airport,,,,,,,,
JXA,,,,,,,,,,
JYV,JYV,Jyvaskyla Airport,,,,,,,,
JZH,JZH,Jiuzhai Huanglong Airport,,,,,,,,
KAA,,,,,,,,,,
KAB,,,,,,,,,,
KAD,KAD,Kaduna Airport,,,,,,,,
KAE,,,,,,,,,,
KAJ,KAJ,Kajaani Airport,,,,,,,,
KAL,,,,,,,,,,
KAN,KAN,Mallam Aminu Kano International Airport,,,,,,,,
KAO,KAO,Kuusamo Airport,,,,,,,,
KAW,,,,,,,,,,
KAZ,,,,,,,,,,
KBC,,,,,,,,,,
KBL,KBL,Kabul International Airport,,,,,,,,
KBP,IEV,Boryspil International Airport,,,,,,,,
KBR,KBR,Sultan Ismail Petra Airport,,,,,,,,
KBU,,,,,,,,,,
KBV,KBV,Krabi Airport,,,,,,,,
KCA,KCA,Kuqa Airport,,,,,,,,
KCC,,,,,,,,,,
KCF,,,,,,,,,,
KCG,CEZ,Chignik Fisheries Airport,,,,,,,,
KCH,KCH,Kuching International Airport,,,,,,,,
KCK,,,,,,,,,,
KCL,GRM,Chignik Lagoon Airport,,,,,,,,
KCM,,,,,,,,,,
KCO,,,,,,,,,,
KCQ,KCL,Chignik Lake Airport,,,,,,,,
KCT,RML,Koggala Airport,,,,,,,,
KCZ,KCZ,Kchi Ryma Airport,,,,,,,,
KDH,KDH,Kandahar Airport,,,,,,,,
KDI,KDI,Wolter Monginsidi Airport,,,,,,,,
KDL,,,,,,,,,,
KDM,KDM,Kaadedhdhoo Airport,,,,,,,,
KDO,KDO,Kadhdhoo Airport,,,,,,,,
KDU,KDU,Skardu Airport,,,,,,,,
KDV,KDV,Vunisea Airport,,,,,,,,
KDX,,,,,,,,,,
KDY,,,,,,,,,,
KDZ,,,,,,,,,,
KEB,,,,,,,,,,
KEF,REK,Keflavik International Airport,,,,,,,,
KEH,,,,,,,,,,
KEJ,KEJ,Kemerovo Airport,,,,,,,,
KEK,EGE,Ekwok Airport,,,,,,,,
KEM,KEM,Kemi-tornio Airport,,,,,,,,
KEO,,,,,,,,,,
KEP,MEY,Nepalgunj Airport,,,,,,,,
KER,KER,Kerman International Airport,,,,,,,,
KET,KET,Kengtung Airport,,,,,,,,
KEW,,,,,,,,,,
KFP,JNU,False Pass Airport,,,,,,,,
KFS,,,,,,,,,,
KGA,,,,,,,,,,
KGC,,,,,,,,,,
KGD,KGD,Khrabrovo Airport,,,,,,,,
KGE,KGE,Kagau Island Airport,,,,,,,,
KGF,KGF,Sary-arka Airport,,,,,,,,
KGI,KGI,Kalgoorlie Boulder Airport,,,,,,,,
KGK,,,,,,,,,,
KGL,KGL,Kigali International Airport,,,,,,,,
KGP,KGP,Kogalym International Airport,,,,,,,,
KGQ,,,,,,,,,,
KGS,KGS,Kos Island International Airport,,,,,,,,
KGT,,,,,,,,,,
KGX,GUP,Grayling Airport,,,,,,,,
KHD,KHD,Khoram Abad Airport,,,,,,,,
KHE,UDJ,Chernobayevka Airport,,,,,,,,
KHG,KHG,Kashgar Airport,,,,,,,,
KHH,KHH,Kaohsiung International Airport,,,,,,,,
KHI,KHI,Jinnah International Airport,,,,,,,,
KHM,,,,,,,,,,
KHN,KHN,Nanchang Changbei International Airport,,,,,,,,
KHQ,,,,,,,,,,
KHS,KHS,Khasab Air Base,,,,,,,,
KHV,KHV,Khabarovsk Novy Airport,,,,,,,,
KHX,,,,,,,,,,
KHZ,MVT,Kauehi Airport,,,,,,,,
KID,,,,,,,,,,
KIE,,,,,,,,,,
KIF,KIF,Kingfisher Lake Airport,,,,,,,,
KIH,KIH,Kish International Airport,,,,,,,,
KIJ,KIJ,Niigata Airport,,,,,,,,
KIM,KIM,Kimberley Airport,,,,,,,,
KIN,KIN,Norman Manley International Airport,,,,,,,,
KIR,KIR,Kerry Airport,,,,,,,,
KIS,KIS,Kisumu Airport,,,,,,,,
KIT,KIT,Kithira Island National Airport,,,,,,,,
KIV,KIV,Chiinu International Airport,,,,,,,,
KIX,OSA,Kansai International Airport,,,,,,,,
KIY,,,,,,,,,,
KJA,KJA,Yemelyanovo International Airport,,,,,,,,
KJH,,,,,,,,,,
KKA,JNU,Koyuk Alfred Adams Airport,,,,,,,,
KKB,,,,,,,,,,
KKC,KKC,Khon Kaen Airport,,,,,,,,
KKE,KKE,Kerikeri Airport,,,,,,,,
KKH,DUT,Kongiganak Airport,,,,,,,,
KKI,,,,,,,,,,
KKJ,KKJ,Kitakysh Airport,,,,,,,,
KKN,KKN,Kirkenes Airport,,,,,,,,
KKR,KKR,Kaukura Airport,,,,,,,,
KKX,,,,,,,,,,
KLF,,,,,,,,,,
KLG,KLG,Kalskag Airport,,,,,,,,
KLL,WKK,Levelock Airport,,,,,,,,
KLN,,,,,,,,,,
KLO,KLO,Kalibo International Airport,,,,,,,,
KLR,KLR,Kalmar Airport,,,,,,,,
KLU,KLU,Klagenfurt Airport,,,,,,,,
KLV,KLV,Karlovy Vary International Airport,,,,,,,,
KLW,,,,,,,,,,
KLX,KLX,Kalamata Airport,,,,,,,,
KMC,,,,,,,,,,
KME,KME,Kamembe Airport,,,,,,,,
KMG,KMG,Kunming Changshui International Airport,,,,,,,,
KMI,KMI,Miyazaki Airport,,,,,,,,
KMJ,KMJ,Kumamoto Airport,,,,,,,,
KMN,,,,,,,,,,
KMO,LUR,Manokotak Airport,,,,,,,,
KMQ,KMQ,Komatsu Airport,,,,,,,,
KMS,,,,,,,,,,
KMU,HGA,Kisimayu Airport,,,,,,,,
KMV,KMV,Kalay Airport,,,,,,,,
KMY,,,,,,,,,,
KND,,,,,,,,,,
KNG,,,,,,,,,,
KNH,KNH,Kinmen Airport,,,,,,,,
KNK,,,,,,,,,,
KNO,ULU,Medan-kuala Namu International Airport,,,,,,,,
KNQ,KNQ,Konc Airport,,,,,,,,
KNS,KNS,King Island Airport,,,,,,,,
KNU,KNU,Kanpur Airport,,,,,,,,
KNW,KNW,New Stuyahok Airport,,,,,,,,
KNX,KNX,Kununurra Airport,,,,,,,,
KOA,KOA,Kona International Airport,,,,,,,,
KOC,KOC,Koumac Airport,,,,,,,,
KOE,KOE,El Tari Airport,,,,,,,,
KOI,KOI,Kirkwall Airport,,,,,,,,
KOJ,KOJ,Kagoshima Airport,,,,,,,,
KOK,KOK,Kokkola-pietarsaari Airport,,,,,,,,
KOO,,,,,,,,,,
KOP,KOP,Nakhon Phanom Airport,,,,,,,,
KOS,TNX,Sihanoukville International Airport,,,,,,,,
KOT,AET,Kotlik Airport,,,,,,,,
KOV,KOV,Kokshetau Airport,,,,,,,,
KOW,KOW,Ganzhou Airport,,,,,,,,
KOY,,,,,,,,,,
KOZ,,,,,,,,,,
KPB,,,,,,,,,,
KPN,,,,,,,,,,
KPR,PQI,Port Williams Seaplane Base,,,,,,,,
KPV,,,,,,,,,,
KPY,PWM,Port Bailey Seaplane Base,,,,,,,,
KQA,KQA,Akutan Seaplane Base,,,,,,,,
KQT,LBD,Qurghonteppa International Airport,,,,,,,,
KRB,,,,,,,,,,
KRF,KRF,Kramfors Sollefte Airport,,,,,,,,
KRK,KRK,John Paul Ii International Airport Krakw-balice,,,,,,,,
KRL,KRL,Korla Airport,,,,,,,,
KRN,KRN,Kiruna Airport,,,,,,,,
KRO,KRO,Kurgan Airport,,,,,,,,
KRP,KRP,Karup Airport,,,,,,,,
KRR,KRR,Krasnodar International Airport,,,,,,,,
KRS,KRS,Kristiansand Airport,,,,,,,,
KRT,KRT,Khartoum International Airport,,,,,,,,
KRW,,,,,,,,,,
KRY,KRY,Karamay Airport,,,,,,,,
KSA,KSA,Kosrae International Airport,,,,,,,,
KSC,KSC,Koice International Airport,,,,,,,,
KSD,HFS,Karlstad Airport,,,,,,,,
KSE,,,,,,,,,,
KSF,,,,,,,,,,
KSH,KSH,Kermanshah Airport,,,,,,,,
KSJ,KSJ,Kasos Island National Airport,,,,,,,,
KSM,KSM,St Marys Airport,,,,,,,,
KSN,KSN,Kostanay West Airport,,,,,,,,
KSO,KSO,Kastoria National Airport,,,,,,,,
KSQ,KSQ,Karshi Khanabad Airport,,,,,,,,
KSU,KSU,Kristiansund Airport Kvernberget,,,,,,,,
KSY,,,,,,,,,,
KTA,KTA,Karratha Airport,,,,,,,,
KTB,,,,,,,,,,
KTD,,,,,,,,,,
KTE,KTE,Kerteh Airport,,,,,,,,
KTG,KTG,Ketapangrahadi Usman Airport,,,,,,,,
KTL,KTL,Kitale Airport,,,,,,,,
KTM,KTM,Tribhuvan International Airport,,,,,,,,
KTN,KTN,Ketchikan International Airport,,,,,,,,
KTR,,,,,,,,,,
KTS,,,,,,,,,,
KTT,KTT,Kittila Airport,,,,,,,,
KTW,KTW,Katowice International Airport,,,,,,,,
KUA,KUA,Sultan Haji Ahmad Shah Airport,,,,,,,,
KUD,KUD,Kudat Airport,,,,,,,,
KUF,KUF,Kurumoch International Airport,,,,,,,,
KUH,HKD,Kushiro Airport,,,,,,,,
KUK,,,,,,,,,,
KUL,KUL,Kuala Lumpur International Airport,,,,,,,,
KUM,,,,,,,,,,
KUN,KUN,Kaunas Airport,,,,,,,,
KUO,KUO,Kuopio Airport,,,,,,,,
KUS,KUS,Kulusuk Airport,,,,,,,,
KUT,KUT,Kopitnari Airport,,,,,,,,
KUU,KUU,Kullu Manali Airport,,,,,,,,
KUV,KUV,Gunsan Airport,,,,,,,,
KUZ,,,,,,,,,,
KVA,KVA,Kavala International Airport,,,,,,,,
KVC,KVC,King Cove Airport,,,,,,,,
KVD,KVD,Ganja Airport,,,,,,,,
KVG,KRI,Kavieng Airport,,,,,,,,
KVK,,,,,,,,,,
KVL,KVL,Kivalina Airport,,,,,,,,
KVR,,,,,,,,,,
KVX,KVX,Pobedilovo Airport,,,,,,,,
KWA,KWA,Bucholz Army Airfield,,,,,,,,
KWE,KWE,Longdongbao Airport,,,,,,,,
KWF,WAL,Waterfall Seaplane Base,,,,,,,,
KWI,KWI,Kuwait International Airport,,,,,,,,
KWJ,KWJ,Gwangju Airport,,,,,,,,
KWK,WAL,Kwigillingok Seaplane Base,,,,,,,,
KWL,KWL,Guilin Liangjiang International Airport,,,,,,,,
KWM,,,,,,,,,,
KWN,PTU,Quinhagak Airport,,,,,,,,
KWP,WAL,West Point Village Seaplane Base,,,,,,,,
KWT,,,,,,,,,,
KWZ,,,,,,,,,,
KXA,WST,Kasaan Seaplane Base,,,,,,,,
KXF,,,,,,,,,,
KXU,,,,,,,,,,
KYA,KYA,Konya Airport,,,,,,,,
KYK,KAL,Karluk Airport,,,,,,,,
KYP,KYP,Kyaukpyu Airport,,,,,,,,
KYU,,,,,,,,,,
KYZ,KYZ,Kyzyl Airport,,,,,,,,
KZB,DZN,Zachar Bay Seaplane Base,,,,,,,,
KZI,KZI,Filippos Airport,,,,,,,,
KZN,KZN,Kazan International Airport,,,,,,,,
KZO,KZO,Kzyl-orda Southwest Airport,,,,,,,,
KZR,,,,,,,,,,
KZS,KZS,Kastelorizo Airport,,,,,,,,
LAD,LAD,Quatro De Fevereiro Airport,,,,,,,,
LAE,LAE,Lae Nadzab Airport,,,,,,,,
LAI,LAI,Lannion-cte De Granit Airport,,,,,,,,
LAK,,,,,,,,,,
LAM,LAA,Los Alamos Airport,,,,,,,,
LAN,LAN,Capital Region International Airport,,,,,,,,
LAO,LAO,Laoag International Airport,,,,,,,,
LAP,LAP,Manuel Mrquez De Len International Airport,,,,,,,,
LAQ,LAQ,La Abraq Airport,,,,,,,,
LAR,LAR,Laramie Regional Airport,,,,,,,,
LAS,LAS,Mccarran International Airport,,,,,,,,
LAU,LAU,Manda Airstrip,,,,,,,,
LAW,LAW,Lawton-fort Sill Regional Airport,,,,,,,,
LAX,LAX,Los Angeles International Airport,,,,,,,,
LBA,LBA,Leeds Bradford International Airport,,,,,,,,
LBB,LBB,Lubbock Preston Smith International Airport,,,,,,,,
LBC,HAM,Lbeck Airport,,,,,,,,
LBD,LBD,Khudzhand Airport,,,,,,,,
LBE,LBE,Arnold Palmer Regional Airport,,,,,,,,
LBF,LBF,North Platte Regional Airport,,,,,,,,
LBJ,LBJ,Komodo Mutiara Ii Airport,,,,,,,,
LBL,LBL,Liberal Mid-america Regional Airport,,,,,,,,
LBN,,,,,,,,,,
LBP,LBP,Long Banga Airport,,,,,,,,
LBS,LBS,Labasa Airport,,,,,,,,
LBU,LBU,Labuan Airport,,,,,,,,
LBV,LBV,Libreville International Airport,,,,,,,,
LCA,LCA,Larnaca International Airport,,,,,,,,
LCE,LCE,Golosn International Airport,,,,,,,,
LCG,LCG,A Corua Airport,,,,,,,,
LCH,LCH,Lake Charles Regional Airport,,,,,,,,
LCJ,LCJ,D Wadysaw Reymont Airport,,,,,,,,
LCX,,,,,,,,,,
LCY,LON,London City Airport,,,,,,,,
LDB,LDB,Londrina Airport,,,,,,,,
LDE,LDE,Tarbes-lourdes-pyrnes Airport,,,,,,,,
LDH,LDH,Lord Howe Island Airport,,,,,,,,
LDS,JNZ,Lindu Airport,,,,,,,,
LDU,LDU,Lahad Datu Airport,,,,,,,,
LDZ,,,,,,,,,,
LEA,LEA,Learmonth Airport,,,,,,,,
LEB,LEB,Lebanon Municipal Airport New Hampshire,,,,,,,,
LEC,,,,,,,,,,
LED,LED,Pulkovo International Airport,,,,,,,,
LEI,LEI,Almera Airport,,,,,,,,
LEJ,LEJ,Leipzig-halle Airport,,,,,,,,
LEN,LEN,Leon Airport,,,,,,,,
LEQ,,,,,,,,,,
LET,LET,Alfredo Vsquez Cobo International Airport,,,,,,,,
LEX,LEX,Blue Grass Airport,,,,,,,,
LFQ,,,,,,,,,,
LFR,LFR,La Fria Airport,,,,,,,,
LFT,LFT,Lafayette Regional Airport,,,,,,,,
LFW,LFW,Lom-tokoin Airport,,,,,,,,
LGA,NYC,Laguardia Airport,,,,,,,,
LGB,LGB,Long Beach Airport,,,,,,,,
LGG,LGG,Lige Airport,,,,,,,,
LGI,LGI,Deadmans Cay Airport,,,,,,,,
LGK,LGK,Langkawi International Airport,,,,,,,,
LGL,LGL,Long Lellang Airport,,,,,,,,
LGP,LGP,Legazpi Airport,,,,,,,,
LGQ,,,,,,,,,,
LGW,LON,Gatwick Airport,,,,,,,,
LHE,LHE,Allama Iqbal International Airport,,,,,,,,
LHR,LON,London Heathrow Airport,,,,,,,,
LHW,LHW,Lanzhou Zhongchuan Airport,,,,,,,,
LIF,LIF,Lifou Airport,,,,,,,,
LIG,LIG,Limoges - Bellegarde Airport,,,,,,,,
LIH,LIH,Lihue Airport,,,,,,,,
LIL,LIL,Lille-lesquin Airport,,,,,,,,
LIM,LIM,Jorge Chavez International Airport,,,,,,,,
LIN,MIL,Linate Airport,,,,,,,,
LIO,,,,,,,,,,
LIQ,,,,,,,,,,
LIR,LIR,Daniel Oduber Quiros International Airport,,,,,,,,
LIS,LIS,Lisbon Portela Airport,,,,,,,,
LIT,LIT,Clinton National Airport,,,,,,,,
LIW,,,,,,,,,,
LIX,,,,,,,,,,
LJA,,,,,,,,,,
LJG,LJG,Lijiang Airport,,,,,,,,
LJU,LJU,Ljubljana Joe Punik Airport,,,,,,,,
LKA,,,,,,,,,,
LKB,LKB,Lakeba Island Airport,,,,,,,,
LKE,SEA,Kenmore Air Harbor Seaplane Base Airport,,,,,,,,
LKH,LKH,Long Akah Airport,,,,,,,,
LKL,LKL,Banak Airport,,,,,,,,
LKN,LKN,Leknes Airport,,,,,,,,
LKO,LKO,Chaudhary Charan Singh International Airport,,,,,,,,
LKY,,,,,,,,,,
LLA,LLA,Lule Airport,,,,,,,,
LLB,,,,,,,,,,
LLF,KWL,Lingling Airport,,,,,,,,
LLI,LLI,Lalibela Airport,,,,,,,,
LLK,KVD,Lankaran International Airport,,,,,,,,
LLU,LLU,Alluitsup Paa Heliport,,,,,,,,
LLV,,,,,,,,,,
LLW,LLW,Lilongwe International Airport,,,,,,,,
LMA,,,,,,,,,,
LMM,LMM,Fort Valley Federal International Airport,,,,,,,,
LMN,LMN,Limbang Airport,,,,,,,,
LMP,LMP,Lampedusa Airport,,,,,,,,
LNB,LNB,Lamen Bay Airport,,,,,,,,
LNE,LNE,Lonorore Airport,,,,,,,,
LNJ,YNO,Lintsang Airfield,,,,,,,,
LNK,LNK,Lincoln Airport,,,,,,,,
LNS,LNS,Lancaster Airport Pennsylvania,,,,,,,,
LNV,LNV,Lihir Island Airport,,,,,,,,
LNY,LNY,Lanai Airport,,,,,,,,
LNZ,LNZ,Linz Airport,,,,,,,,
LOD,LOD,Longana Airport,,,,,,,,
LOE,LOE,Loei Airport,,,,,,,,
LOH,LOH,Camilo Ponce Enriquez Airport,,,,,,,,
LOK,LOK,Lodwar Airport,,,,,,,,
LOO,LOO,Laghouat Airport,,,,,,,,
LOP,DPS,Bandara International Lombok Airport,,,,,,,,
LOS,LOS,Murtala Muhammed International Airport,,,,,,,,
LPA,LPA,Gran Canaria Airport,,,,,,,,
LPB,LPB,El Alto International Airport,,,,,,,,
LPF,,,,,,,,,,
LPI,LPI,Linkping City Airport,,,,,,,,
LPK,,,,,,,,,,
LPL,LPL,Liverpool John Lennon Airport,,,,,,,,
LPM,LPM,Lamap Airport,,,,,,,,
LPP,,,,,,,,,,
LPQ,LPQ,Luang Phabang International Airport,,,,,,,,
LPS,,,,,,,,,,
LPT,LPT,Lampang Airport,,,,,,,,
LPY,,,,,,,,,,
LQM,,,,,,,,,,
LQN,,,,,,,,,,
LRD,LRD,Laredo International Airport,,,,,,,,
LRE,LRE,Longreach Airport,,,,,,,,
LRH,LRH,La Rochelle - Le De R Airport,,,,,,,,
LRM,LRM,La Romana International Airport,,,,,,,,
LRR,LRR,Lar Airport,,,,,,,,
LRS,LRS,Leros Island National Airport,,,,,,,,
LRT,LRT,Lorient South Brittany Airport,,,,,,,,
LRV,,,,,,,,,,
LSA,,,,,,,,,,
LSC,LSC,La Florida Airport Chile,,,,,,,,
LSE,LSE,La Crosse Regional Airport,,,,,,,,
LSH,,,,,,,,,,
LSI,LSI,Sumburgh Airport,,,,,,,,
LSP,LSP,Josefa Camejo International Airport,,,,,,,,
LST,LST,Launceston Airport,,,,,,,,
LSW,,,,,,,,,,
LSY,,,,,,,,,,
LSZ,,,,,,,,,,
LTN,LON,Luton Airport,,,,,,,,
LTO,LTO,Loreto International Airport,,,,,,,,
LTQ,,,,,,,,,,
LTT,,,,,,,,,,
LTX,,,,,,,,,,
LUD,LUD,Lderitz Airport,,,,,,,,
LUG,LUG,Lugano Airport,,,,,,,,
LUH,LUH,Ludhiana Airport,,,,,,,,
LUK,CVG,Cincinnati Municipal Airport,,,,,,,,
LUM,LUM,Mangshi Airport,,,,,,,,
LUN,LUN,Lusaka International Airport,,,,,,,,
LUO,,,,,,,,,,
LUP,,,,,,,,,,
LUQ,LUQ,Brigadier Mayor D Cesar Raul Ojeda Airport,,,,,,,,
LUR,LUR,Cape Lisburne Lrrs Airport,,,,,,,,
LUV,LUV,Dumatumbun Airport,,,,,,,,
LUW,TTE,Bubung Airport,,,,,,,,
LUX,LUX,Luxembourg Findel Airport,,,,,,,,
LUZ,KTW,Lublin Airport,,,,,,,,
LVI,LVI,Livingstone Airport,,,,,,,,
LWB,LWB,Greenbrier Valley Airport,,,,,,,,
LWE,,,,,,,,,,
LWK,,,,,,,,,,
LWN,LWN,Gyumri Shirak Airport,,,,,,,,
LWO,LWO,Lviv Danylo Halytskyi International Airport,,,,,,,,
LWS,LWS,Lewiston - Nez Perce County Airport,,,,,,,,
LWY,LWY,Lawas Airport,,,,,,,,
LXA,LXA,Lhasa Gonggar Airport,,,,,,,,
LXG,LXG,Luang Namtha Airport,,,,,,,,
LXR,LXR,Luxor International Airport,,,,,,,,
LXS,LXS,Lemnos International Airport,,,,,,,,
LYA,LYA,Luoyang Airport,,,,,,,,
LYB,LYB,Edward Bodden Airfield,,,,,,,,
LYC,LYC,Lycksele Airport,,,,,,,,
LYG,LYG,Lianyungang Airport,,,,,,,,
LYH,LYH,Lynchburg Regional Airport,,,,,,,,
LYI,LYI,Shubuling Airport,,,,,,,,
LYP,LYP,Faisalabad International Airport,,,,,,,,
LYR,LYR,Svalbard Airport,,,,,,,,
LYS,LYS,Lyon-saint Exupry Airport,,,,,,,,
LYX,,,,,,,,,,
LZC,LZC,Lzaro Crdenas Airport,,,,,,,,
LZH,LZH,Bailian Airport,,,,,,,,
LZO,LZO,Luzhou Airport,,,,,,,,
LZR,,,,,,,,,,
LZY,NAO,Nyingchi Airport,,,,,,,,
MAA,MAA,Chennai International Airport,,,,,,,,
MAB,MAB,Joo Correa Da Rocha Airport,,,,,,,,
MAD,MAD,Madrid-barajas Airport,,,,,,,,
MAF,MAF,Midland International Airport,,,,,,,,
MAG,MAG,Madang Airport,,,,,,,,
MAH,MAH,Menorca Airport,,,,,,,,
MAJ,MAJ,Marshall Islands International Airport,,,,,,,,
MAM,MAM,General Servando Canales International Airport,,,,,,,,
MAN,MAN,Manchester Airport,,,,,,,,
MAO,MAO,Eduardo Gomes International Airport,,,,,,,,
MAQ,MAQ,Mae Sot Airport,,,,,,,,
MAR,MAR,La Chinita International Airport,,,,,,,,
MAS,HGU,Momote Airport,,,,,,,,
MAU,MAU,Maupiti Airport,,,,,,,,
MAZ,MAZ,Eugenio Maria De Hostos Airport,,,,,,,,
MBA,MBA,Moi International Airport,,,,,,,,
MBD,,,,,,,,,,
MBE,,,,,,,,,,
MBI,LDI,Mbeya Airport,,,,,,,,
MBJ,MBJ,Sangster International Airport,,,,,,,,
MBL,MBL,Manistee County Blacker Airport,,,,,,,,
MBS,MBS,Mbs International Airport,,,,,,,,
MBT,MBT,Moises R Espinosa Airport,,,,,,,,
MBX,,,,,,,,,,
MCE,MCE,Merced Regional Airport,,,,,,,,
MCG,MCG,Mcgrath Airport,,,,,,,,
MCI,MKC,Kansas City International Airport,,,,,,,,
MCK,MCK,Mccook Ben Nelson Regional Airport,,,,,,,,
MCM,MCM,Monaco Heliport,,,,,,,,
MCO,MCO,Orlando International Airport,,,,,,,,
MCP,MCP,Macap International Airport,,,,,,,,
MCT,MCT,Muscat International Airport,,,,,,,,
MCV,MCV,Mcarthur River Mine Airport,,,,,,,,
MCW,MCW,Mason City Municipal Airport,,,,,,,,
MCX,MCX,Uytash Airport,,,,,,,,
MCY,MCY,Sunshine Coast Airport,,,,,,,,
MCZ,MCZ,Zumbi Dos Palmares International Airport,,,,,,,,
MDC,MDC,Sam Ratulangi International Airport,,,,,,,,
MDE,MDE,Jos Mara Crdova International Airport,,,,,,,,
MDG,MDG,Mudanjiang Hailang International Airport,,,,,,,,
MDK,,,,,,,,,,
MDL,MDL,Mandalay International Airport,,,,,,,,
MDQ,MDQ,Stor Piazzolla International Airport,,,,,,,,
MDT,HAR,Harrisburg International Airport,,,,,,,,
MDU,HGU,Mendi Airport,,,,,,,,
MDW,CHI,Chicago Midway International Airport,,,,,,,,
MDZ,MDZ,Governor Francisco Gabrielli International Airport,,,,,,,,
MEB,MEL,Essendon Airport,,,,,,,,
MEC,MEC,Eloy Alfaro International Airport,,,,,,,,
MED,MED,Prince Mohammad Bin Abdulaziz Airport,,,,,,,,
MEE,MEE,Marc Airport,,,,,,,,
MEH,MEH,Mehamn Airport,,,,,,,,
MEI,MEI,Meridian Regional Airport,,,,,,,,
MEL,MEL,Melbourne Airport,,,,,,,,
MEM,MEM,Memphis International Airport,,,,,,,,
MEQ,,,,,,,,,,
MEX,MEX,Benito Jurez International Airport,,,,,,,,
MFA,,,,,,,,,,
MFE,MFE,Mcallen-miller International Airport,,,,,,,,
MFM,MFM,Macau International Airport,,,,,,,,
MFR,MFR,Rogue Valley International-medford Airport,,,,,,,,
MFU,,,,,,,,,,
MGA,MGA,Augusto C Sandino International Airport,,,,,,,,
MGB,,,,,,,,,,
MGF,MGF,Regional De Maring - S-lvio Nane Junior Airport,,,,,,,,
MGH,,,,,,,,,,
MGM,MGM,Montgomery Regional Airport,,,,,,,,
MGQ,MGQ,Aden Adde International Airport,,,,,,,,
MGS,MGS,Mangaia Island Airport,,,,,,,,
MGT,MGT,Milingimbi Airport,,,,,,,,
MGU,,,,,,,,,,
MGW,MGW,Morgantown Municipal Airport,,,,,,,,
MGZ,,,,,,,,,,
MHC,,,,,,,,,,
MHD,MHD,Mashhad International Airport,,,,,,,,
MHG,,,,,,,,,,
MHH,MHH,Marsh Harbour Airport,,,,,,,,
MHK,MHK,Manhattan Regional Airport,,,,,,,,
MHQ,MHQ,Mariehamn Airport,,,,,,,,
MHT,MHT,Manchester-boston Regional Airport,,,,,,,,
MIA,MIA,Miami International Airport,,,,,,,,
MID,MID,Manuel Crescencio Rejn International Airport,,,,,,,,
MIG,MIG,Mianyang Airport,,,,,,,,
MII,,,,,,,,,,
MIM,,,,,,,,,,
MIR,MIR,Monastir Habib Bourguiba International Airport,,,,,,,,
MIS,MIS,Misima Island Airport,,,,,,,,
MJC,HGO,Man Airport,,,,,,,,
MJD,MJD,Moenjodaro Airport,,,,,,,,
MJF,MJF,Areopuerto Internacional Islas Michael,,,,,,,,
MJI,BEN,Mitiga Airport,,,,,,,,
MJM,MJM,Mbuji Mayi Airport,,,,,,,,
MJN,MJN,Amborovy Airport,,,,,,,,
MJT,MJT,Mytilene International Airport,,,,,,,,
MJU,UPG,Tampa Padang Airport,,,,,,,,
MJV,MJV,Murcia-san Javier Airport,,,,,,,,
MJZ,MJZ,Mirny Airport,,,,,,,,
MKC,MKC,Charles B Wheeler Downtown Airport,,,,,,,,
MKE,MKE,General Mitchell International Airport,,,,,,,,
MKG,MKG,Muskegon County Airport,,,,,,,,
MKK,MKK,Molokai Airport,,,,,,,,
MKL,MKL,Mckellar-sipes Regional Airport,,,,,,,,
MKM,MKM,Mukah Airport,,,,,,,,
MKP,MKP,Makemo Airport,,,,,,,,
MKQ,MKQ,Mopah Airport,,,,,,,,
MKW,MKW,Rendani Airport,,,,,,,,
MKY,MKY,Mackay Airport,,,,,,,,
MKZ,,,,,,,,,,
MLA,MLA,Malta International Airport,,,,,,,,
MLB,MLB,Melbourne International Airport,,,,,,,,
MLE,MLE,Ibrahim Nasir International Airport,,,,,,,,
MLG,MLG,Abdul Rachman Saleh Airport,,,,,,,,
MLH,,,,,,,,,,
MLI,MLI,Quad City International Airport,,,,,,,,
MLL,,,,,,,,,,
MLM,MLM,General Francisco J Mujica International Airport,,,,,,,,
MLN,MLN,Melilla Airport,,,,,,,,
MLO,MLO,Milos Island National Airport,,,,,,,,
MLU,MLU,Monroe Regional Airport,,,,,,,,
MLX,MLX,Malatya Erha Airport,,,,,,,,
MLY,,,,,,,,,,
MMB,MMB,Memanbetsu Airport,,,,,,,,
MMD,,,,,,,,,,
MME,MME,Durham Tees Valley International Airport,,,,,,,,
MMH,MLU,Mammoth Yosemite Airport,,,,,,,,
MMJ,MMJ,Matsumoto Airport,,,,,,,,
MMK,MMK,Murmansk Airport,,,,,,,,
MMM,,,,,,,,,,
MMO,,,,,,,,,,
MMQ,,,,,,,,,,
MMU,,,,,,,,,,
MMX,MMA,Malm Airport,,,,,,,,
MMY,MMY,Miyako Airport,,,,,,,,
MMZ,MMZ,Maimana Airport,,,,,,,,
MNA,,,,,,,,,,
MNC,,,,,,,,,,
MNG,MNG,Maningrida Airport,,,,,,,,
MNI,,,,,,,,,,
MNL,MNL,Ninoy Aquino International Airport,,,,,,,,
MNO,,,,,,,,,,
MNT,,,,,,,,,,
MNU,,,,,,,,,,
MOA,,,,,,,,,,
MOB,MOB,Mobile Regional Airport,,,,,,,,
MOC,,,,,,,,,,
MOF,,,,,,,,,,
MOG,,,,,,,,,,
MOI,MOI,Mitiaro Island Airport,,,,,,,,
MOL,MOL,Molde Airport,,,,,,,,
MOQ,MOQ,Morondava Airport,,,,,,,,
MOT,MOT,Minot International Airport,,,,,,,,
MOU,,,,,,,,,,
MOV,MOV,Moranbah Airport,,,,,,,,
MOZ,MOZ,Moorea Airport,,,,,,,,
MPA,MPA,Katima Mulilo Airport,,,,,,,,
MPB,,,,,,,,,,
MPH,MPH,Godofredo P Ramos Airport,,,,,,,,
MPL,MPL,Montpellier-mditerrane Airport,,,,,,,,
MPM,MPM,Maputo International Airport,,,,,,,,
MPN,MPN,Mount Pleasant Airport,,,,,,,,
MPP,,,,,,,,,,
MQF,MQF,Magnitogorsk International Airport,,,,,,,,
MQJ,,,,,,,,,,
MQL,MQL,Mildura Airport,,,,,,,,
MQM,,,,,,,,,,
MQN,,,,,,,,,,
MQP,MQP,Kruger Mpumalanga International Airport,,,,,,,,
MQT,MQT,Sawyer International Airport,,,,,,,,
MQX,MQX,Mekele Airport,,,,,,,,
MRA,MRA,Misratah Airport,,,,,,,,
MRE,DUJ,Mara Lodges Airport,,,,,,,,
MRS,MRS,Marseille Provence Airport,,,,,,,,
MRU,MRU,Sir Seewoosagur Ramgoolam International Airport,,,,,,,,
MRV,MRV,Mineralnyye Vody Airport,,,,,,,,
MRX,MRX,Mahshahr Airport,,,,,,,,
MRY,MRY,Monterey Regional Airport,,,,,,,,
MRZ,MRZ,Moree Airport,,,,,,,,
MSA,MSA,Muskrat Dam Airport,,,,,,,,
MSJ,MSJ,Misawa Airport,,,,,,,,
MSL,MSL,Northwest Alabama Regional Airport,,,,,,,,
MSN,MSN,Dane County Regional Airport,,,,,,,,
MSO,MSO,Missoula International Airport,,,,,,,,
MSP,MSP,Minneapolis-saint Paul International Airport,,,,,,,,
MSQ,MSQ,Minsk National Airport,,,,,,,,
MSR,,,,,,,,,,
MSS,MSS,Massena International Airport,,,,,,,,
MST,MST,Maastricht Aachen Airport,,,,,,,,
MSU,MSU,Moshoeshoe I International Airport,,,,,,,,
MSY,MSY,Louis Armstrong New Orleans International Airport,,,,,,,,
MSZ,,,,,,,,,,
MTJ,MTJ,Montrose Regional Airport,,,,,,,,
MTM,,,,,,,,,,
MTR,MTR,Los Garzones Airport,,,,,,,,
MTT,MTT,Minatitln-coatzacoalcos National Airport,,,,,,,,
MTV,MTV,Mota Lava Airport,,,,,,,,
MTY,MTY,General Mariano Escobedo International Airport,,,,,,,,
MUA,SCZ,Munda Airport,,,,,,,,
MUB,MUB,Maun Airport,,,,,,,,
MUC,MUC,Munich Airport,,,,,,,,
MUE,,,,,,,,,,
MUH,MUH,Mersa Matruh Airport,,,,,,,,
MUK,MUK,Mauke Airport,,,,,,,,
MUN,MUN,Jos Tadeo Monagas International Airport,,,,,,,,
MUR,MUR,Marudi Airport,,,,,,,,
MUW,MUW,Ghriss Airport,,,,,,,,
MUX,MUX,Multan International Airport,,,,,,,,
MUZ,,,,,,,,,,
MVB,,,,,,,,,,
MVD,MVD,Carrasco International Airport,,,,,,,,
MVL,,,,,,,,,,
MVP,MVP,Fabio Alberto Leon Bentley Airport,,,,,,,,
MVR,MVR,Salak Airport,,,,,,,,
MVT,MVT,Mataiva Airport,,,,,,,,
MVY,MVY,Marthas Vineyard Airport,,,,,,,,
MWA,MWA,Williamson County Regional Airport,,,,,,,,
MWF,MWF,Maewo-naone Airport,,,,,,,,
MWX,HND,Muan International Airport,,,,,,,,
MWZ,MWZ,Mwanza Airport,,,,,,,,
MXH,MXH,Moro Airport,,,,,,,,
MXL,MXL,General Rodolfo Snchez Taboada International Airport,,,,,,,,
MXP,MIL,Milano Malpensa Airport,,,,,,,,
MXV,UYN,Mrn Airport,,,,,,,,
MXX,,,,,,,,,,
MXZ,MXZ,Meixian Airport,,,,,,,,
MYA,,,,,,,,,,
MYD,MYD,Malindi Airport,,,,,,,,
MYG,MYG,Mayaguana Airport,,,,,,,,
MYJ,MYJ,Matsuyama Airport,,,,,,,,
MYP,,,,,,,,,,
MYR,MYR,Myrtle Beach International Airport,,,,,,,,
MYT,MYT,Myitkyina Airport,,,,,,,,
MYU,,,,,,,,,,
MYW,MYW,Mtwara Airport,,,,,,,,
MYY,MYY,Miri Airport,,,,,,,,
MZA,,,,,,,,,,
MZG,MZG,Makung Airport,,,,,,,,
MZH,,,,,,,,,,
MZL,MZL,La Nubia Airport,,,,,,,,
MZO,,,,,,,,,,
MZR,MZR,Mazar I Sharif Airport,,,,,,,,
MZT,MZT,General Rafael Buelna International Airport,,,,,,,,
MZV,MZV,Mulu Airport,,,,,,,,
MZW,GJL,Mecheria Airport,,,,,,,,
NAG,NAG,Dr Babasaheb Ambedkar International Airport,,,,,,,,
NAH,,,,,,,,,,
NAJ,NAJ,Nakhchivan Airport,,,,,,,,
NAL,NAL,Nalchik Airport,,,,,,,,
NAN,NAN,Nadi International Airport,,,,,,,,
NAO,NAO,Nanchong Airport,,,,,,,,
NAP,NAP,Naples Airport Capodichino Nap Italy,,,,,,,,
NAQ,NAQ,Qaanaaq Airport,,,,,,,,
NAS,NAS,Lynden Pindling International Airport,,,,,,,,
NAT,NAT,Augusto Severo International Airport,,,,,,,,
NAU,MKP,Napuka Island Airport,,,,,,,,
NAV,,,,,,,,,,
NAW,,,,,,,,,,
NAY,NAY,Beijing Nanyuan Airport,,,,,,,,
NBC,NBC,Begishevo Airport,,,,,,,,
NBE,MJF,Enfidha - Hammamet International Airport,,,,,,,,
NBN,,,,,,,,,,
NBO,NBO,Jomo Kenyatta International Airport,,,,,,,,
NBS,BZE,Changbaishan Airport,,,,,,,,
NBX,,,,,,,,,,
NCE,NCE,Nice Cte Dazur Airport,,,,,,,,
NCJ,,,,,,,,,,
NCL,NCL,Newcastle Airport,,,,,,,,
NCU,NCU,Nukus Airport,,,,,,,,
NDB,NDB,Nouadhibou International Airport,,,,,,,,
NDG,NDG,Qiqihar Sanjiazi Airport,,,,,,,,
NDJ,NDJ,Ndjamena International Airport,,,,,,,,
NDR,CMN,Nador International Airport,,,,,,,,
NDU,OMD,Rundu Airport,,,,,,,,
NDY,,,,,,,,,,
NER,,,,,,,,,,
NEV,NEV,Vance W Amory International Airport,,,,,,,,
NFO,,,,,,,,,,
NGB,NGB,Ningbo Lishe International Airport,,,,,,,,
NGD,,,,,,,,,,
NGE,NGE,Ngaoundcrc Airport,,,,,,,,
NGO,NGO,Chbu Centrair International Airport,,,,,,,,
NGQ,HSN,Ngari Gunsa Airport,,,,,,,,
NGS,NGS,Nagasaki Airport,,,,,,,,
NGU,ORF,Naval Station Norfolk,,,,,,,,
NHV,NHV,Nuku Hiva Airport,,,,,,,,
NIB,,,,,,,,,,
NIF,,,,,,,,,,
NIM,NIM,Diori Hamani International Airport,,,,,,,,
NIQ,,,,,,,,,,
NIU,,,,,,,,,,
NJC,NJC,Nizhnevartovsk Airport,,,,,,,,
NJF,BSR,Al Najaf International Airport,,,,,,,,
NKC,NKC,Nouakchott International Airport,,,,,,,,
NKG,NKG,Nanjing Lukou International Airport,,,,,,,,
NKI,,,,,,,,,,
NKM,NGO,Nagoya Airfield Airport,,,,,,,,
NKT,,,,,,,,,,
NLA,NLA,Ndola Airport,,,,,,,,
NLD,NLD,Quetzalcoatl International Airport,,,,,,,,
NLG,,,,,,,,,,
NLH,,,,,,,,,,
NLK,NLK,Norfolk Island Airport,,,,,,,,
NLT,,,,,,,,,,
NMA,NMA,Namangan Airport,,,,,,,,
NME,,,,,,,,,,
NNB,EGM,Santa Ana Airport,,,,,,,,
NNG,NNG,Nanning Wuxu International Airport,,,,,,,,
NNL,,,,,,,,,,
NNM,NNM,Naryan Mar Airport,,,,,,,,
NNT,NNT,Nan Airport,,,,,,,,
NNY,NNY,Nanyang Airport,,,,,,,,
NOB,,,,,,,,,,
NOC,NOC,Ireland West Airport Knock,,,,,,,,
NOJ,NOJ,Noyabrsk Airport,,,,,,,,
NOP,,,,,,,,,,
NOS,NOS,Fascene Airport,,,,,,,,
NOU,NOU,La Tontouta International Airport,,,,,,,,
NOV,,,,,,,,,,
NOZ,NOZ,Spichenkovo Airport,,,,,,,,
NPE,NPE,Napier Airport,,,,,,,,
NPL,NPL,New Plymouth Airport,,,,,,,,
NQN,NQN,Presidente Peron Airport,,,,,,,,
NQU,,,,,,,,,,
NQY,NQY,Newquay Cornwall Airport,,,,,,,,
NRA,,,,,,,,,,
NRK,NRK,Norrkping Airport,,,,,,,,
NRL,,,,,,,,,,
NRR,,,,,,,,,,
NRT,TYO,Narita International Airport,,,,,,,,
NSB,,,,,,,,,,
NSI,YAO,Yaound Nsimalen International Airport,,,,,,,,
NSK,NSK,Norilsk-alykel Airport,,,,,,,,
NSN,NSN,Nelson Airport,,,,,,,,
NSQ,,,,,,,,,,
NST,NST,Cha Ian Airport,,,,,,,,
NTB,,,,,,,,,,
NTE,NTE,Nantes Atlantique Airport,,,,,,,,
NTG,NTG,Nantong Airport,,,,,,,,
NTL,NTL,Newcastle Airport,,,,,,,,
NTN,,,,,,,,,,
NTQ,,,,,,,,,,
NTT,,,,,,,,,,
NTX,,,,,,,,,,
NTY,NTY,Pilanesberg International Airport,,,,,,,,
NUE,NUE,Nuremberg Airport,,,,,,,,
NUI,,,,,,,,,,
NUK,MVT,Nukutavake Airport,,,,,,,,
NUL,,,,,,,,,,
NUP,,,,,,,,,,
NUS,NUS,Norsup Airport,,,,,,,,
NUX,NUX,Novy Urengoy Airport,,,,,,,,
NVA,NVA,Benito Salas Airport,,,,,,,,
NVI,UGC,Navoi Airport,,,,,,,,
NVK,NVK,Narvik Framnes Airport,,,,,,,,
NVT,NVT,Ministro Victor Konder International Airport,,,,,,,,
NWA,,,,,,,,,,
NWI,NWI,Norwich International Airport,,,,,,,,
NYA,HMA,Nyagan Airport,,,,,,,,
NYI,,,,,,,,,,
NYK,NYK,Nanyuki Airport,,,,,,,,
NYM,NYM,Nadym Airport,,,,,,,,
NYO,STO,Stockholm Skavsta Airport,,,,,,,,
NYR,,,,,,,,,,
NYT,TVY,Naypyidaw Airport,,,,,,,,
NYU,NYU,Bagan Airport,,,,,,,,
NYW,,,,,,,,,,
NZH,,,,,,,,,,
OAG,OAG,Orange Airport,,,,,,,,
OAJ,OAJ,Albert J Ellis Airport,,,,,,,,
OAK,OAK,Oakland International Airport,,,,,,,,
OAL,,,,,,,,,,
OAS,MZR,Sharana Airstrip,,,,,,,,
OAX,OAX,Xoxocotln International Airport,,,,,,,,
OBN,,,,,,,,,,
OBO,OBO,Tokachi-obihiro Airport,,,,,,,,
OBU,KNW,Kobuk Airport,,,,,,,,
OBY,NAQ,Ittoqqortoormiit Heliport,,,,,,,,
OCC,OCC,Francisco De Orellana Airport,,,,,,,,
OCM,,,,,,,,,,
ODE,,,,,,,,,,
ODN,ODN,Long Seridan Airport,,,,,,,,
ODO,IKT,Bodaybo Airport,,,,,,,,
ODS,ODS,Odessa International Airport,,,,,,,,
ODY,ODY,Oudomsay Airport,,,,,,,,
OER,OER,Rnskldsvik Airport,,,,,,,,
OGG,OGG,Kahului Airport,,,,,,,,
OGL,,,,,,,,,,
OGM,,,,,,,,,,
OGN,,,,,,,,,,
OGS,OGS,Ogdensburg International Airport,,,,,,,,
OGU,,,,,,,,,,
OGX,OGX,Ain El Beida Airport,,,,,,,,
OGZ,OGZ,Beslan Airport,,,,,,,,
OHD,OHD,Ohrid St Paul The Apostle Airport,,,,,,,,
OHE,MDG,Gu-lian Airport,,,,,,,,
OHH,,,,,,,,,,
OHO,,,,,,,,,,
OHS,,,,,,,,,,
OIR,,,,,,,,,,
OIT,OIT,Oita Airport,,,,,,,,
OKA,OKA,Naha Airport,,,,,,,,
OKC,OKC,Will Rogers World Airport,,,,,,,,
OKD,,,,,,,,,,
OKE,,,,,,,,,,
OKI,OKI,Oki Airport,,,,,,,,
OKJ,OKJ,Okayama Airport,,,,,,,,
OKL,DJJ,Oksibil Airport,,,,,,,,
OLA,,,,,,,,,,
OLB,OLB,Olbia - Costa Smeralda Airport,,,,,,,,
OLF,OKC,L M Clayton Airport,,,,,,,,
OLH,,,,,,,,,,
OLL,,,,,,,,,,
OLZ,,,,,,,,,,
OMA,OMA,Eppley Airfield Airport,,,,,,,,
OMD,OMD,Oranjemund Airport,,,,,,,,
OME,OME,Nome Airport,,,,,,,,
OMH,PFQ,Urmia Airport,,,,,,,,
OMR,OMR,Oradea International Airport,,,,,,,,
OMS,OMS,Omsk Central Airport,,,,,,,,
OND,OND,Ondangwa Airport,,,,,,,,
ONG,ONG,Mornington Island Airport,,,,,,,,
ONJ,,,,,,,,,,
ONK,,,,,,,,,,
ONQ,,,,,,,,,,
ONS,,,,,,,,,,
ONT,ONT,Ontario International Airport,,,,,,,,
OOK,OME,Toksook Bay Airport,,,,,,,,
OOL,OOL,Gold Coast Airport,,,,,,,,
OOM,OOM,Snowy Mountains Airport,,,,,,,,
OPO,OPO,Francisco De S Carneiro Airport,,,,,,,,
OPS,VLV,Presidente Joo Batista Figueiredo Airport,,,,,,,,
ORB,ORB,Rebro Airport,,,,,,,,
ORD,CHI,Ohare International Airport,,,,,,,,
ORF,ORF,Norfolk International Airport,,,,,,,,
ORH,ORH,Worcester Regional Airport - Orh,,,,,,,,
ORI,,,,,,,,,,
ORK,ORK,Cork Airport,,,,,,,,
ORN,ORN,Oran Es Snia Airport,,,,,,,,
ORU,LPB,Juan Mendoza Airport,,,,,,,,
ORV,AET,Robert Bob Curtis Memorial Airport,,,,,,,,
ORY,PAR,Orly Airport,,,,,,,,
ORZ,,,,,,,,,,
OSD,OSD,Re Stersund Airport,,,,,,,,
OSI,OSI,Osijek Airport,,,,,,,,
OSL,OSL,Oslo Airport,,,,,,,,
OSN,,,,,,,,,,
OSR,OSR,Ostrava Leos Janek Airport,,,,,,,,
OSS,OSS,Osh Airport,,,,,,,,
OST,OST,Ostend-bruges International Airport,,,,,,,,
OSW,OSW,Orsk Airport,,,,,,,,
OSY,OSY,Namsos Hknesra Airport,,,,,,,,
OTD,,,,,,,,,,
OTH,OTH,Southwest Oregon Regional Airport,,,,,,,,
OTI,,,,,,,,,,
OTP,BUH,Henri Coand International Airport,,,,,,,,
OTZ,OTZ,Ralph Wien Memorial Airport,,,,,,,,
OUA,OUA,Ouagadougou Airport,,,,,,,,
OUD,OUD,Angads Airport,,,,,,,,
OUL,OUL,Oulu Airport,,,,,,,,
OUZ,NDB,Tazadit Airport,,,,,,,,
OVB,OVB,Tolmachevo Airport,,,,,,,,
OVD,OVD,Asturias Airport,,,,,,,,
OVS,HMA,Sovetskiy Airport,,,,,,,,
OWB,OWB,Owensboro-daviess County Regional Airport,,,,,,,,
OXB,OXB,Osvaldo Vieira International Airport,,,,,,,,
OZC,OZC,Labo Airport,,,,,,,,
OZG,TTA,Zagora Airport,,,,,,,,
OZH,,,,,,,,,,
OZZ,OZZ,Ouarzazate Airport,,,,,,,,
PAC,PTY,Albrook Marcos A Gelabert International Airport,,,,,,,,
PAD,PAD,Paderborn Lippstadt Airport,,,,,,,,
PAF,,,,,,,,,,
PAG,PAG,Pagadian Airport,,,,,,,,
PAH,PAH,Barkley Regional Airport,,,,,,,,
PAP,PAP,Toussaint Louverture International Airport,,,,,,,,
PAS,PAS,Paros National Airport,,,,,,,,
PAT,PAT,Lok Nayak Jayaprakash Airport,,,,,,,,
PAV,,,,,,,,,,
PAZ,PAZ,El Tajn National Airport,,,,,,,,
PBC,PBC,Hermanos Serdn International Airport,,,,,,,,
PBG,PBG,Plattsburgh International Airport,,,,,,,,
PBH,PBH,Paro Airport,,,,,,,,
PBI,PBI,Palm Beach International Airport,,,,,,,,
PBJ,PBJ,Tavie Airport,,,,,,,,
PBM,PBM,Johan Adolf Pengel International Airport,,,,,,,,
PBO,PBO,Paraburdoo Airport,,,,,,,,
PBP,,,,,,,,,,
PBU,PBU,Putao Airport,,,,,,,,
PBZ,,,,,,,,,,
PCL,PCL,Fap Captain David Abenzur Rengifo International Airport,,,,,,,,
PCN,,,,,,,,,,
PCR,PCR,German Olano Airport,,,,,,,,
PDA,PCR,Obando Airport,,,,,,,,
PDB,,,,,,,,,,
PDG,PDG,Minangkabau International Airport,,,,,,,,
PDK,,,,,,,,,,
PDL,PDL,Joo Paulo Ii Airport,,,,,,,,
PDM,,,,,,,,,,
PDP,PDP,Capitan Corbeta Ca Curbelo International Airport,,,,,,,,
PDS,PDS,Piedras Negras International Airport,,,,,,,,
PDT,PDT,Eastern Oregon Regional Airport,,,,,,,,
PDV,PDV,Plovdiv Airport,,,,,,,,
PDX,PDX,Portland International Airport,,,,,,,,
PEC,,,,,,,,,,
PED,PED,Pardubice Airport,,,,,,,,
PEE,PEE,Bolshoye Savino Airport,,,,,,,,
PEG,PEG,Perugia San Francesco Dassisi - Umbria International Airport,,,,,,,,
PEI,PEI,Matecaa International Airport,,,,,,,,
PEK,PEK,Beijing Capital International Airport,,,,,,,,
PEM,PEM,Padre Aldamiz International Airport,,,,,,,,
PEN,PEN,Penang International Airport,,,,,,,,
PER,PER,Perth Airport,,,,,,,,
PES,,,,,,,,,,
PET,PET,Pelotas Airport,,,,,,,,
PEU,PEU,Puerto Lempira Airport,,,,,,,,
PEW,PEW,Bacha Khan International Airport,,,,,,,,
PEZ,,,,,,,,,,
PFB,PFB,Lauro Kurtz Airport,,,,,,,,
PFO,PFO,Paphos International Airport,,,,,,,,
PGA,PGA,Page Municipal Airport,,,,,,,,
PGF,PGF,Perpignan-rivesaltes Airport,,,,,,,,
PGH,PGH,Pantnagar Airport,,,,,,,,
PGK,PGK,Pangkal Pinang Depati Amir Airport,,,,,,,,
PGM,,,,,,,,,,
PGU,,,,,,,,,,
PGV,PGV,Pitt-greenville Airport,,,,,,,,
PGX,PGX,Prigueux Bassillac Airport,,,,,,,,
PHC,PHC,Port Harcourt International Airport,,,,,,,,
PHE,PHE,Port Hedland International Airport,,,,,,,,
PHF,PHF,Newport News-williamsburg International Airport,,,,,,,,
PHL,PHL,Philadelphia International Airport,,,,,,,,
PHO,PHO,Point Hope Airport,,,,,,,,
PHS,PHS,Phitsanulok Airport,,,,,,,,
PHW,PHW,Hendrik Van Eck Airport,,,,,,,,
PHX,PHX,Phoenix Sky Harbor International Airport,,,,,,,,
PIA,PIA,General Wayne A Downing Peoria International Airport,,,,,,,,
PIB,PIB,Hattiesburg Laurel Regional Airport,,,,,,,,
PIE,TPA,St Petersburg-clearwater International Airport,,,,,,,,
PIH,PIH,Pocatello Regional Airport,,,,,,,,
PIN,,,,,,,,,,
PIP,PTU,Pilot Point Airport,,,,,,,,
PIR,PIR,Pierre Regional Airport,,,,,,,,
PIS,PIS,Poitiers-biard Airport,,,,,,,,
PIT,PIT,Pittsburgh International Airport,,,,,,,,
PIU,PIU,Capitn Fap Guillermo Concha Iberico International Airport,,,,,,,,
PIX,PIX,Pico Airport,,,,,,,,
PIZ,,,,,,,,,,
PJA,,,,,,,,,,
PJG,PJG,Panjgur Airport,,,,,,,,
PJM,PJM,Puerto Jimenez Airport,,,,,,,,
PKA,,,,,,,,,,
PKB,PKB,Mid-ohio Valley Regional Airport,,,,,,,,
PKC,PKC,Petropavlovsk-kamchatsky Airport,,,,,,,,
PKE,,,,,,,,,,
PKN,PKN,Iskandar Airport,,,,,,,,
PKP,PKP,Puka Puka Airport,,,,,,,,
PKR,PKR,Pokhara Airport,,,,,,,,
PKU,PKU,Sultan Syarif Qasim Ii International Airport,,,,,,,,
PKY,PKY,Tjilik Riwut Airport,,,,,,,,
PKZ,PKZ,Pakse International Airport,,,,,,,,
PLJ,,,,,,,,,,
PLM,PLM,Sultan Mahmud Badaruddin Ii International Airport,,,,,,,,
PLN,PLN,Pellston Regional Airport,,,,,,,,
PLO,PLO,Port Lincoln Airport,,,,,,,,
PLQ,PLQ,Palanga International Airport,,,,,,,,
PLS,PLS,Providenciales International Airport,,,,,,,,
PLU,BHZ,Belo Horizonte-pampulha - Carlos Drummond De Andrade Airport,,,,,,,,
PLW,PLW,Mutiara Airport,,,,,,,,
PLX,,,,,,,,,,
PLZ,PLZ,Port Elizabeth Airport,,,,,,,,
PMA,,,,,,,,,,
PMC,PMC,El Tepual Airport,,,,,,,,
PMI,PMI,Palma De Mallorca Airport,,,,,,,,
PMK,,,,,,,,,,
PML,OTD,Port Moller Airport,,,,,,,,
PMO,PMO,Falcone-borsellino Airport,,,,,,,,
PMR,PMR,Palmerston North Airport,,,,,,,,
PMV,PMV,Del Caribe Santiago Mario International Airport,,,,,,,,
PMW,PMW,Brigadeiro Lysias Rodrigues Airport,,,,,,,,
PMY,PMY,El Tehuelche Airport,,,,,,,,
PMZ,PMZ,Palmar Sur Airport,,,,,,,,
PNA,PNA,Pamplona Airport,,,,,,,,
PND,PND,Punta Gorda Airport,,,,,,,,
PNH,PNH,Phnom Penh International Airport,,,,,,,,
PNI,PNI,Pohnpei International Airport,,,,,,,,
PNK,PNK,Supadio Airport,,,,,,,,
PNL,PNL,Pantelleria Airport,,,,,,,,
PNP,GKA,Girua Airport,,,,,,,,
PNQ,PNQ,Pune Airport,,,,,,,,
PNR,PNR,Pointe Noire Airport,,,,,,,,
PNS,PNS,Pensacola International Airport,,,,,,,,
PNT,,,,,,,,,,
PNZ,PNZ,Senador Nilo Coelho Airport,,,,,,,,
POA,POA,Salgado Filho International Airport,,,,,,,,
POG,POG,Port Gentil Airport,,,,,,,,
POI,LPB,Capitan Nicolas Rojas Airport,,,,,,,,
POL,POL,Pemba Airport,,,,,,,,
POM,POM,Jacksons International Airport,,,,,,,,
POP,POP,Gregorio Lupern International Airport,,,,,,,,
POR,POR,Pori Airport,,,,,,,,
POS,POS,Piarco International Airport,,,,,,,,
POZ,POZ,Pozna-awica Airport,,,,,,,,
PPB,,,,,,,,,,
PPG,PPG,Pago Pago International Airport,,,,,,,,
PPK,PPK,Petropavlosk South Airport,,,,,,,,
PPN,PPN,Guillermo Len Valencia Airport,,,,,,,,
PPP,PPP,Proserpine Whitsunday Coast Airport,,,,,,,,
PPQ,PPQ,Paraparaumu Airport,,,,,,,,
PPS,PPS,Puerto Princesa International Airport,,,,,,,,
PPT,PPT,Faa International Airport,,,,,,,,
PPV,,,,,,,,,,
PPW,,,,,,,,,,
PQC,PQC,Phu Quoc Airport,,,,,,,,
PQI,PQI,Northern Maine Regional Airport,,,,,,,,
PQM,UPN,Palenque International Airport,,,,,,,,
PQQ,PQQ,Port Macquarie Airport,,,,,,,,
PQS,,,,,,,,,,
PQT,,,,,,,,,,
PRA,LPS,General Urquiza Airport,,,,,,,,
PRC,PRC,Ernest A Love Field Airport,,,,,,,,
PRG,PRG,Prague Vclav Havel Airport,,,,,,,,
PRH,NNT,Phrae Airport,,,,,,,,
PRI,PRI,Praslin Island Airport,,,,,,,,
PRN,PRN,Pristina International Airport,,,,,,,,
PRY,,,,,,,,,,
PSA,PSA,Pisa International Airport,,,,,,,,
PSC,PSC,Tri-cities Airport Washington,,,,,,,,
PSE,PSE,Mercedita Airport,,,,,,,,
PSG,PSG,Petersburg James A Johnson Airport,,,,,,,,
PSJ,,,,,,,,,,
PSO,PSO,Antonio Nario Airport,,,,,,,,
PSP,PSP,Palm Springs International Airport,,,,,,,,
PSR,PSR,Abruzzo Airport,,,,,,,,
PSS,PSS,Libertador Gral D Jose De San Martin Airport,,,,,,,,
PSU,PSU,Pangsuma Airport,,,,,,,,
PSV,,,,,,,,,,
PTA,,,,,,,,,,
PTG,PTG,Polokwane International Airport,,,,,,,,
PTH,PTH,Port Heiden Airport,,,,,,,,
PTJ,PTJ,Portland Airport,,,,,,,,
PTK,,,,,,,,,,
PTP,PTP,Pointe--pitre International Airport,,,,,,,,
PTU,,,,,,,,,,
PTX,,,,,,,,,,
PTY,PTY,Tocumen International Airport,,,,,,,,
PUB,PUB,Pueblo Memorial Airport,,,,,,,,
PUE,,,,,,,,,,
PUF,PUF,Pau Pyrnes Airport,,,,,,,,
PUG,PUG,Port Augusta Airport,,,,,,,,
PUJ,PUJ,Punta Cana International Airport,,,,,,,,
PUK,PKP,Pukarua Airport,,,,,,,,
PUM,ULU,Pomala Airport,,,,,,,,
PUQ,PUQ,Presidente Carlos Ibez Del Campo International Airport,,,,,,,,
PUS,PUS,Gimhae International Airport,,,,,,,,
PUU,PUU,Tres De Mayo Airport,,,,,,,,
PUW,PUW,Pullman-moscow Regional Airport,,,,,,,,
PUY,PUY,Pula Airport,,,,,,,,
PVA,,,,,,,,,,
PVC,PVC,Provincetown Municipal Airport,,,,,,,,
PVD,PVD,T F Green Airport,,,,,,,,
PVG,SHA,Shanghai Pudong International Airport,,,,,,,,
PVH,PVH,Governador Jorge Teixeira De Oliveira Airport,,,,,,,,
PVK,PVK,Aktion National Airport,,,,,,,,
PVR,PVR,Licenciado Gustavo Daz Ordaz International Airport,,,,,,,,
PWE,,,,,,,,,,
PWM,PWM,Portland International Jetport,,,,,,,,
PWQ,PWQ,Pavlodar Airport,,,,,,,,
PXM,PXM,Puerto Escondido International Airport,,,,,,,,
PXO,PXO,Porto Santo Airport,,,,,,,,
PXU,PXU,Pleiku Airport,,,,,,,,
PYC,,,,,,,,,,
PYH,PYH,Cacique Aramare Airport,,,,,,,,
PYJ,,,,,,,,,,
PYY,PYY,Mae Hong Son Airport,,,,,,,,
PZB,PZB,Pietermaritzburg Airport,,,,,,,,
PZH,PZH,Zhob Airport,,,,,,,,
PZI,PZI,Baoanying Airport,,,,,,,,
PZO,PZO,Manuel Carlos Piar Guayana Airport,,,,,,,,
PZU,PZU,Port Sudan New International Airport,,,,,,,,
QBC,QBC,Bella Coola Airport,,,,,,,,
QCU,JGR,Akunaq Heliport,,,,,,,,
QFG,CNP,Eqalugaarsuit Heliport,,,,,,,,
QFI,JGO,Iginniarfik,,,,,,,,
QFN,CNP,Narsaq Kujalleq Heliport,,,,,,,,
QFT,,,,,,,,,,
QFX,YAP,Igaliku Heliport,,,,,,,,
QGQ,LLU,Attu Heliport,,,,,,,,
QJE,KUS,Kitsissuarsuit Heliport,,,,,,,,
QJH,,,,,,,,,,
QJI,JGO,Ikamiut Heliport,,,,,,,,
QMK,JSU,Niaqornaarsuk Heliport,,,,,,,,
QOQ,,,,,,,,,,
QOW,ILR,Sam Mbakwe International Airport,,,,,,,,
QPW,JAV,Kangaatsiaq Heliport,,,,,,,,
QRO,QRO,Quertaro International Airport,,,,,,,,
QRW,VBV,Warri Airport,,,,,,,,
QRY,JGO,Ikerassaarsuk Heliport,,,,,,,,
QSC,,,,,,,,,,
QSF,QSF,Ain Arnat Airport,,,,,,,,
QUO,ABV,Akwa Ibom International Airport,,,,,,,,
QUP,SFJ,Saqqaq Heliport,,,,,,,,
QUV,LLU,Aappilattoq Kujalleq Heliport,,,,,,,,
QUW,LLU,Ammassivik Heliport,,,,,,,,
RAB,RAB,Rabaul Airport,,,,,,,,
RAE,RAE,Arar Domestic Airport,,,,,,,,
RAH,RAH,Rafha Domestic Airport,,,,,,,,
RAI,RAI,Nelson Mandela International Airport,,,,,,,,
RAJ,RAJ,Rajkot Airport,,,,,,,,
RAK,RAK,Marrakesh Menara Airport,,,,,,,,
RAO,RAO,Leite Lopes Airport,,,,,,,,
RAP,RAP,Rapid City Regional Airport,,,,,,,,
RAR,RAR,Rarotonga International Airport,,,,,,,,
RAS,RAS,Sardar-e-jangal Airport,,,,,,,,
RBA,RBA,Rabat-sal Airport,,,,,,,,
RBM,,,,,,,,,,
RBQ,,,,,,,,,,
RBR,RBR,Plcido De Castro Airport,,,,,,,,
RBV,RBV,Ramata Airport,,,,,,,,
RBY,,,,,,,,,,
RCB,RCB,Richards Bay Airport,,,,,,,,
RCE,,,,,,,,,,
RCH,RCH,Almirante Padilla Airport,,,,,,,,
RCM,,,,,,,,,,
RCQ,,,,,,,,,,
RCY,,,,,,,,,,
RDB,CDV,Red Dog Airport,,,,,,,,
RDD,RDD,Redding Municipal Airport,,,,,,,,
RDM,RDM,Redmond Municipal Airport,,,,,,,,
RDO,,,,,,,,,,
RDP,,,,,,,,,,
RDU,RDU,Raleigh-durham International Airport,,,,,,,,
RDV,,,,,,,,,,
REA,REA,Reao Airport,,,,,,,,
REC,REC,Recife-guararapes-gilberto Freyre International Airport,,,,,,,,
REG,REG,Reggio Calabria Airport,,,,,,,,
REL,REL,Almirante Marco Andres Zar Airport,,,,,,,,
REN,REN,Orenburg Central Airport,,,,,,,,
REP,REP,Siem Reap International Airport,,,,,,,,
RES,RES,Resistencia International Airport,,,,,,,,
RET,RRS,Rst Airport,,,,,,,,
REU,REU,Reus Airport,,,,,,NA,,
REX,REX,General Lucio Blanco International Airport,,,,,,,,
RFP,RFP,Raiatea Airport,,,,,,,,
RGA,RGA,Hermes Quijada International Airport,,,,,,,,
RGI,RGI,Rangiroa Airport,,,,,,,,
RGK,,,,,,,,,,
RGL,RGL,Piloto Civil Norberto Fernndez International Airport,,,,,,,,
RGN,RGN,Yangon International Airport,,,,,,,,
RHD,SDE,Las Termas Airport,,,,,,,,
RHI,RHI,Rhinelander-oneida County Airport,,,,,,,,
RHO,RHO,Rhodes International Airport,,,,,,,,
RHR,,,,,,,,,,
RHT,,,,,,,,,,
RIA,RIA,Santa Maria Airport,,,,,,,,
RIB,RIB,Capitn Av Selin Zeitun Lopez Airport,,,,,,,,
RIC,RIC,Richmond International Airport,,,,,,,,
RIH,,,,,,,,,,
RIS,,,,,,,,,,
RIV,,,,,,,,,,
RIW,RIW,Riverton Regional Airport,,,,,,,,
RIX,RIX,Riga International Airport,,,,,,,,
RIY,RIY,Mukalla International Airport,,,,,,,,
RIZ,,,,,,,,,,
RJA,RJA,Rajahmundry Airport,,,,,,,,
RJH,JSR,Shah Mokhdum Airport,,,,,,,,
RJK,RJK,Rijeka Airport,,,,,,,,
RJL,LEN,Logroo-agoncillo Airport,,,,,,,,
RKA,MVT,Aratika Nord Airport,,,,,,,,
RKD,RKD,Knox County Regional Airport,,,,,,,,
RKE,,,,,,,,,,
RKS,RKS,Rock Springs - Sweetwater County Airport,,,,,,,,
RKT,RKT,Ras Al Khaimah International Airport,,,,,,,,
RKV,REK,Reykjavk Airport,,,,,,,,
RLG,RLG,Rostock-laage Airport,,,,,,,,
RLK,,,,,,,,,,
RMA,RMA,Roma Airport,,,,,,,,
RMF,RMF,Marsa Alam International Airport,,,,,,,,
RMI,RMI,Rimini - Miramare - Federico Fellini International Airport,,,,,,,,
RMP,,,,,,,,,,
RMQ,HCN,Taichung Ching Chuang Kang Airport,,,,,,,,
RMS,,,,,,,,,,
RMT,PPT,Rimatara Airport,,,,,,,,
RNA,WKK,Ulawa Airport,,,,,,,,
RNB,RNB,Ronneby Airport,,,,,,,,
RNJ,,,,,,,,,,
RNL,RNL,Rennell-tingoa Airport,,,,,,,,
RNN,,,,,,,,,,
RNO,RNO,Reno-tahoe International Airport,,,,,,,,
RNS,RNS,Rennes-saint-jacques Airport,,,,,,,,
ROA,ROA,Roanoke Regional Airport,,,,,,,,
ROB,ROB,Roberts International Airport,,,,,,,,
ROC,ROC,Greater Rochester International Airport,,,,,,,,
ROI,ROI,Roi Et Airport,,,,,,,,
ROK,ROK,Rockhampton Airport,,,,,,,,
ROO,,,,,,,,,,
ROP,ROP,Rota International Airport,,,,,,,,
ROR,ROR,Roman Tmetuchl International Airport,,,,,,,,
ROS,ROS,Rosario - Islas Malvinas International Airport,,,,,,,,
ROT,ROT,Rotorua Regional Airport,,,,,,,,
ROV,ROV,Rostov-on-don Airport,,,,,,,,
ROW,ROW,Roswell International Airport,,,,,,,,
RPR,RPR,Raipur Airport,,,,,,,,
RRG,RRG,Sir Gatan Duval Airport,,,,,,,,
RRR,MVT,Raroia Airport,,,,,,,,
RRS,RRS,Rros Airport,,,,,,,,
RSA,RSA,Santa Rosa Airport,,,,,,,,
RSD,RSD,Rock Sound International Airport,,,,,,,,
RSH,,,,,,,,,,
RSS,,,,,,,,,,
RST,RST,Rochester International Airport,,,,,,,,
RSU,RSU,Yeosu Airport,,,,,,,,
RSW,FMY,Southwest Florida International Airport,,,,,,,,
RTA,RTA,Rotuma Airport,,,,,,,,
RTB,RTB,Juan Manuel Galvez International Airport,,,,,,,,
RTG,,,,,,,,,,
RTI,,,,,,,,,,
RTM,RTM,Rotterdam The Hague Airport,,,,,,,,
RTW,,,,,,,,,,
RUA,RUA,Arua Airport,,,,,,,,
RUH,RUH,King Khalid International Airport,,,,,,,,
RUN,RUN,Roland Garros Airport,,,,,,,,
RUR,RUR,Rurutu Airport,,,,,,,,
RUS,RUS,Marau Airport,,,,,,,,
RUT,RUT,Rutland Southern Vermont Regional Airport,,,,,,,,
RVD,,,,,,,,,,
RVE,,,,,,,,,,
RVK,,,,,,,,,,
RVN,RVN,Rovaniemi Airport,,,,,,,,
RVT,NAC,Ravensthorpe Airport,,,,,,,,
RVV,TUB,Raivavae Airport,,,,,,,,
RXS,RXS,Roxas Airport,,,,,,,,
RYG,OSL,Moss Airport,,,,,,,,
RYK,RYK,Shaikh Zaid Airport,,,,,,,,
RYL,,,,,,,,,,
RZE,RZE,Rzeszw-jasionka Airport,,,,,,,,
RZS,,,,,,,,,,
SAB,SAB,Juancho E Yrausquin Airport,,,,,,,,
SAE,ULU,Sangir Airport,,,,,,,,
SAF,SAF,Santa Fe Municipal Airport,,,,,,,,
SAH,SAH,El Rahaba Airport,,,,,,,,
SAL,SAL,El Salvador International Airport,,,,,,,,
SAN,SAN,San Diego International Airport,,,,,,,,
SAP,SAP,Ramn Villeda Morales International Airport,,,,,,,,
SAT,SAT,San Antonio International Airport,,,,,,,,
SAV,SAV,Savannah-hilton Head International Airport,,,,,,,,
SAW,IST,Sabiha Gken International Airport,,,,,,,,
SBA,SBA,Santa Barbara Municipal Airport,,,,,,,,
SBG,,,,,,,,,,
SBH,SBH,Gustaf Iii Airport,,,,,,,,
SBN,SBN,South Bend Airport,,,,,,,,
SBP,SBP,San Luis County Regional Airport,,,,,,,,
SBW,SBW,Sibu Airport,,,,,,,,
SBY,SBY,Salisbury-ocean City-wicomico Regional Airport,,,,,,,,
SBZ,SBZ,Sibiu International Airport,,,,,,,,
SCC,SCC,Deadhorse Airport,,,,,,,,
SCE,SCE,University Park Airport,,,,,,,,
SCL,SCL,Comodoro Arturo Merino Bentez International Airport,,,,,,,,
SCM,CDB,Scammon Bay Airport,,,,,,,,
SCN,SCN,Saarbr 1-4 Cken Airport,,,,,,,,
SCO,SCO,Aktau Airport,,,,,,,,
SCQ,SCQ,Santiago De Compostela Airport,,,,,,,,
SCT,SCT,Socotra International Airport,,,,,,,,
SCU,SCU,Antonio Maceo International Airport,,,,,,,,
SCV,SCV,Suceava Stefan Cel Mare Airport,,,,,,,,
SCW,SCW,Syktyvkar Airport,,,,,,,,
SCY,SNC,San Cristbal Airport,,,,,,,,
SCZ,SCZ,Santa Cruz-graciosa Bay-luova Airport,,,,,,,,
SDD,,,,,,,,,,
SDE,SDE,Vicecomodoro Angel D La Paz Aragoncs Airport,,,,,,,,
SDF,SDF,Louisville International Airport,,,,,,,,
SDJ,SDJ,Sendai Airport,,,,,,,,
SDK,SDK,Sandakan Airport,,,,,,,,
SDL,SDL,Sundsvall-timr Airport,,,,,,,,
SDN,,,,,,,,,,
SDP,SDP,Sand Point Airport,,,,,,,,
SDQ,SDQ,Las Amricas International Airport,,,,,,,,
SDR,SDR,Santander Airport,,,,,,,,
SDU,RIO,Santos Dumont Airport,,,,,,,,
SDV,TLV,Sde Dov Airport,,,,,,,,
SDY,SDF,Sidney Richland Municipal Airport,,,,,,,,
SEA,SEA,Seattle-tacoma International Airport,,,,,,,,
SEB,SEB,Sabha Airport,,,,,,,,
SEK,,,,,,,,,,
SEN,SEN,Southend Airport,,,,,,,,
SEU,,,,,,,,,,
SEZ,SEZ,Seychelles International Airport,,,,,,,,
SFA,SFA,Sfax Thyna International Airport,,,,,,,,
SFB,SFB,Orlando Sanford International Airport,,,,,,,,
SFD,SFD,San Fernando De Apure Airport,,,,,,,,
SFG,SFG,Lespcrance Airport,,,,,,,,
SFJ,SFJ,Kangerlussuaq Airport,,,,,,,,
SFL,,,,,,,,,,
SFN,SFN,Sauce Viejo Airport,,,,,,,,
SFO,SFO,San Francisco International Airport,,,,,,,,
SFT,SFT,Skellefte Airport,,,,,,,,
SGC,SGC,Surgut Airport,,,,,,,,
SGD,SGD,Snderborg Airport,,,,,,,,
SGF,SGF,Springfield-branson National Airport,,,,,,,,
SGG,LWY,Simanggang Airport,,,,,,,,
SGN,SGN,Tan Son Nhat International Airport,,,,,,,,
SGO,,,,,,,,,,
SGU,SGU,St George Municipal Airport,,,,,,,,
SGX,,,,,,,,,,
SGY,SGY,Skagway Airport,,,,,,,,
SHA,SHA,Shanghai Hongqiao International Airport,,,,,,,,
SHB,SHB,Nakashibetsu Airport,,,,,,,,
SHD,SHD,Shenandoah Valley Regional Airport,,,,,,,,
SHE,SHE,Taoxian Airport,,,,,,,,
SHF,,,,,,,,,,
SHG,,,,,,,,,,
SHH,SHH,Shishmaref Airport,,,,,,,,
SHJ,SHJ,Sharjah International Airport,,,,,,,,
SHL,SHL,Shillong Airport,,,,,,,,
SHM,SHM,Nanki Shirahama Airport,,,,,,,,
SHO,,,,,,,,,,
SHV,SHV,Shreveport Regional Airport,,,,,,,,
SHW,SHW,Sharurah Airport,,,,,,,,
SHX,HOM,Shageluk Airport,,,,,,,,
SIC,,,,,,,,,,
SID,SID,Am-lcar Cabral International Airport,,,,,,,,
SIF,,,,,,,,,,
SIG,,,,,,,,,,
SIN,SIN,Singapore Changi Airport,,,,,,,,
SIP,SIP,Simferopol International Airport,,,,,,,,
SIR,,,,,,,,,,
SIS,,,,,,,,,,
SIT,SIT,Sitka Rocky Gutierrez Airport,,,,,,,,
SJC,SJC,San Jose International Airport,,,,,,,,
SJD,SJD,Los Cabos International Airport,,,,,,,,
SJE,SJE,Jorge E Gonzalez Torres Airport,,,,,,,,
SJI,SJI,San Jose Airport,,,,,,,,
SJJ,SJJ,Sarajevo International Airport,,,,,,,,
SJK,,,,,,,,,,
SJO,SJO,Juan Santamara International Airport,,,,,,,,
SJP,SJP,Prof Eribelto Manoel Reino State Airport,,,,,,,,
SJT,SJT,San Angelo Regional Airport,,,,,,,,
SJU,SJU,Luis Muoz Marn International Airport,,,,,,,,
SJW,SJW,Shijiazhuang Daguocun International Airport,,,,,,,,
SJZ,SJZ,So Jorge Airport,,,,,,,,
SKB,SKB,Robert L Bradshaw International Airport,,,,,,,,
SKD,SKD,Samarkand Airport,,,,,,,,
SKG,SKG,Thessaloniki International Airport,,,,,,,,
SKK,AET,Shaktoolik Airport,,,,,,,,
SKN,SKN,Stokmarknes Skagen Airport,,,,,,,,
SKO,SKO,Sadiq Abubakar Iii International Airport,,,,,,,,
SKP,SKP,Skopje Alexander The Great Airport,,,,,,,,
SKT,SKT,Sialkot Airport,,,,,,,,
SKU,SKU,Skiros Airport,,,,,,,,
SKX,,,,,,,,,,
SKZ,SKZ,Sukkur Airport,,,,,,,,
SLA,SLA,Martin Miguel De Guemes International Airport,,,,,,,,
SLC,SLC,Salt Lake City International Airport,,,,,,,,
SLH,SLH,Sola Airport,,,,,,,,
SLI,,,,,,,,,,
SLK,SLK,Adirondack Regional Airport,,,,,,,,
SLL,SLL,Salalah Airport,,,,,,,,
SLM,SLM,Salamanca Airport,,,,,,,,
SLP,SLP,Ponciano Arriaga International Airport,,,,,,,,
SLQ,,,,,,,,,,
SLU,SLU,George F L Charles Airport,,,,,,,,
SLW,SLW,Plan De Guadalupe International Airport,,,,,,,,
SLX,,,,,,,,,,
SLY,SLY,Salekhard Airport,,,,,,,,
SLZ,SLZ,Marechal Cunha Machado International Airport,,,,,,,,
SMA,SMA,Santa Maria Airport,,,,,,,,
SMF,SMF,Sacramento International Airport,,,,,,,,
SMI,SMI,Samos International Airport,,,,,,,,
SMK,,,,,,,,,,
SML,SML,Stella Maris Airport,,,,,,,,
SMQ,,,,,,,,,,
SMR,SMR,Simn Bol-var International Airport,,,,,,,,
SMS,SMS,Sainte Marie Airport,,,,,,,,
SMX,SMX,Santa Maria Public Airport,,,,,,,,
SNA,SNA,John Wayne Airport,,,,,,,,
SNC,,,,,,,,,,
SNE,,,,,,,,,,
SNN,SNN,Shannon Airport,,,,,,,,
SNO,SNO,Sakon Nakhon Airport,,,,,,,,
SNP,SNP,St Paul Island Airport,,,,,,,,
SNR,SNR,Saint-nazaire-montoir Airport,,,,,,,,
SNU,SNU,Abel Santamaria Airport,,,,,,,,
SNW,SNW,Thandwe Airport,,,,,,,,
SOB,DEB,Srmellck International Airport,,,,,,,,
SOC,SOC,Adi Sumarmo Wiryokusumo Airport,,,,,,,,
SOF,SOF,Sofia Airport,,,,,,,,
SOG,SOG,Sogndal Airport,,,,,,,,
SOJ,SRP,Srkjosen Airport,,,,,,,,
SOM,SOM,San Tome Airport,,,,,,,,
SON,SON,Santo Pekoa International Airport,,,,,,,,
SOQ,SOQ,Sorong Jefman Airport,,,,,,,,
SOU,SOU,Southampton Airport,,,,,,,,
SOV,,,,,,,,,,
SOW,SNA,Show Low Regional Airport,,,,,,,,
SOY,,,,,,,,,,
SPB,STT,Charlotte Amalie Harbor Seaplane Base Airport,,,,,,,,
SPC,SPC,La Palma Airport,,,,,,,,
SPD,JSR,Saidpur Airport,,,,,,,,
SPI,SPI,Abraham Lincoln Capital Airport,,,,,,,,
SPN,SPN,Saipan International Airport,,,,,,,,
SPP,,,,,,,,,,
SPR,,,,,,,,,,
SPS,SPS,Wichita Falls Municipal Airport,,,,,,,,
SPU,SPU,Split Airport,,,,,,,,
SPY,HGO,San Pedro Airport,,,,,,,,
SQG,,,,,,,,,,
SQJ,,,,,,,,,,
SRE,SRE,Juana Azurduy De Padilla Airport,,,,,,,,
SRG,SRG,Achmad Yani Airport,,,,,,,,
SRI,,,,,,,,,,
SRK,,,,,,,,,,
SRP,,,,,,,,,,
SRQ,SRQ,Sarasota-bradenton International Airport,,,,,,,,
SRV,,,,,,,,,,
SRY,SRY,Dasht-e Naz Airport,,,,,,,,
SSA,SSA,Deputado Lus Eduardo Magalhes International Airport,,,,,,,,
SSB,STX,Christiansted Harbor Seaplane Base Airport,,,,,,,,
SSG,SSG,Malabo International Airport,,,,,,,,
SSH,SSH,Sharm El Sheikh International Airport,,,,,,,,
SSJ,,,,,,,,,,
SSR,SSR,Sara Airport,,,,,,,,
STD,STD,Mayor Buenaventura Vivas International Airport,,,,,,,,
STG,,,,,,,,,,
STI,STI,Cibao International Airport,,,,,,,,
STL,STL,Lambert-st Louis International Airport,,,,,,,,
STM,STM,Maestro Wilson Fonseca Airport,,,,,,,,
STN,LON,London Stansted Airport,,,,,,,,
STR,STR,Stuttgart Airport,,,,,,,,
STS,STS,Charles M Schulz-sonoma County Airport,,,,,,,,
STT,STT,Cyril E King Airport,,,,,,,,
STV,STV,Surat Airport,,,,,,,,
STW,STW,Stavropol Shpakovskoye Airport,,,,,,,,
STX,STX,Henry E Rohlsen Airport,,,,,,,,
SUB,SUB,Juanda International Airport,,,,,,,,
SUF,SUF,Lamezia Terme International Airport,,,,,,,,
SUG,SUG,Surigao Airport,,,,,,,,
SUJ,SUJ,Satu Mare Airport,,,,,,,,
SUK,,,,,,,,,,
SUN,SUN,Friedman Memorial Airport,,,,,,,,
SUR,SUR,Summer Beaver Airport,,,,,,,,
SUV,SUV,Nausori International Airport,,,,,,,,
SUX,SUX,Sioux Gateway Airport,,,,,,,,
SUY,,,,,,,,,,
SVA,SVA,Savoonga Airport,,,,,,,,
SVB,SVB,Sambava Airport,,,,,,,,
SVC,SVC,Grant County Airport,,,,,,,,
SVD,SVD,E T Joshua Airport,,,,,,,,
SVG,SVG,Stavanger Airport,,,,,,,,
SVJ,SVJ,Svolvr Helle Airport,,,,,,,,
SVK,,,,,,,,,,
SVL,SVL,Savonlinna Airport,,,,,,,,
SVN,SAV,Hunter Army Airfield Airport,,,,,,,,
SVO,MOW,Sheremetyevo International Airport,,,,,,,,
SVP,,,,,,,,,,
SVQ,SVQ,San Pablo Airport,,,,,,,,
SVR,,,,,,,,,,
SVS,,,,,,,,,,
SVU,SVU,Savusavu Airport,,,,,,,,
SVX,SVX,Koltsovo Airport,,,,,,,,
SWA,SWA,Shantou Waisha Airport,,,,,,,,
SWF,SWF,Stewart International Airport,,,,,,,,
SWJ,SWJ,Southwest Bay Airport,,,,,,,,
SWO,,,,,,,,,,
SWQ,,,,,,,,,,
SWT,,,,,,,,,,
SXB,SXB,Strasbourg Airport,,,,,,,,
SXF,BER,Berlin Schnefeld Airport,,,,,,,,
SXK,SMQ,Saumlaki-olilit Airport,,,,,,,,
SXM,SXM,Princess Juliana International Airport,,,,,,,,
SXP,,,,,,,,,,
SXR,SXR,Sheikh Ul Alam Airport,,,,,,,,
SXZ,,,,,,,,,,
SYB,VLV,Seal Bay Seaplane Base,,,,,,,,
SYD,SYD,Sydney Airport,,,,,,,,
SYM,SYM,Simao Airport,,,,,,,,
SYO,,,,,,,,,,
SYQ,SJO,Tobias Bolanos International Airport,,,,,,,,
SYR,SYR,Syracuse Hancock International Airport,,,,,,,,
SYS,,,,,,,,,,
SYX,SYX,Sanya Phoenix International Airport,,,,,,,,
SYY,SYY,Stornoway Airport,,,,,,,,
SYZ,SYZ,Shiraz Shahid Dastghaib International Airport,,,,,,,,
SZA,,,,,,,,,,
SZB,KUL,Sultan Abdul Aziz Shah Airport,,,,,,,,
SZE,,,,,,,,,,
SZF,SZF,Samsun Aramba Airport,,,,,,,,
SZG,SZG,Salzburg Airport,,,,,,,,
SZK,SZK,Skukuza Airport,,,,,,,,
SZX,SZX,Shenzhen Baoan International Airport,,,,,,,,
SZY,,,,,,,,,,
SZZ,SZZ,Solidarity Szczecin-goleniw Airport,,,,,,,,
TAB,TAB,Arthur Napoleon Raymond Robinson International Airport Directions,,,,,,,,
TAC,TAC,Daniel Z Romualdez Airport,,,,,,,,
TAE,TAE,Daegu Airport,,,,,,,,
TAG,TAG,Tagbilaran Airport,,,,,,,,
TAH,TAH,Tanna Airport,,,,,,,,
TAI,TAI,Taizz International Airport,,,,,,,,
TAK,TAK,Takamatsu Airport,,,,,,,,
TAL,,,,,,,,,,
TAM,TAM,General Francisco Javier Mina International Airport,,,,,,,,
TAO,TAO,Liuting Airport,,,,,,,,
TAP,TAP,Tapachula International Airport,,,,,,,,
TAS,TAS,Tashkent International Airport,,,,,,,,
TAT,TAT,Poprad-tatry Airport,,,,,,,,
TAY,TAY,Tartu Airport,,,,,,,,
TAZ,,,,,,,,,,
TBB,TBB,Dong Tac Airport,,,,,,,,
TBG,TBG,Tabubil Airport,,,,,,,,
TBH,,,,,,,,,,
TBI,,,,,,,,,,
TBN,TBN,Waynesville-st Robert Regional Airport,,,,,,,,
TBO,TBO,Tabora Airport,,,,,,,,
TBP,TBP,Capitan Fap Pedro Canga Rodriguez Airport,,,,,,,,
TBS,TBS,Tbilisi International Airport,,,,,,,,
TBT,,,,,,,,,,
TBU,TBU,Fuaamotu International Airport,,,,,,,,
TBW,TBW,Donskoye Airport,,,,,,,,
TBZ,TBZ,Tabriz International Airport,,,,,,,,
TCA,,,,,,,,,,
TCB,TCB,Treasure Cay Airport,,,,,,,,
TCG,TCG,Tacheng Airport,,,,,,,,
TCM,,,,,,,,,,
TCO,TCO,La Florida Airport,,,,,,,,
TCQ,TCQ,Coronel Fap Carlos Ciriani Santa Rosa International Airport,,,,,,,,
TCR,,,,,,,,,,
TCT,BGI,Takotna Airport,,,,,,,,
TCZ,NAO,Tengchong Tuofeng Airport,,,,,,,,
TDD,TDD,Teniente Av Jorge Henrich Arauz Airport,,,,,,,,
TDG,SUG,Tandag Airport,,,,,,,,
TDK,,,,,,,,,,
TDX,TDX,Trat Airport,,,,,,,,
TEE,TEE,Cheikh Larbi Tcbessi Airport,,,,,,,,
TEN,NAO,Tongren Fenghuang Airport,,,,,,,,
TEQ,,,,,,,,,,
TER,TER,Lajes Field,,,,,,,,
TET,TET,Chingozi Airport,,,,,,,,
TEZ,,,,,,,,,,
TFF,,,,,,,,,,
TFI,,,,,,,,,,
TFN,TFN,Tenerife Norte Airport,,,,,,,,
TFS,TFS,Tenerife South Airport,,,,,,,,
TGC,SBW,Tanjung Manis Airport,,,,,,,,
TGD,TGD,Podgorica Airport,,,,,,,,
TGG,TGG,Sultan Mahmud Airport,,,,,,,,
TGH,TGH,Tongoa Airport,,,,,,,,
TGI,,,,,,,,,,
TGJ,TGJ,Tiga Airport,,,,,,,,
TGM,TGM,Transilvania Trgu Mure International Airport,,,,,,,,
TGO,TGO,Tongliao Airport,,,,,,,,
TGP,,,,,,,,,,
TGR,TGR,Touggourt Sidi Madhi Airport,,,,,,,,
TGT,,,,,,,,,,
TGU,TGU,Toncontn International Airport,,,,,,,,
TGZ,TGZ,Angel Albino Corzo International Airport,,,,,,,,
THD,,,,,,,,,,
THE,THE,Senador Petrnio Portela Airport,,,,,,,,
THL,THL,Tachileik Airport,,,,,,,,
THN,,,,,,,,,,
THQ,DOY,Tianshui Maijishan Airport,,,,,,,,
THR,THR,Mehrabad International Airport,,,,,,,,
THS,THS,Sukhothai Airport,,,,,,,,
THU,THU,Thule Air Base Airport,,,,,,,,
THX,,,,,,,,,,
TIA,TIA,Tirana International Airport Nn Tereza,,,,,,,,
TID,TID,Bou Chekif Airport,,,,,,,,
TIF,TIF,Taif Airport,,,,,,,,
TIH,TIH,Tikehau Airport,,,,,,,,
TII,MZR,Tarin Kowt Airport,,,,,,,,
TIJ,TIJ,General Abelardo L Rodr-guez International Airport,,,,,,,,
TIM,TIM,Moses Kilangin Airport,,,,,,,,
TIN,TIN,Tindouf Airport,,,,,,,,
TIP,TIP,Tripoli International Airport,,,,,,,,
TIR,TIR,Tirupati Airport,,,,,,,,
TIU,TIU,Timaru Airport,,,,,,,,
TIV,TIV,Tivat Airport,,,,,,,,
TIZ,TIZ,Tari Airport,,,,,,,,
TJA,TJA,Capitan Oriel Lea Plaza Airport,,,,,,,,
TJK,,,,,,,,,,
TJL,,,,,,,,,,
TJM,TJM,Roshchino International Airport,,,,,,,,
TJN,,,,,,,,,,
TJQ,TJQ,Buluh Tumbang H A S Hanandjoeddin Airport,,,,,,,,
TJU,DYU,Kulob Airport,,,,,,,,
TKD,,,,,,,,,,
TKE,,,,,,,,,,
TKG,TKG,Radin Inten Ii Branti Airport,,,,,,,,
TKJ,,,,,,,,,,
TKK,TKK,Chuuk International Airport,,,,,,,,
TKN,,,,,,,,,,
TKP,TKP,Takapoto Airport,,,,,,,,
TKQ,TKQ,Kigoma Airport,,,,,,,,
TKS,TKS,Tokushima Airport,,,,,,,,
TKU,TKU,Turku Airport,,,,,,,,
TKV,MKP,Tatakoto Airport,,,,,,,,
TKX,TKX,Takaroa Airport,,,,,,,,
TLA,,,,,,,,,,
TLC,MEX,Lic Adolfo Lpez Mateos International Airport,,,,,,,,
TLE,TLE,Toliara Airport,,,,,,,,
TLH,TLH,Tallahassee Regional Airport,,,,,,,,
TLI,,,,,,,,,,
TLJ,TLJ,Tatalina Lrrs Airport,,,,,,,,
TLK,,,,,,,,,,
TLL,TLL,Tallinn Airport,,,,,,,,
TLM,TLM,Zenata Eur Messali El Hadj Airport,,,,,,,,
TLN,TLN,Toulon-hyres Airport,,,,,,,,
TLS,TLS,Toulouse-blagnac Airport,,,,,,,,
TLT,,,,,,,,,,
TLV,TLV,Ben Gurion Airport,,,,,,,,
TLY,,,,,,,,,,
TMC,TMC,Tambolaka Airport,,,,,,,,
TME,,,,,,,,,,
TMF,,,,,,,,,,
TMI,TMI,Tumling Tar Airport,,,,,,,,
TMJ,TMJ,Termez Airport,,,,,,,,
TML,,,,,,,,,,
TMM,TMM,Toamasina Airport,,,,,,,,
TMP,TMP,Tampere-pirkkala Airport,,,,,,,,
TMR,TMR,Aguenar Eur Hadj Bey Akhamok Airport,,,,,,,,
TMS,TMS,So Tomc International Airport,,,,,,,,
TMT,,,,,,,,,,
TMU,TMU,Tambor Airport,,,,,,,,
TMW,TMW,Tamworth Airport,,,,,,,,
TMX,TMX,Timimoun Airport,,,,,,,,
TNA,TNA,Yaoqiang Airport,,,,,,,,
TNC,SVW,Tin City Long Range Radar Station Airport,,,,,,,,
TNE,,,,,,,,,,
TNG,TNG,Tangier Ibn Battouta Airport,,,,,,,,
TNH,DLC,Tonghua Sanyuanpu Airport,,,,,,,,
TNJ,TNJ,Kijang Airport,,,,,,,,
TNK,,,,,,,,,,
TNN,TNN,Tainan Airport,,,,,,,,
TNO,TNO,Tamarindo De Santa Cruz Airport,,,,,,,,
TNR,TNR,Ivato International Airport,,,,,,,,
TOB,TOB,Gamal Abdel Nasser Airport,,,,,,,,
TOE,TOE,Tozeur Nefta International Airport,,,,,,,,
TOF,TOF,Bogashevo Airport,,,,,,,,
TOG,TOG,Togiak Airport,,,,,,,,
TOH,TOH,Torres Airstrip,,,,,,,,
TOL,TOL,Toledo Express Airport,,,,,,,,
TOS,TOS,Troms Airport,,,,,,,,
TOU,TOU,Touho Airport,,,,,,,,
TOY,TOY,Toyama Airport,,,,,,,,
TPA,TPA,Tampa International Airport,,,,,,,,
TPE,TPE,Taiwan Taoyuan International Airport,,,,,,,,
TPP,TPP,Cadete Fap Guillermo Del Castillo Paredes Airport,,,,,,,,
TPQ,TPQ,Amado Nervo National Airport,,,,,,,,
TPS,TPS,Trapani - Birgi Airport,,,,,,,,
TQA,,,,,,,,,,
TQI,,,,,,,,,,
TQL,SLY,Tarko-sale Airport,,,,,,,,
TQR,TQR,San Domino Island Heliport,,,,,,,,
TRA,,,,,,,,,,
TRC,TRC,Francisco Sarabia International Airport,,,,,,,,
TRD,TRD,Trondheim Airport,,,,,,,,
TRE,TRE,Tiree Airport,,,,,,,,
TRF,OSL,Sandefjord Airport,,,,,,,,
TRG,TRG,Tauranga Airport,,,,,,,,
TRI,TRI,Tri-cities Regional Airport,,,,,,,,
TRK,TRK,Juwata Airport,,,,,,,,
TRN,TRN,Turin Airport,,,,,,,,
TRO,,,,,,,,,,
TRR,RML,China Bay Airport,,,,,,,,
TRS,TRS,Trieste - Friuli Venezia Giulia Airport,,,,,,,,
TRU,TRU,Capitan Fap Carlos Martinez De Pinillos International Airport,,,,,,,,
TRV,TRV,Trivandrum International Airport,,,,,,,,
TRW,TRW,Bonriki International Airport,,,,,,,,
TRZ,TRZ,Tiruchirapally Civil Airport Airport,,,,,,,,
TSA,TPE,Taipei Songshan Airport,,,,,,,,
TSE,TSE,Astana International Airport,,,,,,,,
TSF,VCE,Treviso Airport,,,,,,,,
TSJ,TSJ,Tsushima Airport,,,,,,,,
TSN,TSN,Tianjin Binhai International Airport,,,,,,,,
TSR,TSR,Timioara Traian Vuia Airport,,,,,,,,
TST,TST,Trang Airport,,,,,,,,
TSV,TSV,Townsville Airport,,,,,,,,
TTA,TTA,Tan Tan Airport,,,,,,,,
TTE,TTE,Sultan Khairun Babullah Airport,,,,,,,,
TTJ,,,,,,,,,,
TTN,PHL,Trenton-mercer Airport,,,,,,,,
TTQ,TTQ,Aerotortuguero Airport,,,,,,,,
TTT,TTT,Taitung Airport,,,,,,,,
TTU,TTU,Saniat Rmel Airport,,,,,,,,
TUB,TUB,Tubuai Airport,,,,,,,,
TUC,TUC,Teniente Benjamin Matienzo Airport,,,,,,,,
TUF,,,,,,,,,,
TUG,TUG,Tuguegarao Airport,,,,,,,,
TUI,TUI,Turaif Domestic Airport,,,,,,,,
TUK,TUK,Turbat International Airport,,,,,,,,
TUL,TUL,Tulsa International Airport,,,,,,,,
TUN,TUN,Tunis-carthage International Airport,,,,,,,,
TUO,TUO,Taupo Airport,,,,,,,,
TUP,TUP,Tupelo Regional Airport,,,,,,,,
TUS,TUS,Tucson International Airport,,,,,,,,
TUU,TUU,Tabuk Airport,,,,,,,,
TVC,TVC,Cherry Capital Airport,,,,,,,,
TVF,TVF,Thief River Falls Regional Airport,,,,,,,,
TVS,YNO,Tangshan Sann 1-4 He Airport,,,,,,,,
TVU,TVU,Matei Airport,,,,,,,,
TVY,,,,,,,,,,
TWA,,,,,,,,,,
TWF,TWF,Magic Valley Regional Airport,,,,,,,,
TWT,,,,,,,,,,
TWU,TWU,Tawau Airport,,,,,,,,
TXF,,,,,,,,,,
TXK,TXK,Texarkana Regional Airport,,,,,,,,
TXL,BER,Berlin Tegel Airport,,,,,,,,
TXN,TXN,Tunxi International Airport,,,,,,,,
TYF,,,,,,,,,,
TYL,TYL,Capitan Montes Airport,,,,,,,,
TYN,TYN,Taiyuan Wusu Airport,,,,,,,,
TYR,TYR,Tyler Pounds Regional Airport,,,,,,,,
TYS,TYS,Mcghee Tyson Airport,,,,,,,,
TZA,BZE,Belize City Municipal Airport,,,,,,,,
TZL,SJJ,Tuzla International Airport,,,,,,,,
TZX,TZX,Trabzon International Airport,,,,,,,,
UAH,UAH,Ua Huka Airport,,,,,,,,
UAK,UAK,Narsarsuaq Airport,,,,,,,,
UAP,UAP,Ua Pou Airport,,,,,,,,
UAQ,UAQ,Domingo Faustino Sarmiento Airport,,,,,,,,
UAS,UAS,Samburu South Airport,,,,,,,,
UBA,UBA,Mrio De Almeida Franco Airport,,,,,,,,
UBJ,UBJ,Yamaguchi Ube Airport,,,,,,,,
UBP,UBP,Ubon Ratchathani Airport,,,,,,,,
UCT,UCT,Ukhta Airport,,,,,,,,
UDI,UDI,Ten Cel Aviador Ccsar Bombonato Airport,,,,,,,,
UDJ,,,,,,,,,,
UDR,UDR,Maharana Pratap Airport,,,,,,,,
UEL,UEL,Quelimane Airport,,,,,,,,
UEO,UEO,Kumejima Airport,,,,,,,,
UET,UET,Quetta International Airport,,,,,,,,
UFA,UFA,Ufa International Airport,,,,,,,,
UGB,OYG,Ugashik Bay Airport,,,,,,,,
UGC,UGC,Urgench Airport,,,,,,,,
UGI,,,,,,,,,,
UIB,UIB,El Carao Airport,,,,,,,,
UIH,UIH,Phu Cat Airport,,,,,,,,
UII,UII,Utila Airport,,,,,,,,
UIN,UIN,Quincy Regional Airport,,,,,,,,
UIO,UIO,Mariscal Sucre International Airport,,,,,,,,
UIP,UIP,Quimper - Cornouaille Airport,,,,,,,,
UKA,UAS,Ukunda Airstrip,,,,,,,,
UKB,OSA,Kobe Airport,,,,,,,,
UKG,,,,,,,,,,
UKK,UKK,Ust-kamennogorsk Airport,,,,,,,,
UKX,IKT,Ust-kut Airport,,,,,,,,
ULB,ULB,Ulci Airport,,,,,,,,
ULD,,,,,,,,,,
ULG,,,,,,,,,,
ULH,AMV,Majeed Bin Abdulaziz Airport,,,,,,,,
ULK,YKS,Lensk Airport,,,,,,,,
ULN,ULN,Chinggis Khaan International Airport,,,,,,,,
ULO,ULN,Ulaangom Airport,,,,,,,,
ULP,,,,,,,,,,
ULV,CSY,Ulyanovsk Baratayevka Airport,,,,,,,,
ULX,,,,,,,,,,
ULZ,UYN,Donoi Airport,,,,,,,,
UMD,JHS,Uummannaq Heliport,,,,,,,,
UME,UME,Ume Airport,,,,,,,,
UMS,,,,,,,,,,
UND,UND,Konduz Airport,,,,,,,,
UNG,UNG,Kiunga Airport,,,,,,,,
UNK,ATK,Unalakleet Airport,,,,,,,,
UNN,UNN,Ranong Airport,,,,,,,,
UOA,,,,,,,,,,
UOL,,,,,,,,,,
UPG,UPG,Sultan Hasanuddin Airport,,,,,,,,
UPK,KUS,Upernavik Kujalleq Heliport,,,,,,,,
UPN,UPN,Licenciado Y General Ignacio Lopez Rayon Airport,,,,,,,,
URA,URA,Uralsk Airport,,,,,,,,
URC,URC,Oer 1-4 Mqi Diwopu International Airport,,,,,,,,
URE,,,,,,,,,,
URG,URG,Rubem Berta Airport,,,,,,,,
URJ,URJ,Uray Airport,,,,,,,,
URS,URS,Kursk East Airport,,,,,,,,
URT,URT,Surat Thani Airport,,,,,,,,
URY,URY,Guriat Domestic Airport,,,,,,,,
USH,USH,Malvinas Argentinas Airport,,,,,,,,
USK,USK,Usinsk Airport,,,,,,,,
USM,USM,Samui Airport,,,,,,,,
USN,USN,Ulsan Airport,,,,,,,,
USQ,,,,,,,,,,
USR,,,,,,,,,,
UST,,,,,,,,,,
USU,USU,Francisco B Reyes Airport,,,,,,,,
UTH,UTH,Udon Thani Airport,,,,,,,,
UTN,UTN,Pierre Van Ryneveld Airport,,,,,,,,
UTO,,,,,,,,,,
UTP,UTP,U-tapao International Airport,,,,,,,,
UTT,UTT,Mthatha Airport,,,,,,,,
UUD,UUD,Ulan-ude Airport Mukhino,,,,,,,,
UUS,UUS,Yuzhno-sakhalinsk Airport,,,,,,,,
UVE,UVE,Ouvca Airport,,,,,,,,
UVF,SLU,Hewanorra International Airport,,,,,,,,
UYL,UYL,Nyala Airport,,,,,,,,
UYN,UYN,Yulin Airport,,,,,,,,
UYU,,,,,,,,,,
VAA,VAA,Vaasa Airport,,,,,,,,
VAG,,,,,,,,,,
VAI,RAB,Vanimo Airport,,,,,,,,
VAK,VAK,Chevak Airport,,,,,,,,
VAM,KDM,Villa Airport,,,,,,,,
VAN,,,,,,,,,,
VAO,VAO,Suavanao Airport,,,,,,,,
VAR,VAR,Varna Airport,,,,,,,,
VAS,,,,,,,,,,
VAV,,,,,,,,,,
VAW,,,,,,,,,,
VBA,,,,,,,,,,
VBP,,,,,,,,,,
VBS,,,,,,,,,,
VBV,VBV,Vanua Balavu Airport,,,,,,,,
VBY,VBY,Visby Airport,,,,,,,,
VCA,VCA,Tr Nc Airport,,,,,,,,
VCE,VCE,Venice Marco Polo Airport,,,,,,,,
VCL,VCL,Chu Lai International Airport,,,,,,,,
VCP,SAO,Viracopos International Airport,,,,,,,,
VCS,VCS,Co Ong Airport,,,,,,,,
VCT,VCT,Victoria Regional Airport,,,,,,,,
VCV,VCT,Southern California Logistics Airport,,,,,,,,
VDA,VDA,Ovda Airport,,,,,,,,
VDC,PVH,Vitria Da Conquista Airport,,,,,,,,
VDE,VDE,Hierro Airport,,,,,,,,
VDH,MFM,Dong Hoi Airport,,,,,,,,
VDM,VDM,Gobernador Castello Airport,,,,,,,,
VDS,VDS,Vads Airport,,,,,,,,
VDZ,VDZ,Valdez Airport,,,,,,,,
VEE,,,,,,,,,,
VEL,VEL,Vernal Regional Airport,,,,,,,,
VER,VER,General Heriberto Jara International Airport,,,,,,,,
VFA,VFA,Victoria Falls Airport,,,,,,,,
VGA,VGA,Vijayawada Airport,,,,,,,,
VGO,VGO,Vigo-peinador Airport,,,,,,,,
VGZ,,,,,,,,,,
VHC,,,,,,,,,,
VHM,VHM,Vilhelmina Airport,,,,,,,,
VHV,,,,,,,,,,
VHZ,RFP,Vahitahi Airport,,,,,,,,
VIE,VIE,Vienna International Airport,,,,,,,,
VIF,,,,,,,,,,
VIG,VLN,Juan Pablo Pcrez Alfonso Airport,,,,,,,,
VII,VII,Vinh Airport,,,,,,,,
VIJ,VIJ,Virgin Gorda Airport,,,,,,,,
VIL,VIL,Dakhla Airport,,,,,,,,
VIR,DUR,Virginia Airport,,,,,,,,
VIT,VIT,Vitoria-foronda Airport,,,,,,,,
VIX,VIX,Eurico De Aguiar Salles Airport,,,,,,,,
VKG,VKG,Rach Gia Airport,,,,,,,,
VKO,MOW,Vnukovo International Airport,,,,,,,,
VKT,VKT,Vorkuta Airport,,,,,,,,
VLC,VLC,Valencia Airport,,,,,,,,
VLD,VLD,Valdosta Regional Airport,,,,,,,,
VLI,VLI,Bauerfield International Airport,,,,,,,,
VLL,VLL,Valladolid Airport,,,,,,,,
VLN,VLN,Arturo Michelena International Airport,,,,,,,,
VLS,VLS,Valesdir Airport,,,,,,,,
VLV,VLV,Dr Antonio Nicols Briceo Airport,,,,,,,,
VNO,VNO,Vilnius Airport,,,,,,,,
VNS,VNS,Lal Bahadur Shastri Airport,,,,,,,,
VNX,VNX,Vilankulo Airport,,,,,,,,
VOG,VOG,Volgograd International Airport,,,,,,,,
VOL,VOL,Nea Anchialos Airport,,,,,,,,
VOZ,VOZ,Voronezh International Airport,,,,,,,,
VPE,,,,,,,,,,
VPG,,,,,,,,,,
VPS,VPS,Northwest Florida Regional Airport,,,,,,,,
VPY,VPY,Chimoio Airport,,,,,,,,
VQS,VQS,Antonio Rivera Rodriguez Airport,,,,,,,,
VRA,VRA,Juan Gualberto Gomez International Airport,,,,,,,,
VRB,,,,,,,,,,
VRC,VRC,Virac Airport,,,,,,,,
VRN,VRN,Verona Villafranca Airport,,,,,,,,
VRY,,,,,,,,,,
VSA,VSA,Carlos Rovirosa Pcrez International Airport,,,,,,,,
VST,,,,,,,,,,
VTE,VTE,Wattay International Airport,,,,,,,,
VTU,,,,,,,,,,
VTZ,VTZ,Vishakhapatnam Airport,,,,,,,,
VUP,VUP,Alfonso Lpez Pumarejo Airport,,,,,,,,
VUS,,,,,,,,,,
VUU,,,,,,,,,,
VVC,VVC,Vanguardia Airport,,,,,,,,
VVI,VVI,Viru Viru International Airport,,,,,,,,
VVO,VVO,Vladivostok International Airport,,,,,,,,
VVZ,VVZ,Illizi Takhamalt Airport,,,,,,,,
VXC,VXC,Lichinga Airport,,,,,,,,
VXE,VXE,So Pedro Airport,,,,,,,,
VXO,VXO,Vxj Smland Airport,,,,,,,,
VYI,,,,,,,,,,
WAA,ILI,Wales Airport,,,,,,,,
WAE,TUI,Wadi Al Dawasir Airport,,,,,,,,
WAG,WAG,Wanganui Airport,,,,,,,,
WAT,WAT,Waterford Airport,,,,,,,,
WAW,WAW,Warsaw Chopin Airport,,,,,,,,
WBB,KDI,Stebbins Airport,,,,,,,,
WBM,RAB,Wapenamanda Airport,,,,,,,,
WBQ,,,,,,,,,,
WDH,WDH,Hosea Kutako International Airport,,,,,,,,
WDS,,,,,,,,,,
WEF,WEF,Weifang Airport,,,,,,,,
WEH,WEH,Weihai Airport,,,,,,,,
WEI,WEI,Weipa Airport,,,,,,,,
WGA,WGA,Wagga Wagga Airport,,,,,,,,
WGP,,,,,,,,,,
WIC,WIC,Wick Airport,,,,,,,,
WIL,NBO,Wilson Airport Kenya,,,,,,,,
WIN,,,,,,,,,,
WJR,,,,,,,,,,
WJU,WJU,Wonju Airport,,,,,,,,
WKJ,,,,,,,,,,
WKK,WKK,Aleknagik - New Airport,,,,,,,,
WLE,,,,,,,,,,
WLG,WLG,Wellington International Airport,,,,,,,,
WLH,WLH,Walaha Airport,,,,,,,,
WLK,SIT,Selawik Airport,,,,,,,,
WLP,,,,,,,,,,
WLS,,,,,,,,,,
WMB,,,,,,,,,,
WMK,WKK,Meyers Chuck Seaplane Base,,,,,,,,
WMN,WMN,Maroantsetra Airport,,,,,,,,
WMO,WRG,White Mountain Airport,,,,,,,,
WMX,WMX,Wamena Airport,,,,,,,,
WNA,,,,,,,,,,
WNH,,,,,,,,,,
WNN,WNN,Wunnumin Lake Airport,,,,,,,,
WNP,WNP,Naga Airport,,,,,,,,
WNR,,,,,,,,,,
WNZ,WNZ,Wenzhou Yongqiang Airport,,,,,,,,
WRE,WRE,Whangarei Airport,,,,,,,,
WRG,WRG,Wrangell Airport,,,,,,,,
WRL,WRL,Worland Municipal Airport,,,,,,,,
WRO,WRO,Wrocaw-copernicus Airport,,,,,,,,
WRY,,,,,,,,,,
WSN,AET,South Naknek Nr 2 Airport,,,,,,,,
WSX,,,,,,,,,,
WSZ,WSZ,Westport Airport,,,,,,,,
WTB,,,,,,,,,,
WTK,WTK,Noatak Airport,,,,,,,,
WTL,WKK,Tuntutuliak Airport,,,,,,,,
WUA,TGO,Wuhai Airport,,,,,,,,
WUH,WUH,Wuhan Tianhe International Airport,,,,,,,,
WUS,WUS,Nanping Wuyishan Airport,,,,,,,,
WUT,,,,,,,,,,
WUX,WUX,Sunan Shuofang International Airport,,,,,,,,
WUZ,WUZ,Changzhoudao Airport,,,,,,,,
WVB,WVB,Walvis Bay Airport,,,,,,,,
WWK,WWK,Wewak International Airport,,,,,,,,
WWP,WKK,North Whale Seaplane Base,,,,,,,,
WWT,SIN,Newtok Seaplane Base,,,,,,,,
WXN,WXN,Wanxian Airport,,,,,,,,
WYA,,,,,,,,,,
WYS,WST,Yellowstone Airport,,,,,,,,
XAP,XAP,Chapec Airport,,,,,,,,
XBE,XBE,Bearskin Lake Airport,,,,,,,,
XBJ,XBJ,Birjand Airport,,,,,,,,
XCH,XCH,Christmas Island Airport,,,,,,,,
XCR,PAR,Chlons Vatry Airport,,,,,,,,
XEQ,,,,,,,,,,
XFN,XFN,Xiangfan Airport,,,,,,,,
XFW,HAM,Hamburg Finkenwerder Airport,,,,,,,,
XGR,XGR,Kangiqsualujjuaq Georges River Airport,,,,,,,,
XIC,XIC,Xichang Qingshan Airport,,,,,,,,
XIL,XIL,Xilinhot Airport,,,,,,,,
XIQ,JGO,Ilimanaq Heliport,,,,,,,,
XIY,XIY,Xian Xianyang International Airport,,,,,,,,
XJD,DOH,Al Udeid Air Base,,,,,,,,
XKH,XKH,Xieng Khouang Airport,,,,,,,,
XKS,XKS,Kasabonika Airport,,,,,,,,
XLB,,,,,,,,,,
XMH,XMH,Manihi Airport,,,,,,,,
XMN,XMN,Xiamen Gaoqi International Airport,,,,,,,,
XNA,XNA,Northwest Arkansas Regional Airport,,,,,,,,
XNB,,,,,,,,,,
XNN,XNN,Xining Caojiabu Airport,,,,,,,,
XQP,XQP,Quepos Managua Airport,,,,,,,,
XQU,,,,,,,,,,
XRY,XRY,Jerez Airport,,,,,,,,
XSB,,,,,,,,,,
XSC,XSC,South Caicos Airport,,,,,,,,
XSI,,,,,,,,,,
XTG,,,,,,,,,,
XTL,,,,,,,,,,
XUZ,XUZ,Xuzhou Guanyin Airport,,,,,,,,
YAA,YAA,Anahim Lake Airport,,,,,,,,
YAB,,,,,,,,,,
YAC,YAC,Cat Lake Airport,,,,,,,,
YAG,YAG,Fort Frances Municipal Airport,,,,,,,,
YAK,YAK,Yakutat Airport,,,,,,,,
YAM,YAM,Sault Ste Marie Airport,,,,,,,,
YAP,YAP,Yap International Airport,,,,,,,,
YAT,YAT,Attawapiskat Airport,,,,,,,,
YAX,YAX,Wapekeka Airport,,,,,,,,
YAY,YAY,St Anthony Airport,,,,,,,,
YAZ,,,,,,,,,,
YBB,YBB,Kugaaruk Airport,,,,,,,,
YBC,YBC,Baie-comeau Airport,,,,,,,,
YBG,YBG,Canadian Forces Base Cfb Bagotville,,,,,,,,
YBK,YBK,Baker Lake Airport,,,,,,,,
YBL,YBL,Campbell River Airport,,,,,,,,
YBP,YBP,Yibin Caiba Airport,,,,,,,,
YBR,YBR,Brandon Municipal Airport,,,,,,,,
YBT,,,,,,,,,,
YBV,YBR,Berens River Airport,,,,,,,,
YBX,YBX,Lourdes De Blanc Sablon Airport,,,,,,,,
YCB,YCB,Cambridge Bay Airport,,,,,,,,
YCD,YCD,Nanaimo Airport,,,,,,NA,,
YCG,YCG,West Kootenay Regional Airport,,,,,,,,
YCK,,,,,,,,,,
YCL,YCG,Charlo Airport,,,,,,,,
YCO,YCO,Kugluktuk Airport,,,,,,,,
YCR,,,,,,,,,,
YCS,YCS,Chesterfield Inlet Airport,,,,,,,,
YCU,XIL,Yuncheng Guangong Airport,,,,,,,,
YCY,YCY,Clyde River Airport,,,,,,,,
YDA,,,,,,,,,,
YDF,YDF,Deer Lake Airport,,,,,,,,
YDP,YDP,Nain Airport,,,,,,,,
YDQ,YDQ,Dawson Creek Airport,,,,,,,,
YEG,YEG,Edmonton International Airport,,,,,,,,
YEI,YEI,Bursa Yeniehir Airport,,,,,,,,
YEK,YEK,Arviat Airport,,,,,,,,
YER,YER,Fort Severn Airport,,,,,,,,
YEV,YEV,Inuvik Mike Zubko Airport,,,,,,,,
YFA,YFA,Fort Albany Airport,,,,,,,,
YFB,YFB,Iqaluit Airport,,,,,,,,
YFC,YFC,Fredericton International Airport,,,,,,,,
YFH,YFH,Fort Hope Airport,,,,,,,,
YFJ,,,,,,,,,,
YFO,YFO,Flin Flon Airport,,,,,,,,
YFS,YFS,Fort Simpson Airport,,,,,,,,
YGB,,,,,,,,,,
YGH,,,,,,,,,,
YGJ,YGJ,Miho Yonago Airport,,,,,,,,
YGK,YGK,Kingston-norman Rogers Airport,,,,,,,,
YGL,YGL,La Grande Rivire Airport,,,,,,,,
YGO,,,,,,,,,,
YGP,YGP,Gaspc Michel-pouliot Airport,,,,,,,,
YGR,YGR,Les-de-la-madeleine Airport,,,,,,,,
YGT,YGT,Igloolik Airport,,,,,,,,
YGW,YGW,Kuujjuarapik Airport,,,,,,,,
YGX,YGW,Gillam Airport,,,,,,,,
YGZ,YGZ,Grise Fiord Airport,,,,,,,,
YHD,YHD,Dryden Regional Airport,,,,,,,,
YHI,YHI,Ulukhaktok-holman Airport,,,,,,,,
YHK,YHK,Gjoa Haven Airport,,,,,,,,
YHM,YTO,John C Munro Hamilton International Airport,,,,,,info@flyhamilton.ca,,
YHO,YHO,Hopedale Airport,,,,,,,,
YHP,YHP,Poplar Hill Airport,,,,,,,,
YHR,YHR,Chevery Airport,,,,,,,,
YHU,YMQ,Montreal-saint-hubert Airport,,,,,,,,
YHY,YHY,Hay River-merlyn Carter Airport,,,,,,,,
YHZ,YHZ,Halifax Stanfield International Airport,,,,,,,,
YIC,,,,,,,,,,
YIE,,,,,,,,,,
YIF,YIF,St Augustin Airport,,,,,,,,
YIH,YIH,Yichang Airport,,,,,,,,
YIK,YIK,Ivujivik Airport,,,,,,,,
YIN,YIN,Yining Airport,,,,,,,,
YIO,YIO,Pond Inlet Airport,,,,,,,,
YIV,,,,,,,,,,
YIW,YIW,Yiwu Airport,,,,,,,,
YJT,YJT,Stephenville Airport,,,,,,,,
YKA,YKA,Kamloops Airport,,,,,,,,
YKF,YTO,Region Of Waterloo International Airport,,,,,,,,
YKG,YKG,Kangirsuk Airport,,,,,,,,
YKH,,,,,,,,,,
YKL,YKL,Schefferville Airport,,,,,,,,
YKM,YKM,Yakima Air Terminal - Mcallister Field Airport,,,,,,,,
YKO,,,,,,,,,,
YKQ,YKQ,Waskaganish Airport,,,,,,,,
YKS,YKS,Yakutsk Airport,,,,,,,,
YKU,YKU,Chisasibi Airport,,,,,,,,
YLC,YLC,Kimmirut Airport,,,,,,,,
YLE,YCK,What Airport,,,,,,,,
YLH,YLH,Lansdowne House Airport,,,,,,,,
YLL,YLL,Lloydminster Airport,,,,,,,,
YLW,YLW,Kelowna International Airport,,,,,,,,
YMK,SLY,Mys Kamenny Airport,,,,,,,,
YMM,YMM,Fort Mcmurray Airport,,,,,,,,
YMN,YMN,Makkovik Airport,,,,,,,,
YMO,YMO,Moosonee Airport,,,,,,,,
YMT,YMT,Chibougamau-chapais Airport,,,,,,,,
YNA,YNA,Natashquan Airport,,,,,,,,
YNB,YNB,Yenbo Airport,,,,,,,,
YNC,YNC,Wemindji Airport,,,,,,,,
YNE,,,,,,,,,,
YNJ,YNJ,Yanji Chaoyangchuan Airport,,,,,,,,
YNO,YNO,North Spirit Lake Airport,,,,,,,,
YNP,,,,,,,,,,
YNS,YNS,Nemiscau Airport,,,,,,,,
YNT,YNT,Yantai Laishan Airport,,,,,,,,
YNZ,YNZ,Yancheng Airport,,,,,,,,
YOC,,,,,,,,,,
YOH,,,,,,,,,,
YOJ,YOJ,High Level Airport,,,,,,,,
YOL,YOL,Yola Airport,,,,,,,,
YOP,YOP,Rainbow Lake Airport,,,,,,,,
YOW,YOW,Ottawa Macdonald-cartier International Airport,,,,,,,,
YPB,,,,,,,,,,
YPC,YPC,Paulatuk Nora Aliqatchialuk Ruben Airport,,,,,,,,
YPH,YPH,Inukjuak Airport,,,,,,,,
YPJ,YPJ,Aupaluk Airport,,,,,,,,
YPL,YPL,Pickle Lake Airport,,,,,,,,
YPM,YPM,Pikangikum Airport,,,,,,,,
YPO,YPO,Peawanuck Airport,,,,,,,,
YPR,YPR,Prince Rupert Airport,,,,,,,,
YPW,YPW,Powell River Airport,,,,,,,,
YPX,YPX,Puvirnituq Airport,,,,,,,,
YPY,,,,,,,,,,
YQB,YQB,Qubec City Jean Lesage International Airport,,,,,,,,
YQC,YQC,Quaqtaq Airport,,,,,,,,
YQD,YQD,The Pas Airport,,,,,,,,
YQF,YQF,Red Deer Regional Airport,,,,,,,,
YQG,YQG,Windsor Airport,,,,,,,,
YQK,YQK,Kenora Airport,,,,,,,,
YQL,YQL,Lethbridge Airport,,,,,,,,
YQM,YQM,Greater Moncton International Airport,,,,,,,,
YQQ,YQQ,Cfb Comox Airport,,,,,,,,
YQR,YQR,Regina International Airport,,,,,,,,
YQT,YQT,Thunder Bay International Airport,,,,,,,,
YQU,YQU,Grande Prairie Airport,,,,,,,,
YQX,YQX,Gander International Airport,,,,,,,,
YQY,YQY,Sydney-ja Douglas Mccurdy Airport,,,,,,,,
YQZ,YQZ,Quesnel Airport,,,,,,,,
YRA,YQZ,Rae Lakes Airport,,,,,,,,
YRB,YRB,Resolute Bay Airport,,,,,,,,
YRG,YRG,Rigolet Airport,,,,,,,,
YRL,YRL,Red Lake Airport,,,,,,,,
YRS,,,,,,,,,,
YRT,YRT,Rankin Inlet Airport,,,,,,,,
YSB,YSB,Sudbury Airport,,,,,,,,
YSG,YSG,Lutselke Airport,,,,,,,,
YSJ,YSJ,Saint John Airport,,,,,,,,
YSK,YSK,Sanikiluaq Airport,,,,,,,,
YSM,YSM,Fort Smith Airport,,,,,,,,
YSO,,,,,,,,,,
YST,,,,,,,,,,
YSY,YSY,Sachs Harbour David Nasogaluak Jr Saaryuaq Airport,,,,,,,,
YTE,YTE,Cape Dorset Airport,,,,,,,,
YTH,YTH,Thompson Airport,,,,,,,,
YTL,YTL,Big Trout Lake Airport,,,,,,,,
YTM,,,,,,,,,,
YTQ,YTQ,Tasiujaq Airport,,,,,,,,
YTS,YTS,Timmins-victor M Power Airport,,,,,,,,
YTY,,,,,,,,,,
YTZ,YTO,Billy Bishop Toronto City Airport,,,,,,,,
YUB,YUB,Tuktoyaktuk Airport,,,,,,,,
YUD,YUD,Umiujaq Airport,,,,,,,,
YUL,YMQ,Montreal-pierre Elliott Trudeau International Airport,,,,,,,,
YUM,YUM,Yuma International Airport,,,,,,,,
YUS,JNZ,Yushu Batang Airport,,,,,,,,
YUT,YUT,Repulse Bay Airport,,,,,,,,
YUX,YUX,Hall Beach Airport,,,,,,,,
YUY,YUY,Rouyn-noranda Airport,,,,,,,,
YVB,YVB,Bonaventure Airport,,,,,,,,
YVM,YVM,Qikiqtarjuaq Airport,,,,,,,,
YVO,YVO,Val-dor Airport,,,,,,,,
YVP,YVP,Kuujjuaq Airport,,,,,,,,
YVQ,YVQ,Norman Wells Airport,,,,,,,,
YVR,YVR,Vancouver International Airport,,,,,,,,
YVZ,YVZ,Deer Lake Airport,,,,,,,,
YWB,YKF,Kangiqsujuaq Wakeham Bay Airport,,,,,,,,
YWG,YWG,Winnipeg James Armstrong Richardson International Airport,,,,,,,,
YWH,YYJ,Victoria Inner Harbour Airport,,,,,,,,
YWJ,,,,,,,,,,
YWK,YWK,Wabush Airport,,,,,,,,
YWL,YWL,Williams Lake Airport,,,,,,,,
YWP,YWP,Webequie Airport,,,,,,,,
YXC,YXC,Cranbrook Airport,,,,,,,,
YXE,YXE,Saskatoon John G Diefenbaker International Airport,,,,,,,,
YXH,YXH,Medicine Hat Airport,,,,,,,,
YXJ,YXJ,Fort St John Airport,,,,,,,,
YXL,YXL,Sioux Lookout Airport,,,,,,,,
YXN,YXN,Whale Cove Airport,,,,,,,,
YXP,YXP,Pangnirtung Airport,,,,,,,,
YXS,YXS,Prince George Airport,,,,,,,,
YXT,YXT,Northwest Regional Airport,,,,,,,,
YXU,YXU,London International Airport,,,,,,,,
YXX,YXX,Abbotsford International Airport,,,,,,,,
YXY,YXY,Erik Nielsen Whitehorse International Airport,,,,,,,,
YYB,YYB,North Bay-jack Garland Airport,,,,,,,,
YYC,YYC,Calgary International Airport,,,,,,,,
YYD,YYD,Smithers Airport,,,,,,,,
YYE,YYE,Fort Nelson Airport,,,,,,,,
YYF,YYF,Penticton Regional Airport,,,,,,,,
YYG,YYG,Charlottetown Airport,,,,,,,,
YYH,YYH,Taloyoak Airport,,,,,,,,
YYJ,YYJ,Victoria International Airport,,,,,,,,
YYQ,YYQ,Churchill Airport,,,,,,,,
YYR,YYR,Cfb Goose Bay Airport,,,,,,,,
YYT,YYT,St Johns International Airport,,,,,,,,
YYU,YYU,Kapuskasing Airport,,,,,,,,
YYY,YYY,Mont-joli Airport,,,,,,,,
YYZ,YTO,Toronto Pearson International Airport,,,,,,,,
YZF,YZF,Yellowknife Airport,,,,,,,,
YZG,YZG,Salluit Airport,,,,,,,,
YZP,YZP,Sandspit Airport,,,,,,,,
YZR,YZR,Sarnia Chris Hadfield Airport,,,,,,,,
YZS,YZS,Coral Harbour Airport,,,,,,,,
YZT,YZT,Port Hardy Airport,,,,,,,,
YZV,YZV,Sept-les Airport,,,,,,,,
YZY,DOY,Zhangye Southeast Air Base,,,,,,,,
YZZ,SPR,Trail Airport,,,,,,,,
ZAC,,,,,,,,,,
ZAD,ZAD,Zemunik Airport,,,,,,,,
ZAG,ZAG,Zagreb Airport,,,,,,,,
ZAH,ZAH,Zahedan International Airport,,,,,,,,
ZAJ,UND,Zaranj Airport,,,,,,,,
ZAL,ZAL,Pichoy Airport,,,,,,,,
ZAM,ZAM,Zamboanga International Airport,,,,,,,,
ZAT,ZAT,Zhaotong Airport,,,,,,,,
ZAZ,ZAZ,Zaragoza Air Base,,,,,,,,
ZBF,ZBF,Bathurst Airport,,,,,,,,
ZBL,,,,,,,,,,
ZBR,ZBR,Konarak Airport,,,,,,,,
ZCL,ZCL,General Leobardo C Ruiz International Airport,,,,,,,,
ZCO,ZCO,Maquehue Airport,,,,,,,,
ZEL,YIV,Denny Island Airport,,,,,,,,
ZEM,ZEM,Eastmain River Airport,,,,,,,,
ZFM,ZFM,Fort Mcpherson Airport,,,,,,,,
ZFN,,,,,,,,,,
ZGI,,,,,,,,,,
ZGS,,,,,,,,,,
ZGU,ZGU,Gaua Island Airport,,,,,,,,
ZHA,ZHA,Zhanjiang Airport,,,,,,,,
ZHY,UYN,Zhongwei Shapotou Airport,,,,,,,,
ZIG,,,,,,,,,,
ZIH,ZIH,Ixtapa-zihuatanejo International Airport,,,,,,,,
ZIX,,,,,,,,,,
ZKE,ZKE,Kashechewan Airport,,,,,,,,
ZKG,YKU,Kegaska Airport,,,,,,,,
ZKP,,,,,,,,,,
ZLO,ZLO,Playa De Oro International Airport,,,,,,,,
ZLT,YKU,La Tabatire Airport,,,,,,,,
ZMT,ZMT,Masset Airport,,,,,,,,
ZNA,YCD,Nanaimo Harbour Water Airport,,,,,,,,
ZND,,,,,,,,,,
ZNE,ZNE,Newman Airport,,,,,,,,
ZNZ,ZNZ,Abeid Amani Karume International Airport,,,,,,,,
ZOS,ZOS,Caal Bajo Carlos Hott Siebert Airport,,,,,,,,
ZPB,ZPB,Sachigo Lake Airport,,,,,,,,
ZQN,ZQN,Queenstown International Airport,,,,,,,,
ZQZ,YNO,Zhangjiakou Ningyuan Airport,,,,,,,,
ZRH,ZRH,Zurich Airport,,,,,,,,
ZRJ,ZRJ,Round Lake Weagamow Lake Airport,,,,,,,,
ZSA,ZSA,San Salvador Airport,,,,,,,,
ZSE,ZSE,Pierrefonds Airport,,,,,,,,
ZSJ,ZSJ,Sandy Lake Airport,,,,,,,,
ZTA,MVT,Tureia Airport,,,,,,,,
ZTB,YKU,Tte- -la-baleine Airport,,,,,,,,
ZTH,ZTH,Zakynthos International Airport,,,,,,,,
ZTM,,,,,,,,,,
ZUH,ZUH,Zhuhai Airport,,,,,,,,
ZUM,ZUM,Churchill Falls Airport,,,,,,,,
ZVK,ZVK,Savannakhet Airport,,,,,,,,
ZYI,YBP,Zunyi Xinzhou Airport,,,,,,,,
ZYL,ZYL,Osmany International Airport,,,,,,,,
AAD,,,,,,,,,,
AAK,,,,,,,,,,
ABF,,,,,,,,,,
ABK,ABK,Kabri Dehar Airport,,,,,,,,
ACR,,,,,,,,,,
ACZ,,,,,,,,,,
AEA,,,,,,,,,,
AEG,,,,,,,,,,
AEU,,,,,,,,,,
AFZ,,,,,,,,,,
AIS,,,,,,,,,,
AJK,,,,,,,,,,
AKR,,,,,,,,,,
AKS,AKS,Auki Airport,,,,,,,,
ANA,,,,,,,,,,
ATY,ATY,Watertown Regional Airport,,,,,,,,
AXJ,,,,,,,,,,
AZA,PHX,Phoenix-mesa Gateway Airport,,,,,,,,
BAR,,,,,,,,,,
BBG,,,,,,,,,,
BCU,,,,,,,,,,
BEZ,,,,,,,,,,
BGC,,,,,,,,,,
BHU,BHU,Bhavnagar Airport,,,,,,,,
BJB,,,,,,,,,,
BKB,,,,,,,,,,
BPG,,,,,,,,,,
BQG,,,,,,,,,,
BQH,,,,,,,,,,
BTW,,,,,,,,,,
BUP,,,,,,,,,,
BUT,,,,,,,,,,
BXH,,,,,,,,,,
BXY,,,,,,,,,,
BYC,BYC,Yacuiba Airport,,,,,,,,
BZK,BZK,Bryansk Airport,,,,,,,,
CAT,,,,,,,,,,
CBL,,,,,,,,,,
CCA,,,,,,,,,,
CCR,,,,,,,,,,
CDE,,,,,,,,,,
CLD,SAN,Mcclellan-palomar Airport,,,,,,,,
COG,,,,,,,,,,
CSH,,,,,,,,,,
CTD,,,,,,,,,,
CUA,,,,,,,,,,
CVN,CVN,Clovis Municipal Airport-cvn,,,,,,,,
CVQ,,,,,,,,,,
CWC,,,,,,,,,,
CWJ,,,,,,,,,,
CYI,,,,,,,,,,
CYU,,,,,,,,,,
CZN,,,,,,,,,,
DBC,,,,,,,,,,
DDD,,,,,,,,,,
DEX,,,,,,,,,,
DGE,,,,,,,,,,
DJN,,,,,,,,,,
DSS,,,,,,,,,,
DQM,,,,,,,,,,
DRT,,,,,,,,,,
EBD,EBD,El Obeid Airport,,,,,,,,
FYN,,,,,,,,,,
GEL,GEL,Santo Ngelo Airport,,,,,,,,
GGR,,,,,,,,,,
GLU,,,,,,,,,,
GMQ,,,,,,,,,,
GTZ,,,,,,,,,,
GUB,,,,,,,,,,
GUO,,,,,,,,,,
GYM,,,,,,,,,,
HBX,HBX,Hubli Airport,,,,,,,,
HDM,,,,,,,,,,
HFA,HFA,Haifa International Airport,,,,,,,,
HIM,,,,,,,,,,
HLE,,,,,,,,,,
HOE,,,,,,,,,,
HTT,,,,,,,,,,
HUO,,,,,,,,,,
IFP,IFP,Laughlin-bullhead International Airport,,,,,,,,
IHR,,,,,,,,,,
IIL,,,,,,,,,,
INA,,,,,,,,,,
IPI,,,,,,,,,,
IPL,IPL,Imperial County Airport,,,,,,,,
IQM,,,,,,,,,,
IVR,,,,,,,,,,
IXY,,,,,,,,,,
IYK,IYK,Inyokern Airport,,,,,,,,
IZT,,,,,,,,,,
JIN,,,,,,,,,,
JJD,,,,,,,,,,
JJM,,,,,,,,,,
JMJ,,,,,,,,,,
JWN,,,,,,,,,,
KAC,,,,,,,,,,
KBH,,,,,,,,,,
KBZ,,,,,,,,,,
KEU,,,,,,,,,,
KHY,,,,,,,,,,
KKS,,,,,,,,,,
KLB,,,,,,,,,,
KOM,,,,,,,,,,
KPO,KPO,Pohang Airport,,,,,,,,
KPW,,,,,,,,,,
KRC,,,,,,,,,,
KSL,,,,,,,,,,
KSZ,,,,,,,,,,
KTJ,,,,,,,,,,
KUC,,,,,,,,,,
KXK,,,,,,,,,,
LAH,,,,,,,,,,
LAJ,,,,,,,,,,
LBG,,,,,,,,,,
LCR,,,,,,,,,,
LDY,LDY,City Of Derry Airport,,,,,,,,
LFM,,,,,,,,,,
LLO,,,,,,,,,,
LMC,,,,,,,,,,
LNO,,,,,,,,,,
LOV,,,,,,,,,,
LOY,,,,,,,,,,
LPD,,,,,,,,,,
LPX,,,,,,,,,,
LTI,UYN,Altai Airport,,,,,,,,
LVO,,,,,,,,,,
LYN,,,,,,,,,,
LZN,,,,,,,,,,
MCN,MCN,Middle Georgia Regional Airport,,,,,,,,
MFK,,,,,,,,,,
MIU,MIU,Maiduguri International Airport,,,,,,,,
MJK,,,,,,,,,,
MKR,,,,,,,,,,
MMG,,,,,,,,,,
MNK,,,,,,,,,,
MRQ,,,,,,,,,,
MTK,,,,,,,,,,
MWK,,,,,,,,,,
MZK,,,,,,,,,,
NAA,,,,,,,,,,
NBW,GAO,Guantanamo Bay Naval Base Airport,,,,,,,,
NEU,,,,,,,,,,
NGK,,,,,,,,,,
NGL,,,,,,,,,,
NIG,,,,,,,,,,
NON,,,,,,,,,,
NRE,,,,,,,,,,
NRN,DUS,Weeze Airport,,,,,,,,
NSH,,,,,,,,,,
NUF,,,,,,,,,,
NZL,,,,,,,,,,
OLP,OLP,Olympic Dam Airport,,,,,,,,
OLX,,,,,,,,,,
OMC,,,,,,,,,,
OMO,OMO,Mostar International Airport,,,,,,,,
OOT,,,,,,,,,,
ORT,,,,,,,,,,
OSO,OAG,Osborne Mine Airport,,,,,,,,
PBD,PBD,Porbandar Airport,,,,,,,,
PBR,,,,,,,,,,
PCP,,,,,,,,,,
PCQ,,,,,,,,,,
PEX,,,,,,,,,,
PGZ,,,,,,,,,,
PHB,,,,,,,,,,
PIO,,,,,,,,,,
PMF,MIL,Parma Airport,,,,,,,,
PNY,,,,,,,,,,
PRM,,,,,,,,,,
PXA,,,,,,,,,,
PZL,,,,,,,,,,
QSZ,,,,,,,,,,
QUB,,,,,,,,,,
RAQ,,,,,,,,,,
RCU,,,,,,,,,,
RJM,,,,,,,,,,
RZR,,,,,,,,,,
SAG,,,,,,,,,,
SBT,,,,,,,,,,
SDG,,,,,,,,,,
SFS,,,,,,,,,,
SLN,SLN,Salina Municipal Airport,,,,,,,,
SLV,,,,,,,,,,
SMT,,,,,,,,,,
SQD,,,,,,,,,,
SWV,ITO,Shikarpur Airport,,,,,,,,
SZI,,,,,,,,,,
TBF,,,,,,,,,,
TCD,,,,,,,,,,
TEX,TEX,Telluride Regional Airport,,,,,,,,
TJS,,,,,,,,,,
TLQ,,,,,,,,,,
TLU,,,,,,,,,,
TMN,,,,,,,,,,
TSU,,,,,,,,,,
TSY,,,,,,,,,,
TXE,,,,,,,,,,
TYD,,,,,,,,,,
UCB,,,,,,,,,,
ULY,ULY,Ulyanovsk East Airport,,,,,,,,
URO,,,,,,,,,,
UTS,VKT,Ust-tsylma Airport,,,,,,,,
UUA,UUA,Bugulma Airport,,,,,,,,
UZR,,,,,,,,,,
VAL,,,,,,,,,,
VIN,,,,,,,,,,
VLY,EMA,Anglesey Airport,,,,,,,,
VRL,,,,,,,,,,
VSE,,,,,,,,,,
WEC,,,,,,,,,,
WGN,,,,,,,,,,
WHF,,,,,,,,,,
WPR,,,,,,,,,,
WPU,,,,,,,,,,
WUN,,,,,,,,,,
WUU,,,,,,,,,,
XNH,,,,,,,,,,
YES,,,,,,,,,,
YGV,YGT,Havre St Pierre Airport,,,,,,,,
YMX,,,,,,,,,,
YND,,,,,,,,,,
YNY,YNY,Yangyang International Airport,,,,,,,,
YPN,YPN,Port Menier Airport,,,,,,,,
ZDY,,,,,,,,,,
ZIA,,,,,,,,,,
ZIS,,,,,,,,,,
ACP,,,,,,,,,,
BCO,,,,,,,,,,
BXR,,,,,,,,,,
CQD,,,,,,,,,,
DHG,,,,,,,,,,
DLR,,,,,,,,,,
DTU,,,,,,,,,,
DUE,,,,,,,,,,
FIZ,,,,,,,,,,
FNI,,,,,,,,,,
FTI,,,,,,,,,,
GCH,,,,,,,,,,
HCQ,,,,,,,,,,
HHR,,,,,,,,,,
JAR,,,,,,,,,,
JIO,,,,,,,,,,
JMO,,,,,,,,,,
JSA,,,,,,,,,,
JSJ,,,,,,,,,,
JYR,,,,,,,,,,
KDA,,,,,,,,,,
KHK,,,,,,,,,,
LTK,,,,,,,,,,
LUA,,,,,,,,,,
LVP,,,,,,,,,,
MHW,,,,,,,,,,
MLW,MLW,Spriggs Payne Airport,,,,,,,,
NDC,,,,,,,,,,
NEI,,,,,,,,,,
OFU,,,,,,,,,,
PIK,,,,,,,,,,
PSZ,PSZ,Capitn Av Salvador Ogaya G Airport,,,,,,,,
RDZ,RDZ,Rodez-marcillac Airport,,,,,,,,
RJN,,,,,,,,,,
RKZ,,,,,,,,,,
RUD,,,,,,,,,,
RVI,,,,,,,,,,
SHC,SHC,Shire Inda Selassie Airport,,,,,,,,
SNG,,,,,,,,,,
SUP,,,,,,,,,,
SYJ,,,,,,,,,,
TCX,,,,,,,,,,
WMI,,,,,,,,,,
WMT,,,,,,,,,,
WOL,,,,,,,,,,
WRZ,,,,,,,,,,
YON,,,,,,,,,,
YSQ,,,,,,,,,,
ZGR,,,,,,,,,,
RUP,IXR,Rupsi India Airport,,,,,,,,
DIS,,,,,,,,,,
NAC,NAC,Naracoorte Airport,,,,,,,,
GTS,FOT,Granite Downs Airport,,,,,,,,
GTP,,,,,,,,,,
OFI,HGO,Ouango Fitini Airport,,,,,,,,
ONL,,,,,,,,,,
BUL,NSB,Bulolo Airport,,,,,,,,
CRC,,,,,,,,,,
GCT,,,,,,,,,,
ASA,,,,,,,,,,
